{
  "version": 0.6,
  "generator": "Overpass API 0.7.56.6 474850e8",
  "osm3s": {
    "timestamp_osm_base": "2020-10-25T09:08:02Z",
    "timestamp_areas_base": "2020-10-25T08:43:02Z",
    "copyright": "The data included in this document is from www.openstreetmap.org. The data is made available under ODbL."
  },
  "elements": [

{
  "type": "node",
  "id": 49539386,
  "lat": 55.5487431,
  "lon": 12.9906117,
  "tags": {
    "amenity": "fast_food"
  }
},
{
  "type": "node",
  "id": 49539387,
  "lat": 55.5479555,
  "lon": 12.9911572,
  "tags": {
    "amenity": "fast_food"
  }
},
{
  "type": "node",
  "id": 99235295,
  "lat": 55.5534390,
  "lon": 12.9959118,
  "tags": {
    "amenity": "fast_food",
    "brand": "Burger King",
    "brand:wikidata": "Q177054",
    "brand:wikipedia": "en:Burger King",
    "cuisine": "burger",
    "name": "Burger King",
    "operator": "Burger King",
    "takeaway": "yes"
  }
},
{
  "type": "node",
  "id": 252108692,
  "lat": 55.5505885,
  "lon": 13.0327432,
  "tags": {
    "amenity": "fast_food",
    "cuisine": "burger",
    "name": "McDonald's Lockarp",
    "operator": "McDonald's",
    "website": "http://www.mcdonalds.se"
  }
},
{
  "type": "node",
  "id": 253357180,
  "lat": 55.6087030,
  "lon": 13.0282990,
  "tags": {
    "amenity": "fast_food",
    "cuisine": "burger",
    "name": "McDonald's Midhem",
    "operator": "McDonald's"
  }
},
{
  "type": "node",
  "id": 417987302,
  "lat": 55.5971925,
  "lon": 13.0027207,
  "tags": {
    "amenity": "restaurant",
    "contact:facebook": "https://www.facebook.com/brogatan/",
    "name": "Gamla Brogatan",
    "website": "https://gamlabrogatan.se/",
    "wheelchair": "no"
  }
},
{
  "type": "node",
  "id": 417994870,
  "lat": 55.6000420,
  "lon": 13.0013260,
  "tags": {
    "amenity": "restaurant",
    "contact:facebook": "https://www.facebook.com/RestaurangBullenMalmo/",
    "cuisine": "regional",
    "name": "Bullen",
    "outdoor_seating": "yes",
    "website": "http://www.bullen.nu/",
    "wheelchair": "no"
  }
},
{
  "type": "node",
  "id": 417994872,
  "lat": 55.6011294,
  "lon": 13.0099169,
  "tags": {
    "amenity": "cafe",
    "cuisine": "coffee_shop",
    "name": "Element",
    "opening_hours": "Mo-Fr 09:30-18:00, Sa,Su 10:00-17:00"
  }
},
{
  "type": "node",
  "id": 417994873,
  "lat": 55.6014218,
  "lon": 13.0106851,
  "tags": {
    "amenity": "cafe",
    "cuisine": "coffee_shop",
    "name": "Pappas flickor"
  }
},
{
  "type": "node",
  "id": 417994877,
  "lat": 55.6000853,
  "lon": 13.0109765,
  "tags": {
    "addr:city": "Malmö",
    "addr:country": "SE",
    "addr:housenumber": "43",
    "addr:postcode": "211 52",
    "addr:street": "Föreningsgatan",
    "amenity": "fast_food",
    "cuisine": "japanese",
    "name": "Sushido",
    "website": "https://rorsjostaden.sushido.se/"
  }
},
{
  "type": "node",
  "id": 417994878,
  "lat": 55.6002611,
  "lon": 13.0115193,
  "tags": {
    "amenity": "fast_food",
    "description": "Shwarma & Pizza",
    "name": "HumYum"
  }
},
{
  "type": "node",
  "id": 417994884,
  "lat": 55.6080797,
  "lon": 13.0110791,
  "tags": {
    "addr:city": "Malmö",
    "addr:country": "SE",
    "addr:housenumber": "7",
    "addr:street": "Östra Tullgatan",
    "amenity": "restaurant",
    "cuisine": "pizza",
    "name": "La Trattoria",
    "opening_hours": "Mo-Fr 11:30-14:00,16:00-23:00; Sa 14:00-23:00; Su 14:00-22:00",
    "website": "https://www.latrattoria.se/"
  }
},
{
  "type": "node",
  "id": 429998727,
  "lat": 55.6088803,
  "lon": 13.0003333,
  "tags": {
    "amenity": "fast_food",
    "brand": "Burger King",
    "brand:wikidata": "Q177054",
    "brand:wikipedia": "en:Burger King",
    "cuisine": "burger",
    "name": "Burger King",
    "operator": "Burger King",
    "takeaway": "yes",
    "wheelchair": "yes"
  }
},
{
  "type": "node",
  "id": 444822998,
  "lat": 55.6049062,
  "lon": 13.0069813,
  "tags": {
    "addr:city": "Malmö",
    "addr:country": "SE",
    "addr:housenumber": "12",
    "addr:street": "Baltzarsgatan",
    "amenity": "restaurant",
    "cuisine": "indian",
    "name": "Masala House",
    "website": "http://masalahouse.se/",
    "wheelchair": "no"
  }
},
{
  "type": "node",
  "id": 444832885,
  "lat": 55.6047670,
  "lon": 13.0032540,
  "tags": {
    "amenity": "fast_food",
    "brand": "Subway",
    "brand:wikidata": "Q244457",
    "brand:wikipedia": "en:Subway (restaurant)",
    "cuisine": "sandwich",
    "name": "Subway",
    "opening_hours": "Mo-Fr 08:00-21:00; Sa 10:00-18:00; Su 12:00-18:00",
    "takeaway": "yes"
  }
},
{
  "type": "node",
  "id": 444845100,
  "lat": 55.6087207,
  "lon": 12.9995291,
  "tags": {
    "amenity": "cafe",
    "brand": "Espresso House",
    "brand:wikidata": "Q10489162",
    "brand:wikipedia": "en:Espresso House",
    "cuisine": "coffee_shop",
    "internet_access": "wlan",
    "internet_access:fee": "no",
    "name": "Espresso House",
    "opening_hours": "Mo-Fr 05:30-22:00, Sa,Su 07:00-20:00",
    "operator": "Espresso House",
    "source": "survey",
    "takeaway": "yes",
    "wheelchair": "yes"
  }
},
{
  "type": "node",
  "id": 444845102,
  "lat": 55.6088778,
  "lon": 12.9995021,
  "tags": {
    "amenity": "restaurant",
    "internet_access": "wlan",
    "internet_access:fee": "no",
    "name": "O'Learys",
    "opening_hours": "Mo-Th 11:30-23:00, Fr 11:30-24:00, Sa 12:00-24:00, Su 12:00-23:00",
    "wheelchair": "yes"
  }
},
{
  "type": "node",
  "id": 444845105,
  "lat": 55.6106266,
  "lon": 12.9729934,
  "tags": {
    "amenity": "cafe",
    "brand": "Espresso House",
    "brand:wikidata": "Q10489162",
    "brand:wikipedia": "en:Espresso House",
    "cuisine": "coffee_shop",
    "name": "Espresso House",
    "operator": "Espresso House",
    "takeaway": "yes",
    "wheelchair": "no"
  }
},
{
  "type": "node",
  "id": 444845107,
  "lat": 55.6100633,
  "lon": 12.9737620,
  "tags": {
    "amenity": "restaurant",
    "cuisine": "italian",
    "name": "V.E.S.P.A. Grande",
    "toilets:wheelchair": "yes",
    "wheelchair": "yes"
  }
},
{
  "type": "node",
  "id": 444845108,
  "lat": 55.6028526,
  "lon": 13.0027533,
  "tags": {
    "amenity": "restaurant",
    "name": "Sankt Markus Vinkällare",
    "opening_hours": "Mo-Th 17:00-23:00; Fr 17:00-24:00; Sa 16:00-24:00",
    "website": "https://malmborgen.se/vinkallaren/"
  }
},
{
  "type": "node",
  "id": 444853562,
  "lat": 55.6024089,
  "lon": 13.0018256,
  "tags": {
    "amenity": "fast_food",
    "brand": "Burger King",
    "brand:wikidata": "Q177054",
    "brand:wikipedia": "en:Burger King",
    "cuisine": "burger",
    "name": "Burger King",
    "opening_hours": "Mo-Th 09:00-24:00, Fr 09:00-06:00, Sa 10:00-06:00, Su 10:00-24:00",
    "operator": "Burger King",
    "takeaway": "yes",
    "wheelchair": "yes"
  }
},
{
  "type": "node",
  "id": 444854116,
  "lat": 55.6029592,
  "lon": 13.0006721,
  "tags": {
    "amenity": "fast_food",
    "name": "China Box"
  }
},
{
  "type": "node",
  "id": 444854509,
  "lat": 55.6019557,
  "lon": 13.0017019,
  "tags": {
    "addr:country": "SE",
    "addr:housenumber": "3",
    "addr:street": "Kanalgatan",
    "amenity": "restaurant",
    "cuisine": "italian",
    "name": "V.E.S.P.A",
    "opening_hours": "Mo-Fr 11:30-00:00; Sa-Su 12:00-00:00",
    "payment:cash": "no"
  }
},
{
  "type": "node",
  "id": 444854543,
  "lat": 55.6016614,
  "lon": 13.0017955,
  "tags": {
    "amenity": "restaurant",
    "cuisine": "steak_house",
    "name": "Texas Longhorn",
    "opening_hours": "Mo-Fr 11:00-14:00, Sa,Su 12:00-16:00, Mo,Tu 17:00-21:00, We,Th 17:00-22:00, Fr 14:00-22:30, Sa 16:00-22:30, Su 16:00-21:00",
    "website": "http://www.texassmokehouse.se/restaurants/steakhouse/longhorn_malmo"
  }
},
{
  "type": "node",
  "id": 444855618,
  "lat": 55.6052262,
  "lon": 12.9982407,
  "tags": {
    "amenity": "restaurant",
    "name": "Jospers vin & grill"
  }
},
{
  "type": "node",
  "id": 444855873,
  "lat": 55.6050312,
  "lon": 12.9983677,
  "tags": {
    "amenity": "restaurant",
    "cuisine": "indian",
    "name": "Green Chili"
  }
},
{
  "type": "node",
  "id": 444855944,
  "lat": 55.6053562,
  "lon": 12.9981135,
  "tags": {
    "amenity": "restaurant",
    "cuisine": "american",
    "name": "T.G.I. Friday's",
    "outdoor_seating": "yes",
    "wheelchair": "yes"
  }
},
{
  "type": "node",
  "id": 444856134,
  "lat": 55.6055124,
  "lon": 13.0001114,
  "tags": {
    "addr:city": "Malmö",
    "addr:housenumber": "25",
    "addr:postcode": "211 34",
    "addr:street": "Stortorget",
    "amenity": "fast_food",
    "cuisine": "burger",
    "delivery": "yes",
    "drive_through": "no",
    "emergency": "defibrillator",
    "internet_access": "wlan",
    "name": "MAX i Malmö",
    "opening_hours": "Mo 00:00-02:00,10:00-00:00; Tu-We 00:00-04:00,10:00-00:00; Th-Fr 00:00-02:00,10:00-00:00; Sa-Su 00:00-06:00,10:00-00:00",
    "operator": "Max",
    "website": "https://www.max.se/hitta-max/restauranger/malmo-stortorget/",
    "wheelchair": "yes"
  }
},
{
  "type": "node",
  "id": 444857255,
  "lat": 55.6062990,
  "lon": 13.0014000,
  "tags": {
    "amenity": "restaurant",
    "name": "Rådhuskällaren",
    "wheelchair": "yes",
    "wheelchair:description": "Enter with elevator. Ring the Restaurant"
  }
},
{
  "type": "node",
  "id": 444857256,
  "lat": 55.6059883,
  "lon": 13.0014453,
  "tags": {
    "alt_name": "Kentucky Fried Chicken",
    "amenity": "fast_food",
    "brand": "KFC",
    "brand:wikidata": "Q524757",
    "brand:wikipedia": "en:KFC",
    "cuisine": "chicken",
    "from": "2017-08-10",
    "name": "KFC",
    "operator": "KFC",
    "takeaway": "yes",
    "wheelchair": "yes"
  }
},
{
  "type": "node",
  "id": 444860687,
  "lat": 55.6050927,
  "lon": 12.9992832,
  "tags": {
    "amenity": "restaurant",
    "cuisine": "italian",
    "name": "La Grappa"
  }
},
{
  "type": "node",
  "id": 444860887,
  "lat": 55.6048736,
  "lon": 12.9980364,
  "tags": {
    "amenity": "restaurant",
    "cuisine": "spanish",
    "name": "La Roche"
  }
},
{
  "type": "node",
  "id": 444862686,
  "lat": 55.6046917,
  "lon": 12.9998958,
  "tags": {
    "amenity": "restaurant",
    "name": "La Brasserie"
  }
},
{
  "type": "node",
  "id": 444862735,
  "lat": 55.6049337,
  "lon": 12.9984100,
  "tags": {
    "amenity": "restaurant",
    "cuisine": "steak_house",
    "name": "Steakhouse Lilla Torg",
    "outdoor_seating": "yes"
  }
},
{
  "type": "node",
  "id": 444870966,
  "lat": 55.6078414,
  "lon": 13.0074188,
  "tags": {
    "addr:city": "Malmö",
    "addr:country": "SE",
    "addr:housenumber": "7b",
    "addr:postcode": "21125",
    "addr:street": "Östergatan",
    "amenity": "cafe",
    "cuisine": "french",
    "name": "Pâtisserie David",
    "source": "http://www.patisseriedavid.se/",
    "website": "http://www.patisseriedavid.se/"
  }
},
{
  "type": "node",
  "id": 444872124,
  "lat": 55.6080494,
  "lon": 13.0108431,
  "tags": {
    "amenity": "restaurant",
    "cuisine": "lebanese",
    "name": "Occo"
  }
},
{
  "type": "node",
  "id": 444874856,
  "lat": 55.6024143,
  "lon": 13.0179743,
  "tags": {
    "amenity": "fast_food",
    "cuisine": "pizza",
    "drive_through": "no",
    "name": "Ramona Pizzeria och Restaurang"
  }
},
{
  "type": "node",
  "id": 444876188,
  "lat": 55.6062518,
  "lon": 13.0225263,
  "tags": {
    "amenity": "fast_food",
    "brand": "Burger King",
    "brand:wikidata": "Q177054",
    "brand:wikipedia": "en:Burger King",
    "cuisine": "burger",
    "name": "Burger King",
    "operator": "Burger King",
    "takeaway": "yes"
  }
},
{
  "type": "node",
  "id": 444877762,
  "lat": 55.6065361,
  "lon": 13.0213420,
  "tags": {
    "addr:city": "Malmö",
    "addr:country": "SE",
    "addr:housenumber": "46",
    "addr:postcode": "212 12",
    "addr:street": "Östra Förstadsgatan",
    "amenity": "restaurant",
    "name": "GoGoGrill&Green",
    "opening_hours": "Mo-Th 08:00-01:00; Fr 08:00-05:00; Sa 09:00-05:00; Su 10:00-00:00",
    "phone": "+46 401 825 30",
    "website": "http://gogogrill.se/"
  }
},
{
  "type": "node",
  "id": 444879772,
  "lat": 55.6062664,
  "lon": 13.0213635,
  "tags": {
    "amenity": "restaurant",
    "name": "Broderstugan"
  }
},
{
  "type": "node",
  "id": 444879801,
  "lat": 55.6063421,
  "lon": 13.0210685,
  "tags": {
    "amenity": "fast_food",
    "cuisine": "sushi",
    "name": "Samurai",
    "opening_hours": "Mo-Sa 11:00-21:00, Su 12:00-21:00"
  }
},
{
  "type": "node",
  "id": 444880200,
  "lat": 55.6064603,
  "lon": 13.0206018,
  "tags": {
    "amenity": "cafe",
    "cuisine": "african",
    "name": "African way"
  }
},
{
  "type": "node",
  "id": 444880324,
  "lat": 55.6064976,
  "lon": 13.0203448,
  "tags": {
    "addr:country": "SE",
    "addr:housenumber": "29",
    "addr:street": "Östra Förstadsgatan",
    "amenity": "restaurant",
    "cuisine": "vegetarian",
    "name": "Sajvva",
    "opening_hours": "Tu-Sa 17:00-22:00",
    "wheelchair": "limited"
  }
},
{
  "type": "node",
  "id": 444881115,
  "lat": 55.6068421,
  "lon": 13.0189388,
  "tags": {
    "amenity": "restaurant",
    "name": "Shanghai",
    "opening_hours": "Mo-Fr 11:30-14:30, Tu-Th 16:00-21:00, Fr 16:00-22:00, Sa 12:30-22:00, Su 12:30-21:00"
  }
},
{
  "type": "node",
  "id": 444881619,
  "lat": 55.6071815,
  "lon": 13.0212643,
  "tags": {
    "amenity": "restaurant",
    "cuisine": "chinese",
    "name": "Restaurang Kina"
  }
},
{
  "type": "node",
  "id": 444881626,
  "lat": 55.6070599,
  "lon": 13.0202578,
  "tags": {
    "amenity": "restaurant",
    "name": "Big Bowl"
  }
},
{
  "type": "node",
  "id": 444882355,
  "lat": 55.6069633,
  "lon": 13.0185096,
  "tags": {
    "amenity": "restaurant",
    "name": "Cafe Ceder",
    "toilets:wheelchair": "yes",
    "wheelchair": "limited"
  }
},
{
  "type": "node",
  "id": 444883186,
  "lat": 55.6071936,
  "lon": 13.0186277,
  "tags": {
    "amenity": "restaurant",
    "cuisine": "spanish",
    "diet:vegan": "no",
    "diet:vegetarian": "yes",
    "name": "El Patio",
    "wheelchair": "yes"
  }
},
{
  "type": "node",
  "id": 444883889,
  "lat": 55.6070118,
  "lon": 13.0182843,
  "tags": {
    "amenity": "fast_food",
    "cuisine": "sushi",
    "name": "Sachi Sushi"
  }
},
{
  "type": "node",
  "id": 444883982,
  "lat": 55.6070542,
  "lon": 13.0181073,
  "tags": {
    "addr:city": "Malmö",
    "addr:country": "SE",
    "addr:housenumber": "21",
    "addr:postcode": "21131",
    "addr:street": "Östra Förstadsgatan",
    "amenity": "fast_food",
    "cuisine": "pizza",
    "name": "Amanos",
    "opening_hours": "Mo-Th 11:00-22:00,Fr-Sa 11:00-23:00,Su 11:00-22:00",
    "phone": "+46 40 78316",
    "website": "http://www.amanos.se/"
  }
},
{
  "type": "node",
  "id": 445332875,
  "lat": 55.6040005,
  "lon": 13.0083044,
  "tags": {
    "amenity": "restaurant",
    "cuisine": "asian",
    "diet:vegan": "only",
    "name": "Vegegården",
    "opening_hours": "Mo-Fr 11:00-15:00; Sa-Su 13:00-21:00",
    "payment:cash": "yes"
  }
},
{
  "type": "node",
  "id": 445842675,
  "lat": 55.5992015,
  "lon": 12.9978501,
  "tags": {
    "amenity": "restaurant",
    "contact:facebook": "https://www.facebook.com/RestaurangHai/",
    "cuisine": "japanese",
    "name": "Hai",
    "website": "https://hai.se/"
  }
},
{
  "type": "node",
  "id": 445842838,
  "lat": 55.5909700,
  "lon": 13.0106588,
  "tags": {
    "amenity": "restaurant",
    "cuisine": "african;ethiopian;eritrean",
    "name": "Restaurang Zula",
    "payment:cash": "yes",
    "wheelchair": "limited"
  }
},
{
  "type": "node",
  "id": 445844340,
  "lat": 55.5862336,
  "lon": 13.0058967,
  "tags": {
    "amenity": "restaurant",
    "cuisine": "japanese",
    "name": "Chill Out",
    "wheelchair": "no"
  }
},
{
  "type": "node",
  "id": 445846438,
  "lat": 55.5858153,
  "lon": 13.0064160,
  "tags": {
    "amenity": "cafe",
    "name": "Wallins konditori",
    "opening_hours": "Mo-Fr 06:00-19:00; Sa 07:00-18:00; Su 08:00-16:00",
    "payment:cash": "yes"
  }
},
{
  "type": "node",
  "id": 472675243,
  "lat": 55.5596357,
  "lon": 12.9347897,
  "tags": {
    "amenity": "cafe",
    "name": "Skånegården"
  }
},
{
  "type": "node",
  "id": 474727509,
  "lat": 55.5979923,
  "lon": 12.9992119,
  "tags": {
    "amenity": "restaurant",
    "contact:facebook": "https://www.facebook.com/deliimalmo/",
    "contact:instagram": "https://www.instagram.com/deliimalmo/",
    "name": "Delikatessen",
    "opening_hours": "Mo-Fr 10:00-18:00, Sa 10:00-15:00",
    "website": "https://www.delikatessen.nu/",
    "wheelchair": "yes"
  }
},
{
  "type": "node",
  "id": 493899996,
  "lat": 55.5815828,
  "lon": 13.0121701,
  "tags": {
    "amenity": "fast_food",
    "brand": "McDonald's",
    "brand:wikidata": "Q38076",
    "brand:wikipedia": "en:McDonald's",
    "cuisine": "burger",
    "name": "McDonald's",
    "takeaway": "yes",
    "wheelchair": "yes"
  }
},
{
  "type": "node",
  "id": 534571956,
  "lat": 55.5928090,
  "lon": 13.0067036,
  "tags": {
    "addr:city": "Malmö",
    "addr:housenumber": "30",
    "addr:postcode": "214 22",
    "addr:street": "Södra Skolgatan",
    "amenity": "restaurant",
    "cuisine": "indian",
    "name": "Indian Kicthen",
    "payment:cash": "yes",
    "wheelchair": "limited"
  }
},
{
  "type": "node",
  "id": 534572236,
  "lat": 55.5927300,
  "lon": 13.0072171,
  "tags": {
    "amenity": "restaurant",
    "name": "Restaurang Möllan",
    "payment:cash": "yes",
    "reservation": "no",
    "wheelchair": "limited"
  }
},
{
  "type": "node",
  "id": 534648804,
  "lat": 55.5940805,
  "lon": 13.0075321,
  "tags": {
    "addr:city": "Malmö",
    "addr:country": "SE",
    "addr:housenumber": "29",
    "addr:postcode": "214 22",
    "addr:street": "Bergsgatan",
    "amenity": "restaurant",
    "cuisine": "thai",
    "name": "SOI 29",
    "opening_hours": "Tu-Th 18:00-22:00; Fr-Sa 18:00-24:00",
    "website": "https://soi29thaikitchen.com/",
    "wheelchair": "yes"
  }
},
{
  "type": "node",
  "id": 536813370,
  "lat": 55.5907138,
  "lon": 13.0105408,
  "tags": {
    "amenity": "restaurant",
    "cuisine": "vietnamese",
    "name": "Asien",
    "wheelchair": "no"
  }
},
{
  "type": "node",
  "id": 536820165,
  "lat": 55.5915186,
  "lon": 13.0110799,
  "tags": {
    "addr:city": "Malmö",
    "addr:country": "SE",
    "addr:housenumber": "20B",
    "addr:postcode": "21423",
    "addr:street": "Simrishamnsgatan",
    "amenity": "restaurant",
    "cuisine": "pizza;indian",
    "name": "Bollywood Lounge",
    "opening_hours": "Mo-Fr 16:00-01:00,Sa 13:00-01:00,Su 13:00-22:00",
    "phone": "+46 40 611 45 43",
    "takeaway": "yes",
    "website": "http://goldenshiva.se/",
    "wheelchair": "limited"
  }
},
{
  "type": "node",
  "id": 536821189,
  "lat": 55.5914671,
  "lon": 13.0100580,
  "tags": {
    "amenity": "fast_food",
    "name": "Orient Grill",
    "wheelchair": "no"
  }
},
{
  "type": "node",
  "id": 536824935,
  "lat": 55.5912587,
  "lon": 13.0077666,
  "tags": {
    "addr:city": "Malmö",
    "addr:housenumber": "5A",
    "addr:postcode": "21424",
    "addr:street": "Möllevångstorget",
    "amenity": "restaurant",
    "cuisine": "persian",
    "name": "Restaurang Shiraz"
  }
},
{
  "type": "node",
  "id": 536826013,
  "lat": 55.5913307,
  "lon": 13.0089395,
  "tags": {
    "amenity": "restaurant",
    "name": "Krua Thai",
    "payment:cash": "yes",
    "wheelchair": "limited"
  }
},
{
  "type": "node",
  "id": 536828523,
  "lat": 55.5919597,
  "lon": 13.0084674,
  "tags": {
    "amenity": "restaurant",
    "name": "Nyhavn"
  }
},
{
  "type": "node",
  "id": 536829711,
  "lat": 55.5920493,
  "lon": 13.0078060,
  "tags": {
    "amenity": "restaurant",
    "name": "Mascot"
  }
},
{
  "type": "node",
  "id": 536831867,
  "lat": 55.5908730,
  "lon": 13.0097334,
  "tags": {
    "amenity": "restaurant",
    "cuisine": "persian",
    "name": "Nawroz"
  }
},
{
  "type": "node",
  "id": 536833709,
  "lat": 55.5910428,
  "lon": 13.0087673,
  "tags": {
    "amenity": "cafe",
    "name": "Kaffebaren",
    "opening_hours": "Mo-Fr 08:00-18:00; Sa 09:00-18:00; Su 09:00-18:00",
    "payment:cash": "yes",
    "takeaway": "yes",
    "wheelchair": "no"
  }
},
{
  "type": "node",
  "id": 536836196,
  "lat": 55.5923083,
  "lon": 13.0086471,
  "tags": {
    "amenity": "restaurant",
    "name": "Möllan Nights"
  }
},
{
  "type": "node",
  "id": 536859303,
  "lat": 55.5916345,
  "lon": 13.0062525,
  "tags": {
    "amenity": "fast_food",
    "name": "Falafelmästaren"
  }
},
{
  "type": "node",
  "id": 536872774,
  "lat": 55.5932023,
  "lon": 13.0074737,
  "tags": {
    "addr:city": "Malmö",
    "addr:country": "SE",
    "addr:housenumber": "35",
    "addr:postcode": "214 22",
    "addr:street": "Bergsgatan",
    "amenity": "restaurant",
    "cuisine": "japanese;vietnamese",
    "name": "Yukai",
    "payment:cash": "yes",
    "phone": "+4640231718",
    "wheelchair": "no"
  }
},
{
  "type": "node",
  "id": 560967014,
  "lat": 55.6036478,
  "lon": 13.0030089,
  "tags": {
    "amenity": "restaurant",
    "cuisine": "italian",
    "name": "Spot"
  }
},
{
  "type": "node",
  "id": 625987389,
  "lat": 55.6112939,
  "lon": 12.9943151,
  "tags": {
    "addr:city": "Malmö",
    "addr:country": "SE",
    "addr:housenumber": "3",
    "addr:postcode": "21119",
    "addr:street": "Anckargripsgatan",
    "amenity": "cafe",
    "name": "Välfärden",
    "opening_hours": "mo-fr 08:00-16:00",
    "payment:cash": "no",
    "phone": "+46 40 26 43 30",
    "website": "https://valfarden.nu/",
    "wheelchair": "limited"
  }
},
{
  "type": "node",
  "id": 625987394,
  "lat": 55.6067326,
  "lon": 12.9989732,
  "tags": {
    "amenity": "restaurant",
    "name": "Årstiderna i Kockska huset"
  }
},
{
  "type": "node",
  "id": 625987396,
  "lat": 55.6045773,
  "lon": 13.0004881,
  "tags": {
    "amenity": "restaurant",
    "bar": "yes",
    "cuisine": "steak_house",
    "delivery": "yes",
    "name": "Mando Steakhouse",
    "outdoor_seating": "yes",
    "smoking": "outside",
    "takeaway": "yes",
    "wheelchair": "no"
  }
},
{
  "type": "node",
  "id": 625987405,
  "lat": 55.6080978,
  "lon": 12.9985456,
  "tags": {
    "amenity": "restaurant",
    "name": "Skeppsbron 2"
  }
},
{
  "type": "node",
  "id": 658079080,
  "lat": 55.6143695,
  "lon": 12.9899044,
  "tags": {
    "amenity": "restaurant",
    "name": "Doc Italiano"
  }
},
{
  "type": "node",
  "id": 658707737,
  "lat": 55.5996653,
  "lon": 12.9989276,
  "tags": {
    "amenity": "restaurant",
    "contact:facebook": "https://www.facebook.com/Restaurang-Mrs-Brown-582613811876595/",
    "name": "Mrs Brown",
    "opening_hours": "Mo-Th 16:00+; Fr 15:00+; Sa 12:00+; Su off",
    "website": "http://mrsbrown.se/"
  }
},
{
  "type": "node",
  "id": 677439597,
  "lat": 55.6066007,
  "lon": 13.0028202,
  "tags": {
    "addr:city": "Malmö",
    "addr:country": "SE",
    "addr:housenumber": "4",
    "addr:street": "Kalendegatan",
    "alt_name": "Pincho Nation",
    "amenity": "restaurant",
    "cuisine": "tapas;vegetarian",
    "delivery": "no",
    "drive_through": "no",
    "name": "Pinchos",
    "opening_hours": "Mo-Th 16:30-23:00, Fr 15:00-01:00, Sa 12:00-01:00, Su 12:00-23:00",
    "smoking": "no",
    "takeaway": "no",
    "website": "https://www.pinchos.se/malmo/",
    "wheelchair": "yes"
  }
},
{
  "type": "node",
  "id": 729620563,
  "lat": 55.6143221,
  "lon": 12.9895284,
  "tags": {
    "amenity": "restaurant",
    "cuisine": "pizza;pasta",
    "name": "Doc Piazza, Pizzeria Trattoria",
    "phone": "+46406113222"
  }
},
{
  "type": "node",
  "id": 765971651,
  "lat": 55.5920178,
  "lon": 13.0056761,
  "tags": {
    "amenity": "restaurant",
    "cuisine": "indian",
    "name": "Indian Haweli"
  }
},
{
  "type": "node",
  "id": 767143500,
  "lat": 55.6132195,
  "lon": 12.9921309,
  "tags": {
    "addr:city": "Malmö",
    "addr:country": "SE",
    "addr:housenumber": "3",
    "addr:postcode": "21119",
    "addr:street": "Isbergs gata",
    "amenity": "fast_food",
    "branch": "Västra hamnen",
    "contact:phone": "+46 40 23 10 36",
    "cuisine": "burger",
    "drive_through": "no",
    "name": "Time",
    "opening_hours": "Mo-Th 07:00-18:00; Fr 07:00-17:00; Sa-Su off",
    "outdoor_seating": "yes",
    "website": "www.timebutikerna.se"
  }
},
{
  "type": "node",
  "id": 772486928,
  "lat": 55.6140620,
  "lon": 12.9761750,
  "tags": {
    "addr:city": "Malmö",
    "addr:country": "SE",
    "addr:housenumber": "44",
    "addr:street": "Västra Varvsgatan",
    "amenity": "restaurant",
    "name": "Torso Twisted",
    "phone": "+4640126850",
    "wheelchair": "limited"
  }
},
{
  "type": "node",
  "id": 786403321,
  "lat": 55.5747724,
  "lon": 12.9994869,
  "tags": {
    "amenity": "restaurant",
    "cuisine": "pizza",
    "name": "Per Albins Krog",
    "opening_hours": "15:00 - 24:00"
  }
},
{
  "type": "node",
  "id": 850906909,
  "lat": 55.5844217,
  "lon": 13.0059466,
  "tags": {
    "amenity": "restaurant",
    "cuisine": "thai",
    "name": "Petpailin"
  }
},
{
  "type": "node",
  "id": 897688921,
  "lat": 55.5848529,
  "lon": 13.0176798,
  "tags": {
    "amenity": "cafe",
    "name": "Arena 305"
  }
},
{
  "type": "node",
  "id": 897775046,
  "lat": 55.5858129,
  "lon": 13.0149932,
  "tags": {
    "amenity": "restaurant",
    "cuisine": "persian",
    "name": "Aras",
    "opening_hours": "11:30-21:00",
    "outdoor_seating": "no",
    "payment:cash": "yes",
    "smoking": "no",
    "takeaway": "yes"
  }
},
{
  "type": "node",
  "id": 897785462,
  "lat": 55.5834692,
  "lon": 13.0191728,
  "tags": {
    "amenity": "restaurant",
    "cuisine": "chinese",
    "name": "He Cheng"
  }
},
{
  "type": "node",
  "id": 945421545,
  "lat": 55.5908078,
  "lon": 13.0081139,
  "tags": {
    "amenity": "restaurant",
    "name": "Balthazar"
  }
},
{
  "type": "node",
  "id": 958715263,
  "lat": 55.5636158,
  "lon": 13.0455192,
  "tags": {
    "amenity": "restaurant",
    "name": "Fosie"
  }
},
{
  "type": "node",
  "id": 958718871,
  "lat": 55.5607278,
  "lon": 13.0381270,
  "tags": {
    "amenity": "restaurant",
    "name": "Cosmos"
  }
},
{
  "type": "node",
  "id": 991719823,
  "lat": 55.6041159,
  "lon": 13.0098036,
  "tags": {
    "addr:country": "SE",
    "addr:housenumber": "23",
    "addr:street": "Södra Promenaden",
    "amenity": "restaurant",
    "contact:facebook": "https://www.facebook.com/Geregerestaurang/",
    "contact:instagram": "https://www.instagram.com/gerege_restaurang/",
    "cuisine": "korean",
    "name": "Gerege",
    "opening_hours": "Mo 11:30-14:00; Tu-Fr 11:30-14:00, 17:00-22:00; Sa 14:00-22:00",
    "website": "http://gerege.nu/"
  }
},
{
  "type": "node",
  "id": 1012287166,
  "lat": 55.5948359,
  "lon": 13.0088529,
  "tags": {
    "amenity": "fast_food",
    "name": "Jalla Jalla"
  }
},
{
  "type": "node",
  "id": 1012287173,
  "lat": 55.5949436,
  "lon": 13.0089017,
  "tags": {
    "amenity": "fast_food",
    "name": "Campus",
    "wheelchair": "no"
  }
},
{
  "type": "node",
  "id": 1012287179,
  "lat": 55.5962556,
  "lon": 13.0089029,
  "tags": {
    "amenity": "fast_food",
    "name": "Big Mamas"
  }
},
{
  "type": "node",
  "id": 1012287185,
  "lat": 55.5967183,
  "lon": 13.0095811,
  "tags": {
    "amenity": "restaurant",
    "name": "Tusen & 2"
  }
},
{
  "type": "node",
  "id": 1012306188,
  "lat": 55.5986580,
  "lon": 13.0095590,
  "tags": {
    "amenity": "restaurant",
    "cuisine": "indian",
    "delivery": "yes",
    "diet:vegetarian": "yes",
    "name": "Niribili",
    "opening_hours": "Mo 11:00-14:30; Tu-Th 11:00-14:30, Tu-Th 17:00-21:00; Fr 11:00-14:30, Fr 17:00-22:00; Sa 16:00-22:00; Su 16:00-21:00",
    "outdoor_seating": "no",
    "payment:cash": "yes",
    "smoking": "no",
    "takeaway": "yes",
    "wheelchair": "no"
  }
},
{
  "type": "node",
  "id": 1015583552,
  "lat": 55.5920075,
  "lon": 13.0089316,
  "tags": {
    "amenity": "restaurant",
    "name": "Metro",
    "wheelchair": "limited"
  }
},
{
  "type": "node",
  "id": 1030487936,
  "lat": 55.5926714,
  "lon": 13.0063521,
  "tags": {
    "amenity": "restaurant",
    "name": "Belle Époque"
  }
},
{
  "type": "node",
  "id": 1176790954,
  "lat": 55.5961800,
  "lon": 13.0034500,
  "tags": {
    "amenity": "cafe",
    "name": "Mocca",
    "wheelchair": "no",
    "wheelchair:description": "3 steps to get in, no accessable bathroom"
  }
},
{
  "type": "node",
  "id": 1176797496,
  "lat": 55.6049603,
  "lon": 12.9993200,
  "tags": {
    "addr:city": "Malmö",
    "addr:country": "SE",
    "addr:housenumber": "11",
    "addr:postcode": "21134",
    "addr:street": "Skomakaregatan",
    "amenity": "cafe",
    "name": "Folk å Rock",
    "phone": "+46 40 78103",
    "website": "https://folkarock.se/",
    "wheelchair": "yes"
  }
},
{
  "type": "node",
  "id": 1179544295,
  "lat": 55.5965090,
  "lon": 12.9959489,
  "tags": {
    "amenity": "restaurant",
    "name": "Malmö Opera Grill",
    "wikidata": "Q1507772"
  }
},
{
  "type": "node",
  "id": 1181418068,
  "lat": 55.6095944,
  "lon": 13.0002658,
  "tags": {
    "addr:city": "Malmö",
    "addr:postcode": "21122",
    "addr:street": "Malmö Centralstation,",
    "amenity": "fast_food",
    "cuisine": "sausage;hot_dog",
    "drive_through": "no",
    "name": "Pølsemannen",
    "opening_hours": "Mo-Su 11:00-23:00",
    "operator": "Pølsemannen",
    "takeaway": "only",
    "website": "https://www.polsemannen.se/enheter/centralstationen-malmo/",
    "wheelchair": "yes"
  }
},
{
  "type": "node",
  "id": 1181418072,
  "lat": 55.6036459,
  "lon": 12.9964110,
  "tags": {
    "amenity": "restaurant",
    "name": "Lemongrass",
    "wheelchair": "yes"
  }
},
{
  "type": "node",
  "id": 1208663511,
  "lat": 55.5879883,
  "lon": 13.0171158,
  "tags": {
    "amenity": "cafe",
    "name": "Tryckeriet"
  }
},
{
  "type": "node",
  "id": 1239620654,
  "lat": 55.5984685,
  "lon": 12.9963697,
  "tags": {
    "addr:city": "Malmö",
    "addr:country": "SE",
    "addr:housenumber": "14",
    "addr:postcode": "211 42",
    "addr:street": "Fersensväg",
    "amenity": "restaurant",
    "name": "Mutantur"
  }
},
{
  "type": "node",
  "id": 1293121309,
  "lat": 55.5904168,
  "lon": 13.0801329,
  "tags": {
    "amenity": "restaurant",
    "cuisine": "pizza",
    "name": "Husie pizzeria"
  }
},
{
  "type": "node",
  "id": 1295856364,
  "lat": 55.6025985,
  "lon": 13.0143328,
  "tags": {
    "addr:city": "Malmö",
    "addr:country": "SE",
    "addr:housenumber": "11",
    "addr:postcode": "211 49",
    "addr:street": "Sankt Pauli kyrkogata",
    "amenity": "restaurant",
    "cuisine": "international",
    "diet:vegetarian": "no",
    "name": "Restaurang T-BONE",
    "opening_hours": "Mo-Su 17:00-18:00+",
    "wheelchair": "no"
  }
},
{
  "type": "node",
  "id": 1309266389,
  "lat": 55.5995916,
  "lon": 13.0095296,
  "tags": {
    "addr:city": "Malmö",
    "addr:country": "SE",
    "addr:housenumber": "39",
    "addr:postcode": "21152",
    "addr:street": "Föreningsgatan",
    "alt_name": "Restaurang Golden Crown",
    "amenity": "restaurant",
    "cuisine": "chinese",
    "name": "Golden Crown"
  }
},
{
  "type": "node",
  "id": 1309269905,
  "lat": 55.5994404,
  "lon": 13.0090960,
  "tags": {
    "addr:city": "Malmö",
    "addr:country": "SE",
    "addr:housenumber": "37",
    "addr:postcode": "21152",
    "addr:street": "Föreningsgatan",
    "amenity": "restaurant",
    "name": "Halv 8 Hos Gert"
  }
},
{
  "type": "node",
  "id": 1309298154,
  "lat": 55.5997148,
  "lon": 13.0083227,
  "tags": {
    "addr:city": "Malmö",
    "addr:country": "SE",
    "addr:housenumber": "12",
    "addr:postcode": "211 55",
    "addr:street": "Amiralsgatan",
    "amenity": "restaurant",
    "cuisine": "hawaiian",
    "email": "info@acaiandpoke.com",
    "name": "Acaí and Poké",
    "opening_hours": "Mo-Fr 11:00-18:00, Sa-Su 11:00-19:00",
    "outdoor_seating": "yes",
    "phone": "+4640232390",
    "takeaway": "yes",
    "website": "https://acaiandpoke.com/"
  }
},
{
  "type": "node",
  "id": 1309334554,
  "lat": 55.5996979,
  "lon": 13.0055497,
  "tags": {
    "addr:city": "Malmö",
    "addr:country": "SE",
    "addr:housenumber": "2 a",
    "addr:postcode": "211 49",
    "addr:street": "Kungsgatan",
    "amenity": "cafe",
    "cuisine": "regional",
    "name": "Kafé Kungsgatan",
    "website": "http://www.kungsg.se"
  }
},
{
  "type": "node",
  "id": 1309356207,
  "lat": 55.6002337,
  "lon": 13.0046313,
  "tags": {
    "addr:city": "Malmö",
    "addr:country": "SE",
    "addr:housenumber": "11",
    "addr:postcode": "211 41",
    "addr:street": "Kaptensgatan",
    "amenity": "cafe",
    "name": "Café 2000",
    "opening_hours": "Mo-Fr 10:00-18:00, Sa 12:00-16:00",
    "website": "http://www.cafe2000.se/"
  }
},
{
  "type": "node",
  "id": 1309359393,
  "lat": 55.6000651,
  "lon": 13.0040807,
  "tags": {
    "addr:city": "Malmö",
    "addr:country": "SE",
    "addr:housenumber": "1",
    "addr:postcode": "211 41",
    "addr:street": "Storgatan",
    "amenity": "restaurant",
    "contact:facebook": "https://www.facebook.com/perssonskrog/",
    "contact:instagram": "https://www.instagram.com/perssonskrog/",
    "cuisine": "steak_house",
    "name": "Perssons Kök & Bar"
  }
},
{
  "type": "node",
  "id": 1343176255,
  "lat": 55.6142533,
  "lon": 12.9890079,
  "tags": {
    "amenity": "restaurant",
    "cuisine": "regional",
    "name": "Stereo",
    "opening_hours": "Mo-Fr 11:15-13:30",
    "phone": "+46 40 123301"
  }
},
{
  "type": "node",
  "id": 1343662487,
  "lat": 55.6144561,
  "lon": 12.9884219,
  "tags": {
    "amenity": "restaurant",
    "cuisine": "lunch",
    "name": "P2"
  }
},
{
  "type": "node",
  "id": 1359118612,
  "lat": 55.5509315,
  "lon": 13.0039240,
  "tags": {
    "amenity": "cafe",
    "name": "Kleins Mat",
    "website": "http://www.kleinsmat.se"
  }
},
{
  "type": "node",
  "id": 1364768136,
  "lat": 55.5957860,
  "lon": 13.0031450,
  "tags": {
    "amenity": "fast_food",
    "brand": "Burger King",
    "brand:wikidata": "Q177054",
    "brand:wikipedia": "en:Burger King",
    "cuisine": "burger",
    "entrance": "yes",
    "name": "Burger King",
    "opening_hours": "Mo-Fr 09:00-00:00;Sa 10:00-00:00;Su 10:00-23:00",
    "takeaway": "yes",
    "wheelchair": "yes"
  }
},
{
  "type": "node",
  "id": 1385696595,
  "lat": 55.6084480,
  "lon": 13.0151965,
  "tags": {
    "amenity": "fast_food",
    "cuisine": "sausages",
    "name": "Korvhuset"
  }
},
{
  "type": "node",
  "id": 1385696599,
  "lat": 55.6069334,
  "lon": 12.9968949,
  "tags": {
    "amenity": "restaurant",
    "cuisine": "asian fusion",
    "name": "Pink Head HQ",
    "wheelchair": "yes"
  }
},
{
  "type": "node",
  "id": 1385696603,
  "lat": 55.6067459,
  "lon": 12.9961110,
  "tags": {
    "addr:city": "Malmö",
    "addr:country": "SE",
    "addr:housenumber": "88",
    "addr:street": "NorraVallgatan",
    "amenity": "restaurant",
    "cuisine": "german",
    "name": "Lilla Köket",
    "opening_hours": "Mo-Fr 11:30-14:30,17:00+",
    "phone": "+46-40-231333",
    "tfn": "004640231333",
    "website": "http://www.lillakoket.com/"
  }
},
{
  "type": "node",
  "id": 1385696608,
  "lat": 55.6067139,
  "lon": 12.9959767,
  "tags": {
    "amenity": "fast_food",
    "cuisine": "kebab",
    "name": "Kebablandet",
    "opening_hours": "Mo-Fr 11:00-19:00; Sa 11:30-17:00"
  }
},
{
  "type": "node",
  "id": 1399605423,
  "lat": 55.6042886,
  "lon": 13.0099131,
  "tags": {
    "amenity": "restaurant",
    "cuisine": "pizza",
    "name": "Pizzeria Paulibron"
  }
},
{
  "type": "node",
  "id": 1399608687,
  "lat": 55.6055640,
  "lon": 13.0252670,
  "tags": {
    "addr:city": "Malmö",
    "addr:country": "SE",
    "addr:housenumber": "2",
    "addr:postcode": "212 18",
    "addr:street": "Östervärnsgatan",
    "alt_name": "Värnhem",
    "amenity": "fast_food",
    "cuisine": "pizza",
    "name": "Värnhems pizzeria"
  }
},
{
  "type": "node",
  "id": 1399612006,
  "lat": 55.6062033,
  "lon": 13.0257283,
  "tags": {
    "amenity": "fast_food",
    "cuisine": "pizza",
    "name": "Lazio"
  }
},
{
  "type": "node",
  "id": 1446487347,
  "lat": 55.5821321,
  "lon": 12.9289167,
  "tags": {
    "amenity": "restaurant",
    "name": "Bistro Stella",
    "website": "http://www.bistrostella.se/"
  }
},
{
  "type": "node",
  "id": 1460876011,
  "lat": 55.6057140,
  "lon": 13.0028035,
  "tags": {
    "addr:city": "Malmö",
    "addr:country": "SE",
    "addr:housenumber": "7",
    "addr:postcode": "211 35",
    "addr:street": "Kalendergatan",
    "amenity": "restaurant",
    "name": "Paddy's",
    "opening_hours": "Mo,Tu 16:00-24:00, We,Th 16:00-01:00, Fr,Sa 16:00-02:00"
  }
},
{
  "type": "node",
  "id": 1488710555,
  "lat": 55.5969410,
  "lon": 13.0137563,
  "tags": {
    "amenity": "cafe",
    "name": "Uggla",
    "opening_hours": "Mo-Fr 09:00-18:00; Sa,Su 10:00-16:00",
    "payment:cash": "yes"
  }
},
{
  "type": "node",
  "id": 1495922940,
  "lat": 55.5395215,
  "lon": 13.0960856,
  "tags": {
    "amenity": "fast_food",
    "cuisine": "pizza",
    "name": "Team Pizzeria"
  }
},
{
  "type": "node",
  "id": 1575225594,
  "lat": 55.6127586,
  "lon": 12.9729323,
  "tags": {
    "amenity": "restaurant",
    "name": "RiAnna by the Sea"
  }
},
{
  "type": "node",
  "id": 1607415346,
  "lat": 55.6081022,
  "lon": 13.0013142,
  "tags": {
    "amenity": "fast_food",
    "cuisine": "kebab",
    "name": "Falafel & Kebab Stationen"
  }
},
{
  "type": "node",
  "id": 1623950685,
  "lat": 55.5988487,
  "lon": 12.9738331,
  "tags": {
    "alt_name": "Två Pizzabagare",
    "amenity": "fast_food",
    "cuisine": "pizza",
    "name": "Jannis Pizza",
    "website": "http://www.jannispizza.com/"
  }
},
{
  "type": "node",
  "id": 1624179498,
  "lat": 55.6055065,
  "lon": 13.0263175,
  "tags": {
    "amenity": "cafe",
    "name": "Café Grannen"
  }
},
{
  "type": "node",
  "id": 1628413971,
  "lat": 55.5845071,
  "lon": 13.0741274,
  "tags": {
    "amenity": "fast_food",
    "cuisine": "pizza",
    "name": "Pizzeria Oden"
  }
},
{
  "type": "node",
  "id": 1634425921,
  "lat": 55.6118064,
  "lon": 12.9973747,
  "tags": {
    "amenity": "fast_food",
    "contact:phone": "+46 40 12 11 46",
    "cuisine": "burger",
    "name": "Malmö kebab"
  }
},
{
  "type": "node",
  "id": 1668736096,
  "lat": 55.5987440,
  "lon": 12.9851708,
  "tags": {
    "addr:city": "Malmö",
    "addr:country": "SE",
    "addr:housename": "Kronprinsen",
    "addr:housenumber": "50",
    "addr:postcode": "21748",
    "addr:street": "Regementsgatan",
    "amenity": "fast_food",
    "brand": "Burger King",
    "brand:wikidata": "Q177054",
    "brand:wikipedia": "en:Burger King",
    "cuisine": "burger",
    "delivery": "no",
    "drive_through": "no",
    "name": "Burger King",
    "opening_hours": "Su-Th 09:00-22:00; Fr-Sa 09:00-23:00",
    "operator": "Burger King",
    "takeaway": "yes",
    "toilets:wheelchair": "no",
    "website": "https://burgerking.se/restauranger/malmo/",
    "wheelchair": "yes"
  }
},
{
  "type": "node",
  "id": 1668752062,
  "lat": 55.5966098,
  "lon": 12.9875926,
  "tags": {
    "addr:city": "Malmö",
    "addr:country": "SE",
    "addr:housenumber": "6",
    "addr:postcode": "21744",
    "addr:street": "Fågelbacksgatan",
    "amenity": "restaurant",
    "cuisine": "pizza",
    "name": "Pub & Pizzeria Pappagallo",
    "opening_hours": "Mo-Th 16:00-23:00; Fr 16:00-01:00; Sa 14:00-01:00; Su 14:00-23:00",
    "phone": "+46-40912030",
    "takeaway": "yes",
    "website": "pappagallo.se"
  }
},
{
  "type": "node",
  "id": 1668865664,
  "lat": 55.5906520,
  "lon": 12.9971227,
  "tags": {
    "addr:city": "Malmö",
    "addr:country": "SE",
    "addr:housenumber": "17",
    "addr:postcode": "21466",
    "addr:street": "Pildammsvägen",
    "amenity": "restaurant",
    "cuisine": "international",
    "name": "Bloom in the park",
    "old_name": "Olgas",
    "website": "https://www.bloominthepark.se/"
  }
},
{
  "type": "node",
  "id": 1668867727,
  "lat": 55.5937778,
  "lon": 12.9837460,
  "tags": {
    "addr:city": "Malmö",
    "addr:country": "SE",
    "addr:housenumber": "7D",
    "addr:postcode": "21743",
    "addr:street": "Köpenhamnsvägen",
    "amenity": "restaurant",
    "cuisine": "regional",
    "name": "Bakfickan"
  }
},
{
  "type": "node",
  "id": 1668870249,
  "lat": 55.5937413,
  "lon": 12.9839498,
  "tags": {
    "addr:city": "Malmö",
    "addr:country": "SE",
    "addr:housenumber": "7",
    "addr:postcode": "21743",
    "addr:street": "Köpenhamnsvägen",
    "amenity": "restaurant",
    "cuisine": "regional",
    "name": "JP's Bar & Restaurang",
    "opening_hours": "Mo-Th 16:00-23:00, Fr 16:00-24:00, Sa 14:00-24:00, Su 14:00-22:00"
  }
},
{
  "type": "node",
  "id": 1668871546,
  "lat": 55.5937537,
  "lon": 12.9856155,
  "tags": {
    "addr:city": "Malmö",
    "addr:country": "SE",
    "addr:housenumber": "5",
    "addr:postcode": "21743",
    "addr:street": "Köpenhamnsvägen",
    "amenity": "restaurant",
    "cuisine": "pizza",
    "name": "Pizzeria Amore",
    "opening_hours": "Mo-Fr 11:30-22:00, Sa,Su 12:00-22:00"
  }
},
{
  "type": "node",
  "id": 1668872414,
  "lat": 55.5937552,
  "lon": 12.9859105,
  "tags": {
    "addr:city": "Malmö",
    "addr:country": "SE",
    "addr:housenumber": "5",
    "addr:postcode": "21743",
    "addr:street": "Köpenhamnsvägen",
    "amenity": "cafe",
    "name": "Feed"
  }
},
{
  "type": "node",
  "id": 1669557637,
  "lat": 55.5977296,
  "lon": 12.9831476,
  "tags": {
    "amenity": "fast_food",
    "cuisine": "burger",
    "name": "Mariedalsgrillen",
    "opening_hours": "Su-Th 10:00-01:00; Fr-Sa 10:00-05:00",
    "wheelchair": "yes"
  }
},
{
  "type": "node",
  "id": 1669560489,
  "lat": 55.5954240,
  "lon": 12.9857669,
  "tags": {
    "addr:city": "Malmö",
    "addr:country": "SE",
    "addr:housenumber": "53",
    "addr:postcode": "21741",
    "addr:street": "Västra Rönneholmsvägen",
    "amenity": "cafe",
    "cuisine": "coffee_shop",
    "name": "Knus",
    "opening_hours": "We-Fr 11:00-17:00; Sa 11:00-15:00"
  }
},
{
  "type": "node",
  "id": 1669563673,
  "lat": 55.5963100,
  "lon": 12.9931425,
  "tags": {
    "addr:city": "Malmö",
    "addr:country": "SE",
    "addr:housenumber": "26",
    "addr:street": "Östra Rönneholmsvägen",
    "amenity": "cafe",
    "cuisine": "coffee_shop",
    "name": "Systrar & Bröder",
    "opening_hours": "Mo,Tu 07:30-16:00, We-Fr 07:30-18:00, Sa 08:00-16:00, Su 09:00-16:00"
  }
},
{
  "type": "node",
  "id": 1670692583,
  "lat": 55.6128342,
  "lon": 12.9743451,
  "tags": {
    "addr:city": "Malmö",
    "addr:country": "SE",
    "addr:housenumber": "4",
    "addr:postcode": "21117",
    "addr:street": "Lilla Varvsgatan",
    "amenity": "restaurant",
    "contact:phone": "+46-40-6119999",
    "contact:website": "http://noll1restaurang.gastrogate.com/",
    "name": "Noll 1 Restaurang & Pizzeria",
    "website": "http://noll1restaurang.gastrogate.com/"
  }
},
{
  "type": "node",
  "id": 1670692604,
  "lat": 55.5816452,
  "lon": 13.0018754,
  "tags": {
    "addr:city": "Malmö",
    "addr:country": "SE",
    "addr:housenumber": "41",
    "addr:postcode": "21432",
    "addr:street": "Per Albin Hanssons väg",
    "amenity": "restaurant",
    "contact:email": "info@youandmerestaurang.se",
    "contact:phone": "+46-40 - 32 12 02",
    "contact:website": "http://youandmerestaurang.se/",
    "name": "You & Me restaurang",
    "opening_hours": "Mo-Fr 08:00-16:00",
    "website": "http://youandmerestaurang.se/",
    "wheelchair": "yes"
  }
},
{
  "type": "node",
  "id": 1677335986,
  "lat": 55.6137424,
  "lon": 12.9909920,
  "tags": {
    "addr:city": "Malmö",
    "addr:housenumber": "10 B",
    "addr:postcode": "211 19",
    "addr:street": "Isbergs gata",
    "amenity": "cafe",
    "name": "Bryggans bageri & café",
    "opening_hours": "Mo-Fr 09:00-14:30; Sa 09:00-12:00; Su off",
    "opening_hours:covid19": "open",
    "shop": "bakery"
  }
},
{
  "type": "node",
  "id": 1677335991,
  "lat": 55.6088219,
  "lon": 13.0003588,
  "tags": {
    "amenity": "fast_food",
    "brand": "Subway",
    "brand:wikidata": "Q244457",
    "brand:wikipedia": "en:Subway (restaurant)",
    "cuisine": "sandwich",
    "name": "Subway",
    "takeaway": "yes",
    "wheelchair": "yes"
  }
},
{
  "type": "node",
  "id": 1677336006,
  "lat": 55.6092820,
  "lon": 12.9998033,
  "tags": {
    "amenity": "cafe"
  }
},
{
  "type": "node",
  "id": 1677336009,
  "lat": 55.6090867,
  "lon": 13.0000382,
  "tags": {
    "amenity": "fast_food",
    "cuisine": "asian",
    "name": "Chao"
  }
},
{
  "type": "node",
  "id": 1677336020,
  "lat": 55.6089714,
  "lon": 13.0001041,
  "tags": {
    "amenity": "fast_food",
    "cuisine": "asian",
    "name": "Dumplings & Noodles"
  }
},
{
  "type": "node",
  "id": 1677336035,
  "lat": 55.6094643,
  "lon": 13.0004214,
  "tags": {
    "amenity": "cafe",
    "brand": "Espresso House",
    "brand:wikidata": "Q10489162",
    "brand:wikipedia": "en:Espresso House",
    "cuisine": "coffee_shop",
    "name": "Espresso House",
    "payment:cash": "no",
    "takeaway": "yes"
  }
},
{
  "type": "node",
  "id": 1677336044,
  "lat": 55.6152476,
  "lon": 12.9904305,
  "tags": {
    "addr:city": "Malmö",
    "addr:country": "SE",
    "addr:housenumber": "1",
    "addr:postcode": "211 19",
    "addr:street": "Dockplatsen",
    "amenity": "restaurant",
    "capacity": "100",
    "cuisine": "regional",
    "name": "Glasklart",
    "phone": "+46 40-661 00 19",
    "smoking": "no"
  }
},
{
  "type": "node",
  "id": 1677336061,
  "lat": 55.6135843,
  "lon": 12.9758785,
  "tags": {
    "amenity": "restaurant",
    "outdoor_seating": "yes",
    "wheelchair": "limited"
  }
},
{
  "type": "node",
  "id": 1677336092,
  "lat": 55.6090669,
  "lon": 12.9998955,
  "tags": {
    "amenity": "fast_food",
    "cuisine": "sausage"
  }
},
{
  "type": "node",
  "id": 1677336094,
  "lat": 55.6154864,
  "lon": 12.9902665,
  "tags": {
    "addr:city": "Malmö",
    "addr:country": "SE",
    "addr:housenumber": "2",
    "addr:postcode": "211 22",
    "addr:street": "Krankajen",
    "amenity": "fast_food",
    "capacity": "50",
    "cuisine": "sushi",
    "delivery": "no",
    "drive_through": "no",
    "name": "Asuka sushi & sushi burrito",
    "opening_hours": "Mo-Fr 11:00-19:00; Sa 12:00-19:00; Su off",
    "phone": "+46 40 12 07 11",
    "smoking": "outside",
    "takeaway": "yes",
    "wheelchair": "yes"
  }
},
{
  "type": "node",
  "id": 1677336096,
  "lat": 55.6135596,
  "lon": 12.9918857,
  "tags": {
    "addr:city": "Malmö",
    "addr:country": "SE",
    "addr:housenumber": "9B",
    "addr:postcode": "211 19",
    "addr:street": "Isbergs gata",
    "amenity": "fast_food",
    "cuisine": "regional",
    "drive_through": "no",
    "name": "Vårt kök",
    "opening_hours": "Mo-Fr 08:00-16:30",
    "operator": "Orkla Foods",
    "takeaway": "yes",
    "website": "https://www.orklafoods.se/vartkok",
    "wheelchair": "yes"
  }
},
{
  "type": "node",
  "id": 1677336144,
  "lat": 55.6089304,
  "lon": 12.9999526,
  "tags": {
    "amenity": "fast_food",
    "cuisine": "salad",
    "name": "Salads"
  }
},
{
  "type": "node",
  "id": 1677336148,
  "lat": 55.6092572,
  "lon": 12.9999724,
  "tags": {
    "amenity": "fast_food",
    "cuisine": "seafood",
    "name": "Seafood"
  }
},
{
  "type": "node",
  "id": 1677336167,
  "lat": 55.6088449,
  "lon": 12.9999899,
  "tags": {
    "amenity": "fast_food",
    "cuisine": "sandwich",
    "name": "Smørrebrød"
  }
},
{
  "type": "node",
  "id": 1677336183,
  "lat": 55.6088170,
  "lon": 13.0001656,
  "tags": {
    "amenity": "fast_food",
    "name": "Street Food"
  }
},
{
  "type": "node",
  "id": 1677336189,
  "lat": 55.6101936,
  "lon": 12.9736671,
  "tags": {
    "amenity": "restaurant",
    "name": "V.E.S.P.A.",
    "payment:cash": "no"
  }
},
{
  "type": "node",
  "id": 1677336195,
  "lat": 55.6128624,
  "lon": 12.9746191,
  "tags": {
    "amenity": "cafe",
    "name": "West Side La Marina",
    "note": "café & glassbar"
  }
},
{
  "type": "node",
  "id": 1677337112,
  "lat": 55.6149505,
  "lon": 12.9865229,
  "tags": {
    "addr:city": "Malmö",
    "addr:country": "SE",
    "addr:housename": "Ubåtshallen",
    "addr:housenumber": "9A",
    "addr:postcode": "211 19",
    "addr:street": "Östra Varvsgatan",
    "amenity": "restaurant",
    "fixme": "name",
    "name": "White Shark",
    "website": "https://gastrogate.com/restaurang/whiteshark/"
  }
},
{
  "type": "node",
  "id": 1677337185,
  "lat": 55.6152208,
  "lon": 12.9890085,
  "tags": {
    "amenity": "restaurant",
    "name": "Årstiderna by The Sea",
    "outdoor_seating": "yes"
  }
},
{
  "type": "node",
  "id": 1685937003,
  "lat": 55.6126372,
  "lon": 12.9856568,
  "tags": {
    "amenity": "cafe",
    "contact:website": "http://graffiticafe.se/index.php?ID=vastrahamnen",
    "name": "Graffiti",
    "website": "http://graffiticafe.se/index.php?ID=vastrahamnen"
  }
},
{
  "type": "node",
  "id": 1685942810,
  "lat": 55.5835143,
  "lon": 13.0216720,
  "tags": {
    "amenity": "restaurant",
    "designation": "Traditional swedish cuisine and sandwich",
    "name": "Werners Café",
    "website": "http://www.wernerscafe.se/"
  }
},
{
  "type": "node",
  "id": 1685947256,
  "lat": 55.5830746,
  "lon": 13.0228146,
  "tags": {
    "amenity": "restaurant",
    "cuisine": "pizza",
    "designation": "Pizza, kebab et.c. open weekdays 11.30-20.00, weekends 13-20",
    "name": "Zinkaa Pizzeria"
  }
},
{
  "type": "node",
  "id": 1685948688,
  "lat": 55.5852334,
  "lon": 13.0198320,
  "tags": {
    "amenity": "restaurant",
    "name": "Matbyrån",
    "opening_hours": "Mo-Fr 09:00-15:00",
    "website": "https://www.matbyran.se/"
  }
},
{
  "type": "node",
  "id": 1685949263,
  "lat": 55.5915710,
  "lon": 13.0057046,
  "tags": {
    "amenity": "restaurant",
    "cuisine": "thai",
    "name": "Thai-box"
  }
},
{
  "type": "node",
  "id": 1685951928,
  "lat": 55.6080869,
  "lon": 13.0146983,
  "tags": {
    "amenity": "fast_food",
    "cuisine": "thai",
    "name": "Restaruang Tangjong",
    "opening_hours": "Mo-Fr 11:30-21:00; Sa-Su 15:00-21:00"
  }
},
{
  "type": "node",
  "id": 1691174377,
  "lat": 55.5748457,
  "lon": 12.9285863,
  "tags": {
    "amenity": "fast_food",
    "name": "Matstugan",
    "opening_hours": "Mo-Fr 10:00-15:00"
  }
},
{
  "type": "node",
  "id": 1692398169,
  "lat": 55.5634006,
  "lon": 12.9765265,
  "tags": {
    "amenity": "fast_food",
    "cuisine": "asian",
    "name": "China Box"
  }
},
{
  "type": "node",
  "id": 1692398193,
  "lat": 55.5632753,
  "lon": 12.9764172,
  "tags": {
    "amenity": "fast_food",
    "brand": "Subway",
    "brand:wikidata": "Q244457",
    "brand:wikipedia": "en:Subway (restaurant)",
    "cuisine": "sandwich",
    "name": "Subway",
    "takeaway": "yes"
  }
},
{
  "type": "node",
  "id": 1706708897,
  "lat": 55.5986457,
  "lon": 13.0068208,
  "tags": {
    "amenity": "fast_food",
    "brand": "New York Pizza",
    "cuisine": "pizza",
    "name": "New York Pizza"
  }
},
{
  "type": "node",
  "id": 1708914171,
  "lat": 55.5650010,
  "lon": 12.9757066,
  "tags": {
    "amenity": "restaurant",
    "name": "Percys",
    "wheelchair": "yes"
  }
},
{
  "type": "node",
  "id": 1719418321,
  "lat": 55.5823076,
  "lon": 12.9292586,
  "tags": {
    "amenity": "cafe",
    "name": "Limhamns kakbod & café"
  }
},
{
  "type": "node",
  "id": 1721599298,
  "lat": 55.5971083,
  "lon": 13.0003388,
  "tags": {
    "amenity": "restaurant",
    "contact:facebook": "https://www.facebook.com/pages/La-Barca/112843942121803",
    "cuisine": "swedish",
    "name": "La Barca",
    "website": "https://labarcarestaurang.se/"
  }
},
{
  "type": "node",
  "id": 1726889262,
  "lat": 55.5913132,
  "lon": 13.0075194,
  "tags": {
    "amenity": "cafe",
    "name": "Coffee Point"
  }
},
{
  "type": "node",
  "id": 1726889267,
  "lat": 55.5913728,
  "lon": 13.0064751,
  "tags": {
    "amenity": "fast_food",
    "cuisine": "greek",
    "name": "Gyros Pita",
    "wheelchair": "no"
  }
},
{
  "type": "node",
  "id": 1726889285,
  "lat": 55.5920979,
  "lon": 13.0085730,
  "tags": {
    "amenity": "restaurant",
    "cuisine": "indian",
    "name": "Sapla Indiska restaurang & bar"
  }
},
{
  "type": "node",
  "id": 1726889286,
  "lat": 55.5912590,
  "lon": 13.0064036,
  "tags": {
    "addr:city": "Malmö",
    "addr:country": "SE",
    "addr:housenumber": "43",
    "addr:postcode": "21422",
    "addr:street": "Bergsgatan",
    "amenity": "restaurant",
    "cuisine": "afghan;middle_eastern",
    "name": "Pappa's Buffé",
    "opening_hours": "Mo-Fr 11:30-22:00; Sa-Su 01:00-22:00",
    "phone": "+46 40 190 144",
    "website": "http://spicebar.se/"
  }
},
{
  "type": "node",
  "id": 1726889462,
  "lat": 55.5930920,
  "lon": 13.0080860,
  "tags": {
    "amenity": "restaurant",
    "name": "Bright",
    "outdoor_seating": "yes"
  }
},
{
  "type": "node",
  "id": 1730423963,
  "lat": 55.5534496,
  "lon": 12.9962982,
  "tags": {
    "amenity": "fast_food",
    "cuisine": "chinese",
    "name": "China Box"
  }
},
{
  "type": "node",
  "id": 1730564202,
  "lat": 55.5534481,
  "lon": 12.9961158,
  "tags": {
    "amenity": "fast_food",
    "name": "Pizza and Pasta No. 1"
  }
},
{
  "type": "node",
  "id": 1730569504,
  "lat": 55.5534405,
  "lon": 12.9956625,
  "tags": {
    "amenity": "fast_food",
    "brand": "Subway",
    "brand:wikidata": "Q244457",
    "brand:wikipedia": "en:Subway (restaurant)",
    "cuisine": "sandwich",
    "name": "Subway",
    "takeaway": "yes"
  }
},
{
  "type": "node",
  "id": 1745783146,
  "lat": 55.6080414,
  "lon": 12.9818140,
  "tags": {
    "amenity": "restaurant",
    "name": "Nya Variation"
  }
},
{
  "type": "node",
  "id": 1769329975,
  "lat": 55.6026093,
  "lon": 13.0033310,
  "tags": {
    "addr:city": "Malmö",
    "addr:country": "SE",
    "addr:housenumber": "7",
    "addr:street": "Malmborgsgatan",
    "amenity": "fast_food",
    "cuisine": "burger",
    "delivery": "no",
    "drive_through": "no",
    "name": "Orvars Korvar",
    "phone": "+46 40 79965",
    "takeaway": "yes",
    "wheelchair": "yes"
  }
},
{
  "type": "node",
  "id": 1780224911,
  "lat": 55.5916799,
  "lon": 13.0014645,
  "tags": {
    "addr:city": "Malmö",
    "addr:country": "SE",
    "addr:housenumber": "16",
    "addr:street": "Smedjegatan",
    "amenity": "restaurant",
    "contact:website": "https://www.mah.se/fakulteter-och-omraden/Odontologiska-fakulteten/Funktioner-och-tjanster1/Restaurant-Corfitz-Taverna/",
    "name": "Corfitz Taverna",
    "website": "https://www.mah.se/fakulteter-och-omraden/Odontologiska-fakulteten/Funktioner-och-tjanster1/Restaurant-Corfitz-Taverna/"
  }
},
{
  "type": "node",
  "id": 1780224912,
  "lat": 55.5898116,
  "lon": 12.9995253,
  "tags": {
    "addr:city": "Malmö",
    "addr:country": "SE",
    "addr:housenumber": "25",
    "addr:street": "Jan Waldenströms gata",
    "amenity": "restaurant",
    "contact:email": "freda@mah.se",
    "contact:phone": "+46-40-921115",
    "contact:website": "http://www.freda49.se/",
    "name": "Freda 49",
    "opening_hours": "Mo-Fr 07:30-16:00",
    "website": "http://www.freda49.se/"
  }
},
{
  "type": "node",
  "id": 1780224913,
  "lat": 55.6154844,
  "lon": 12.9861548,
  "tags": {
    "addr:city": "Malmö",
    "addr:country": "SE",
    "addr:housename": "Kranen",
    "addr:housenumber": "11A",
    "addr:postcode": "21119",
    "addr:street": "Östra Varvsgatan",
    "amenity": "restaurant",
    "contact:email": "kontakt@hamnaratt.com",
    "contact:phone": "+46 (0) 40 12 6370",
    "contact:website": "http://www.hamnaratt.com/",
    "name": "Hamnarätt",
    "opening_hours": "Mo-Fr 07:45-16:00",
    "website": "http://www.hamnaratt.com/"
  }
},
{
  "type": "node",
  "id": 1780224915,
  "lat": 55.6073490,
  "lon": 12.9898502,
  "tags": {
    "addr:city": "Malmö",
    "addr:country": "SE",
    "addr:housenumber": "7",
    "addr:street": "Citadellsvägen",
    "amenity": "restaurant",
    "contact:email": "gaddan@mhmatsalar.se",
    "contact:phone": "+46-40-665 72 22",
    "contact:website": "http://mhmatsalar.se/index.php/restauranger/gaddan/",
    "name": "Vindstilla",
    "opening_hours": "Mo-Fr 08:00-16:00"
  }
},
{
  "type": "node",
  "id": 1780224916,
  "lat": 55.6108048,
  "lon": 12.9956196,
  "tags": {
    "addr:city": "Malmö",
    "addr:country": "SE",
    "addr:housenumber": "10",
    "addr:street": "Nordenskiöldsgatan",
    "amenity": "restaurant",
    "contact:email": "orkanen@mhmatsalar.se",
    "contact:phone": "+46-40-665 72 22",
    "contact:website": "http://mhmatsalar.se/",
    "name": "MH Matsalar - Orkanen",
    "opening_hours": "Mo-Fr 11:00-14:00",
    "wheelchair": "yes"
  }
},
{
  "type": "node",
  "id": 1812871205,
  "lat": 55.6015870,
  "lon": 12.9772910,
  "tags": {
    "amenity": "fast_food",
    "cuisine": "barbecue",
    "name": "Chaplin Grill"
  }
},
{
  "type": "node",
  "id": 1812899301,
  "lat": 55.5935738,
  "lon": 13.0179488,
  "tags": {
    "addr:country": "SE",
    "addr:housenumber": "58C",
    "addr:street": "Amiralsgatan",
    "amenity": "fast_food",
    "contact:phone": "+46 76 000 06 03",
    "cuisine": "pizza;kebab;arab;arabic",
    "drive_through": "no",
    "name": "Bayt Almandi Restaurang",
    "payment:cash": "yes"
  }
},
{
  "type": "node",
  "id": 1812899302,
  "lat": 55.5979782,
  "lon": 12.9754236,
  "tags": {
    "amenity": "fast_food",
    "cuisine": "pizza",
    "name": "Pizzeria Teneriffa",
    "phone": "+46-40-260710"
  }
},
{
  "type": "node",
  "id": 1812899364,
  "lat": 55.5989027,
  "lon": 12.9821982,
  "tags": {
    "amenity": "restaurant",
    "cuisine": "chinese",
    "name": "Lung Foon",
    "wheelchair": "no"
  }
},
{
  "type": "node",
  "id": 1838820243,
  "lat": 55.5894997,
  "lon": 13.0152595,
  "tags": {
    "addr:city": "Malmö",
    "addr:country": "SE",
    "addr:housenumber": "73",
    "addr:postcode": "21433",
    "addr:street": "Nobelvägen",
    "amenity": "restaurant",
    "name": "Kvarteret Åkern"
  }
},
{
  "type": "node",
  "id": 1838821124,
  "lat": 55.5898754,
  "lon": 13.0205137,
  "tags": {
    "amenity": "restaurant",
    "cuisine": "pizza",
    "diet:vegetarian": "yes",
    "name": "Sidra Pizzeria",
    "opening_hours": "Mo-Th 15:00-21:00; Fr-Su 13:00-21:00",
    "payment:cash": "yes",
    "short_name": "Pizzeria S:t Luis"
  }
},
{
  "type": "node",
  "id": 1855366439,
  "lat": 55.5942131,
  "lon": 13.0236394,
  "tags": {
    "addr:street": "Spånehusvägen",
    "amenity": "fast_food",
    "cuisine": "kebab",
    "name": "Popeye Grill",
    "opening_hours": "Mo-Fr 11:00-23:00+; Sa 11:00-24:00+",
    "outdoor_seating": "yes",
    "payment:cash": "yes",
    "takeaway": "yes"
  }
},
{
  "type": "node",
  "id": 1855380939,
  "lat": 55.5948013,
  "lon": 13.0212734,
  "tags": {
    "addr:city": "Malmö",
    "addr:country": "SE",
    "addr:housenumber": "58",
    "addr:postcode": "214 33",
    "addr:street": "Nobelvägen",
    "amenity": "fast_food",
    "cuisine": "kebab",
    "name": "Nobelfalafel",
    "payment:cash": "yes",
    "takeaway": "only"
  }
},
{
  "type": "node",
  "id": 1855387943,
  "lat": 55.5969867,
  "lon": 13.0128191,
  "tags": {
    "addr:city": "Malmö",
    "addr:country": "SE",
    "addr:postcode": "211 57",
    "addr:street": "S:t Knuts Torg 6A",
    "amenity": "cafe",
    "cuisine": "sandwich",
    "name": "Sankt Knuts Bageri Konditori & Café",
    "opening_hours": "Mo-Su 08:00-18:00",
    "payment:cash": "yes",
    "short_name": "S:t Knuts Bageri Konditori & Café",
    "website": "https://www.cafekartan.se/018006/Sankt_Knuts_Bageri_Konditori_%26_Caf%C3%A9/",
    "wheelchair": "limited",
    "wifi": "no"
  }
},
{
  "type": "node",
  "id": 1855449695,
  "lat": 55.5966169,
  "lon": 13.0135272,
  "tags": {
    "amenity": "restaurant",
    "cuisine": "pizza",
    "diet:vegan": "no",
    "diet:vegetarian": "yes",
    "name": "Vinny's",
    "opening_hours": "Tu-Th 15:00-23:00; Fr 15:00-24:00, Sa 13:00-24:00, Su 13:00-22:00",
    "payment:cash": "yes",
    "wheelchair": "no"
  }
},
{
  "type": "node",
  "id": 1860324502,
  "lat": 55.5824119,
  "lon": 12.9286527,
  "tags": {
    "amenity": "restaurant",
    "cuisine": "sushi",
    "name": "Nama Sushi",
    "website": "https://www.namasushi.se/malmo/index.html"
  }
},
{
  "type": "node",
  "id": 1863945725,
  "lat": 55.6029663,
  "lon": 12.9973510,
  "tags": {
    "addr:city": "Malmö",
    "addr:country": "SE",
    "addr:housenumber": "59",
    "addr:postcode": "211 37",
    "addr:street": "Stora Nygatan",
    "amenity": "restaurant",
    "cuisine": "asian",
    "facebook": "https://www.facebook.com/rosegardenmalmo/",
    "name": "Rose Garden Neo Asian",
    "opening_hours": "Mo-Th 11:30-15:00,17:30-22:00; Fr 11:30-15:00,17:30-23:00; Sa 12:00-15:00,17:00-23:00; Su 12:00-15:00,17:00-21:00",
    "phone": "+46 40 121268",
    "smoking": "no",
    "takeaway": "yes",
    "website": "https://rosegarden.se/find-us?restaurant=5710e909ad4f21090090d476"
  }
},
{
  "type": "node",
  "id": 1947190977,
  "lat": 55.6061645,
  "lon": 12.9976916,
  "tags": {
    "addr:city": "Malmö",
    "addr:country": "SE",
    "addr:housenumber": "11",
    "addr:street": "Mäster Johansgatan",
    "amenity": "restaurant",
    "cuisine": "regional",
    "name": "Bastard",
    "opening_hours": "Tu-Th 17:00-24:00; Fr 17:00-01:00",
    "website": "https://www.bastardrestaurant.se/"
  }
},
{
  "type": "node",
  "id": 1985855398,
  "lat": 55.5644342,
  "lon": 12.9721827,
  "tags": {
    "addr:street": "Hyllie stationsväg",
    "amenity": "fast_food",
    "cuisine": "burger",
    "name": "Max Emporia",
    "source": "Survey",
    "wheelchair": "limited"
  }
},
{
  "type": "node",
  "id": 1988630831,
  "lat": 55.5632782,
  "lon": 12.9746361,
  "tags": {
    "amenity": "restaurant",
    "name": "Jensens Bøfhus",
    "wheelchair": "limited"
  }
},
{
  "type": "node",
  "id": 1988630832,
  "lat": 55.5638559,
  "lon": 12.9748149,
  "tags": {
    "amenity": "restaurant",
    "brand": "Vapiano",
    "brand:wikidata": "Q506252",
    "brand:wikipedia": "en:Vapiano",
    "cuisine": "italian",
    "name": "Vapiano",
    "wheelchair": "limited"
  }
},
{
  "type": "node",
  "id": 2036316324,
  "lat": 55.6038861,
  "lon": 13.0276450,
  "tags": {
    "addr:city": "Malmö",
    "addr:country": "SE",
    "addr:housenumber": "18",
    "addr:street": "Sallerupsvägen",
    "amenity": "restaurant",
    "cuisine": "vietnamese",
    "name": "Quê",
    "opening_hours": "Tu-Fr 17:30+",
    "phone": "+4640 29 48 88",
    "website": "http://restaurangque.se/",
    "wheelchair": "no"
  }
},
{
  "type": "node",
  "id": 2067185688,
  "lat": 55.5714367,
  "lon": 12.9342621,
  "tags": {
    "addr:city": "Limhamn",
    "addr:country": "SE",
    "addr:housenumber": "13",
    "addr:street": "Kalkstensvägen",
    "amenity": "restaurant",
    "cuisine": "regional",
    "name": "Restaurant Kalk",
    "phone": "+46406206363",
    "website": "restaurangkalk.se/"
  }
},
{
  "type": "node",
  "id": 2206415088,
  "lat": 55.6003430,
  "lon": 13.0012205,
  "tags": {
    "addr:city": "Malmö",
    "addr:country": "SE",
    "addr:housenumber": "8",
    "addr:postcode": "211 43 Malmö",
    "addr:street": "Södra Förstadsgatan",
    "amenity": "cafe",
    "cuisine": "coffee_shop",
    "name": "Konditori Hollandia",
    "payment:cash": "yes",
    "website": "https://hollandia.se/",
    "wheelchair": "no"
  }
},
{
  "type": "node",
  "id": 2266095947,
  "lat": 55.5951054,
  "lon": 13.0169428,
  "tags": {
    "addr:city": "Malmö",
    "addr:country": "SE",
    "addr:housenumber": "1",
    "addr:postcode": "21158",
    "addr:street": "Falsterbogatan",
    "amenity": "cafe",
    "cuisine": "vegetarian",
    "diet:vegan": "yes",
    "diet:vegetarian": "only",
    "internet_access": "wlan",
    "internet_access:fee": "no",
    "name": "Jord",
    "opening_hours": "Tu-Fr 10:00-16:00; Sa 10:00-17:00; Su 10:00-17:00",
    "payment:cash": "no"
  }
},
{
  "type": "node",
  "id": 2278396250,
  "lat": 55.6032527,
  "lon": 12.9999578,
  "tags": {
    "amenity": "restaurant",
    "cuisine": "italian",
    "name": "Epicuré",
    "website": "http://www.epicure.nu"
  }
},
{
  "type": "node",
  "id": 2279592697,
  "lat": 55.5851231,
  "lon": 12.9249404,
  "tags": {
    "addr:city": "Malmö",
    "addr:country": "SE",
    "addr:housenumber": "17b",
    "addr:postcode": "21612",
    "addr:street": "Strandgatan",
    "amenity": "restaurant",
    "contact:phone": "+46 (0)40 152470",
    "contact:website": "http://www.limhamnsfiskrokeri.se/",
    "cuisine": "seafood",
    "name": "Limhamns fiskrökeri",
    "opening_hours": "Mo-Fr 09:00-18:00;Sa 09:00-16:00;Su 11:00-16:00",
    "shop": "seafood",
    "toilets:wheelchair": "yes",
    "wheelchair": "yes"
  }
},
{
  "type": "node",
  "id": 2293728897,
  "lat": 55.6033151,
  "lon": 13.0004714,
  "tags": {
    "amenity": "cafe",
    "name": "Bageri caféet",
    "shop": "bakery"
  }
},
{
  "type": "node",
  "id": 2293728898,
  "lat": 55.6044211,
  "lon": 13.0013958,
  "tags": {
    "amenity": "cafe",
    "brand": "Barista",
    "name": "Barista",
    "wheelchair": "limited"
  }
},
{
  "type": "node",
  "id": 2293728899,
  "lat": 55.6032967,
  "lon": 13.0003085,
  "tags": {
    "amenity": "restaurant",
    "name": "Icha mochi"
  }
},
{
  "type": "node",
  "id": 2293728911,
  "lat": 55.6056083,
  "lon": 12.9989938,
  "tags": {
    "amenity": "restaurant",
    "name": "Centiliter & Gram"
  }
},
{
  "type": "node",
  "id": 2293728912,
  "lat": 55.6053775,
  "lon": 13.0010742,
  "tags": {
    "addr:city": "Malmö",
    "addr:country": "SE",
    "addr:housenumber": "3",
    "addr:street": "Södergatan",
    "amenity": "restaurant",
    "contact:facebook": "https://www.facebook.com/zocalose",
    "contact:instagram": "https://www.instagram.com/ZocaloSE/",
    "contact:twitter": "https://twitter.com/ZocaloSE/",
    "cuisine": "mexican",
    "name": "Zócalo",
    "opening_hours": "Mo-Fr 12:00-21:00; Sa 12:00-21:00; Su 12:00-19:00",
    "website": "https://zocalo.se/restaurangerna/sodergatan-3/"
  }
},
{
  "type": "node",
  "id": 2293728918,
  "lat": 55.6047933,
  "lon": 12.9987244,
  "tags": {
    "amenity": "restaurant",
    "name": "Drumbar"
  }
},
{
  "type": "node",
  "id": 2293728923,
  "lat": 55.6045384,
  "lon": 13.0007246,
  "tags": {
    "amenity": "cafe",
    "brand": "Espresso House",
    "brand:wikidata": "Q10489162",
    "brand:wikipedia": "en:Espresso House",
    "cuisine": "coffee_shop",
    "name": "Espresso House",
    "takeaway": "yes"
  }
},
{
  "type": "node",
  "id": 2293728924,
  "lat": 55.6052324,
  "lon": 12.9992568,
  "tags": {
    "amenity": "cafe",
    "brand": "Espresso House",
    "brand:wikidata": "Q10489162",
    "brand:wikipedia": "en:Espresso House",
    "cuisine": "coffee_shop",
    "name": "Espresso House",
    "takeaway": "yes",
    "wheelchair": "yes"
  }
},
{
  "type": "node",
  "id": 2293728931,
  "lat": 55.6062695,
  "lon": 12.9990014,
  "tags": {
    "amenity": "restaurant",
    "name": "Fo restaurang & bar"
  }
},
{
  "type": "node",
  "id": 2293728940,
  "lat": 55.6033365,
  "lon": 13.0006337,
  "tags": {
    "addr:city": "Malmö",
    "addr:country": "SE",
    "addr:housenumber": "43",
    "addr:postcode": "21139",
    "addr:street": "Gustav Adolfs Torg",
    "amenity": "restaurant",
    "name": "Gustav Adolf restaurant & café",
    "website": "http://www.gustavadolf.com/"
  }
},
{
  "type": "node",
  "id": 2293728945,
  "lat": 55.6051489,
  "lon": 13.0014960,
  "tags": {
    "addr:country": "SE",
    "addr:housenumber": "14",
    "addr:street": "Södergatan",
    "amenity": "restaurant",
    "contact:facebook": "https://www.facebook.com/sodergatan14",
    "contact:instagram": "https://www.instagram.com/sodergatan14/",
    "cuisine": "french;regional",
    "name": "Södergatan 14",
    "opening_hours": "Mo-Tu 11:30-23:00; We-Th 11:30-24:00; Fr 11:30-01:00; Sa 12:00-01:00; Su 12:00-22:00",
    "website": "https://sodergatan14.se/"
  }
},
{
  "type": "node",
  "id": 2293728954,
  "lat": 55.6008031,
  "lon": 13.0007471,
  "tags": {
    "amenity": "restaurant",
    "name": "Jensens Bøfhus",
    "opening_hours": "Mo-Th 11:00-22:00, Fr,Sa 11:00-23:00, Su 12:00-22:00",
    "website": "https://www.jensens.com/sv/restaurant/malmo-city/",
    "wheelchair": "no"
  }
},
{
  "type": "node",
  "id": 2293728955,
  "lat": 55.6041637,
  "lon": 12.9988732,
  "tags": {
    "amenity": "restaurant",
    "cuisine": "seafood",
    "name": "Johan P",
    "toilets:wheelchair": "no",
    "wheelchair": "yes"
  }
},
{
  "type": "node",
  "id": 2293728961,
  "lat": 55.6032056,
  "lon": 12.9985145,
  "tags": {
    "addr:city": "Malmö",
    "addr:country": "SE",
    "addr:housenumber": "19",
    "addr:postcode": "211 33",
    "addr:street": "Engelbrektsgatan",
    "amenity": "restaurant",
    "capacity": "25",
    "cuisine": "vietnamese",
    "name": "Bahn Mi",
    "opening_hours": "Mo-Fr 11:00-21:00; Sa 13:00-21:00; Su off",
    "phone": "+46 723 232333",
    "takeaway": "yes",
    "wheelchair": "limited"
  }
},
{
  "type": "node",
  "id": 2293728966,
  "lat": 55.6051204,
  "lon": 12.9976717,
  "tags": {
    "amenity": "cafe",
    "cuisine": "ice_cream",
    "name": "Lejonet & Björnen"
  }
},
{
  "type": "node",
  "id": 2293728969,
  "lat": 55.6044930,
  "lon": 12.9976703,
  "tags": {
    "amenity": "restaurant",
    "changing_table": "yes",
    "cuisine": "vietnamese",
    "highchair": "yes",
    "name": "Nam Do",
    "outdoor_seating": "yes",
    "payment:cash": "no",
    "toilets": "yes",
    "toilets:access": "yes",
    "toilets:wheelchair": "no"
  }
},
{
  "type": "node",
  "id": 2293728984,
  "lat": 55.6033619,
  "lon": 12.9983891,
  "tags": {
    "amenity": "restaurant",
    "contact:website": "http://www.mrs-saigon.se",
    "cuisine": "vietnamese",
    "name": "Mrs Saigon",
    "opening_hours": "Mo 11:30-15:00; Tu-Th 11:30-15:00, 17:30-23:00; Fr-Sa 11:30-15:00, 17:30-24:00"
  }
},
{
  "type": "node",
  "id": 2293728985,
  "lat": 55.6019823,
  "lon": 12.9999906,
  "tags": {
    "amenity": "restaurant",
    "cuisine": "sushi",
    "name": "Sumo sushi",
    "opening_hours": "Mo-Fr 11:00-20:00, Sa 12:00-20:00"
  }
},
{
  "type": "node",
  "id": 2293728993,
  "lat": 55.6050510,
  "lon": 12.9977269,
  "tags": {
    "amenity": "cafe",
    "name": "Noir"
  }
},
{
  "type": "node",
  "id": 2293729004,
  "lat": 55.6054819,
  "lon": 12.9992256,
  "tags": {
    "amenity": "restaurant",
    "cuisine": "italian",
    "name": "Piccolo Mondo"
  }
},
{
  "type": "node",
  "id": 2293729008,
  "lat": 55.6053659,
  "lon": 12.9992376,
  "tags": {
    "amenity": "cafe",
    "brand": "Pronto",
    "name": "Pronto"
  }
},
{
  "type": "node",
  "id": 2293729021,
  "lat": 55.6057824,
  "lon": 13.0007559,
  "tags": {
    "amenity": "fast_food",
    "cuisine": "kebab",
    "name": "Shwarma King",
    "wheelchair": "yes"
  }
},
{
  "type": "node",
  "id": 2293729033,
  "lat": 55.6053922,
  "lon": 12.9983861,
  "tags": {
    "amenity": "restaurant",
    "name": "Victors"
  }
},
{
  "type": "node",
  "id": 2293729284,
  "lat": 55.6058575,
  "lon": 13.0014627,
  "tags": {
    "amenity": "restaurant",
    "name": "Étage",
    "wheelchair": "yes"
  }
},
{
  "type": "node",
  "id": 2308779892,
  "lat": 55.6122790,
  "lon": 12.9984302,
  "tags": {
    "amenity": "restaurant",
    "name": "Restaurang Kolga",
    "wheelchair": "no"
  }
},
{
  "type": "node",
  "id": 2322901505,
  "lat": 55.5922653,
  "lon": 13.0063718,
  "tags": {
    "addr:city": "Malmö",
    "addr:country": "SE",
    "addr:housenumber": "45",
    "addr:postcode": "214 22",
    "addr:street": "Södra Skolgatan",
    "amenity": "restaurant",
    "cuisine": "burger",
    "diet:vegan": "only",
    "name": "The Vegan Bar",
    "opening_hours": "Mo-Fr 11:30-01:30; Sa 13:00-01:30; Su 13:00-23:00",
    "website": "http://www.veganbar.se/"
  }
},
{
  "type": "node",
  "id": 2372994484,
  "lat": 55.5923458,
  "lon": 13.0190992,
  "tags": {
    "amenity": "cafe",
    "name": "Bröd & Vänner",
    "opening_hours": "Mo-Fr 07:00-18:00; Sa 08:00-15:00; Su 09:00-15:00",
    "payment:cash": "yes",
    "shop": "bakery"
  }
},
{
  "type": "node",
  "id": 2396232443,
  "lat": 55.6043021,
  "lon": 13.0281359,
  "tags": {
    "addr:city": "Malmö",
    "addr:country": "SE",
    "addr:housenumber": "82",
    "addr:postcode": "212 15",
    "addr:street": "Nobelvägen",
    "amenity": "restaurant",
    "cuisine": "thai",
    "name": "Tin Tin Thai Bar & Restaurang",
    "website": "https://tintinthaibar.se/",
    "wheelchair": "no"
  }
},
{
  "type": "node",
  "id": 2396630557,
  "lat": 55.5632222,
  "lon": 12.9764090,
  "tags": {
    "amenity": "fast_food",
    "name": "Sallads And Smoothies"
  }
},
{
  "type": "node",
  "id": 2402822593,
  "lat": 55.6072271,
  "lon": 13.0257110,
  "tags": {
    "addr:city": "Malmö",
    "amenity": "fast_food",
    "cuisine": "mexican",
    "drive_through": "no",
    "email": "info@wrap-house.se",
    "name": "Wrap House",
    "phone": "+46.723126666",
    "website": "https://www.wrap-house.se/"
  }
},
{
  "type": "node",
  "id": 2405585967,
  "lat": 55.6003934,
  "lon": 13.0405820,
  "tags": {
    "amenity": "fast_food",
    "entrance": "yes",
    "name": "Katarina-Grillen"
  }
},
{
  "type": "node",
  "id": 2405585970,
  "lat": 55.6004145,
  "lon": 13.0404937,
  "tags": {
    "amenity": "restaurant",
    "cuisine": "pizza",
    "entrance": "yes",
    "name": "Pizzeria Robertos",
    "phone": "+46-40-93 96 16"
  }
},
{
  "type": "node",
  "id": 2408160477,
  "lat": 55.5948987,
  "lon": 13.0035411,
  "tags": {
    "amenity": "cafe",
    "entrance": "yes",
    "level": "0",
    "name": "Espresso Maker"
  }
},
{
  "type": "node",
  "id": 2408201658,
  "lat": 55.5946706,
  "lon": 13.0030471,
  "tags": {
    "amenity": "fast_food",
    "brand": "McDonald's",
    "brand:wikidata": "Q38076",
    "brand:wikipedia": "en:McDonald's",
    "cuisine": "burger",
    "indoor": "yes",
    "name": "McDonald's",
    "takeaway": "yes",
    "wheelchair": "yes"
  }
},
{
  "type": "node",
  "id": 2478793715,
  "lat": 55.6099541,
  "lon": 12.9986305,
  "tags": {
    "addr:city": "Malmö",
    "addr:country": "SE",
    "addr:housenumber": "4",
    "addr:street": "Posthusplatsen",
    "alt_name": "Brasserie KP",
    "amenity": "restaurant",
    "name": "Brasserie Kungliga Posten"
  }
},
{
  "type": "node",
  "id": 2493741704,
  "lat": 55.5983999,
  "lon": 12.9851622,
  "tags": {
    "addr:city": "Malmö",
    "addr:country": "SE",
    "addr:housenumber": "52",
    "addr:postcode": "21748",
    "addr:street": "Regementsgatan",
    "amenity": "restaurant",
    "email": "restaurangen@oversten.se",
    "name": "Översten",
    "phone": "+46.40980650",
    "toilets:wheelchair": "yes",
    "website": "http://oversten.se/",
    "wheelchair": "yes"
  }
},
{
  "type": "node",
  "id": 2549896881,
  "lat": 55.5948950,
  "lon": 13.0097965,
  "tags": {
    "addr:city": "Malmö",
    "addr:country": "SE",
    "addr:housenumber": "17",
    "addr:postcode": "211 53",
    "addr:street": "Monbijougatan",
    "amenity": "restaurant",
    "bar": "yes",
    "brewery": "yes",
    "cuisine": "asian;Nordic",
    "diet:meat": "yes",
    "diet:organic": "yes",
    "diet:pescetarian": "yes",
    "diet:vegan": "yes",
    "diet:vegetarian": "yes",
    "name": "Grand Malmö",
    "phone": "+4640126313",
    "reservation": "yes",
    "smoking": "outside",
    "website": "www.grandmalmo.se"
  }
},
{
  "type": "node",
  "id": 2595966920,
  "lat": 55.5964777,
  "lon": 13.0127516,
  "tags": {
    "addr:city": "Malmö",
    "addr:country": "SE",
    "addr:housename": "Sankt Knuts Torg",
    "addr:postcode": "211 57",
    "addr:street": "Sankt Knuts torg",
    "amenity": "restaurant",
    "diet:vegetarian": "yes",
    "name": "Marias Gatukök",
    "opening_hours": "Mo-Su 11:00-21:00",
    "wheelchair": "yes"
  }
},
{
  "type": "node",
  "id": 2606814827,
  "lat": 55.5922694,
  "lon": 13.0152609,
  "tags": {
    "addr:city": "Malmö",
    "addr:country": "SE",
    "addr:postcode": "21436",
    "amenity": "fast_food",
    "cuisine": "kebab",
    "diet:vegan": "yes",
    "diet:vegetarian": "yes",
    "name": "Folkets Falafel",
    "opening_hours": "Mo-Su 11:00-22:00",
    "payment:cash": "yes",
    "wheelchair": "no"
  }
},
{
  "type": "node",
  "id": 2629795116,
  "lat": 55.6123981,
  "lon": 12.9912192,
  "tags": {
    "amenity": "cafe",
    "branch": "Malmoe",
    "name": "Foo Café",
    "operator": "Foo Café AB",
    "website": "https://foocafe.org/malmoe"
  }
},
{
  "type": "node",
  "id": 2715064770,
  "lat": 55.6071134,
  "lon": 13.0013416,
  "tags": {
    "amenity": "restaurant",
    "cuisine": "regional",
    "name": "Malmö rökeri",
    "source": "survey"
  }
},
{
  "type": "node",
  "id": 2715104506,
  "lat": 55.6121780,
  "lon": 12.9915090,
  "tags": {
    "addr:country": "SE",
    "addr:housenumber": "6",
    "addr:postcode": "21119",
    "addr:street": "Stora Varvsgatan",
    "amenity": "restaurant",
    "cuisine": "american;asian;breakfast;chicken;local;diner;sandwich;tea;cake",
    "email": "info@storavarvsgatan6.se",
    "internet_access": "wlan",
    "name": "MECK",
    "name:sv": "Restaurang Stora Varvsgatan 6",
    "opening_hours": "Mo-Fr 08:00-15:30",
    "phone": "+46-732440040",
    "smoking": "no",
    "website": "http://www.storavarvsgatan6.se"
  }
},
{
  "type": "node",
  "id": 2715605826,
  "lat": 55.5899230,
  "lon": 13.0058700,
  "tags": {
    "amenity": "restaurant",
    "name": "Södervärns krog"
  }
},
{
  "type": "node",
  "id": 2715607889,
  "lat": 55.5888120,
  "lon": 13.0076060,
  "tags": {
    "amenity": "fast_food",
    "cuisine": "kebab",
    "name": "Döner Kebab"
  }
},
{
  "type": "node",
  "id": 2715612084,
  "lat": 55.5800433,
  "lon": 13.0306172,
  "tags": {
    "amenity": "fast_food",
    "cuisine": "balkan",
    "delivery": "no",
    "drive_through": "no",
    "name": "Burek & Ćevapi Mästarna",
    "payment:cash": "yes",
    "takeaway": "only"
  }
},
{
  "type": "node",
  "id": 2718559019,
  "lat": 55.6142652,
  "lon": 12.9891943,
  "tags": {
    "amenity": "restaurant",
    "cuisine": "thai",
    "name": "Zen Thai",
    "phone": "+46 40 123368"
  }
},
{
  "type": "node",
  "id": 2745983720,
  "lat": 55.6030519,
  "lon": 12.9981256,
  "tags": {
    "amenity": "fast_food",
    "name": "Olivia"
  }
},
{
  "type": "node",
  "id": 2746906290,
  "lat": 55.6063592,
  "lon": 12.9963364,
  "tags": {
    "amenity": "restaurant",
    "cuisine": "thai",
    "name": "The Coconut"
  }
},
{
  "type": "node",
  "id": 2747390786,
  "lat": 55.6119120,
  "lon": 12.9940290,
  "tags": {
    "amenity": "restaurant",
    "name": "MiaMarias",
    "opening_hours": "Mo-Fr 12:00-14:00; Sa-Su off",
    "website": "http://www.miamarias.nu"
  }
},
{
  "type": "node",
  "id": 2747390806,
  "lat": 55.5931121,
  "lon": 13.0074478,
  "tags": {
    "amenity": "fast_food",
    "cuisine": "arab;middle_eastern;falafel;kebab",
    "name": "Shawarma city X",
    "opening_hours": "Mo-Th 09:00-04:00; Fr-Sa 09:00-06:00; Su 10:00-03:00",
    "payment:cash": "yes",
    "phone": "+46 40 23 37 39",
    "takeaway": "yes"
  }
},
{
  "type": "node",
  "id": 2747390917,
  "lat": 55.5704689,
  "lon": 13.0588273,
  "tags": {
    "amenity": "fast_food",
    "brand": "Burger King",
    "brand:wikidata": "Q177054",
    "brand:wikipedia": "en:Burger King",
    "cuisine": "burger",
    "name": "Burger King",
    "takeaway": "yes"
  }
},
{
  "type": "node",
  "id": 2747390927,
  "lat": 55.5930156,
  "lon": 13.0074171,
  "tags": {
    "amenity": "restaurant",
    "cuisine": "indian",
    "name": "Indian Express"
  }
},
{
  "type": "node",
  "id": 2829534664,
  "lat": 55.6192657,
  "lon": 13.0395326,
  "tags": {
    "addr:city": "Malmö",
    "addr:country": "SE",
    "addr:housenumber": "2",
    "addr:postcode": "21124",
    "addr:street": "Hanögatan",
    "amenity": "restaurant",
    "cuisine": "Husmanskost",
    "entrance": "yes",
    "name": "Restaurang Hanö",
    "smoking": "no"
  }
},
{
  "type": "node",
  "id": 2830766601,
  "lat": 55.6278881,
  "lon": 13.0378220,
  "tags": {
    "addr:city": "Malmö",
    "addr:country": "SE",
    "addr:housenumber": "21",
    "addr:postcode": "21124",
    "addr:street": "Flintrännegatan",
    "amenity": "restaurant",
    "entrance": "yes",
    "name": "Lundavägens Grill AB"
  }
},
{
  "type": "node",
  "id": 2859803581,
  "lat": 55.5695734,
  "lon": 13.0547427,
  "tags": {
    "amenity": "fast_food",
    "brand": "Burger King",
    "brand:wikidata": "Q177054",
    "brand:wikipedia": "en:Burger King",
    "cuisine": "burger",
    "delivery": "no",
    "drive_through": "yes",
    "name": "Burger King",
    "smoking": "no",
    "takeaway": "yes",
    "wheelchair": "yes"
  }
},
{
  "type": "node",
  "id": 2868035334,
  "lat": 55.5506720,
  "lon": 13.0343480,
  "tags": {
    "addr:city": "Malmö",
    "addr:country": "SE",
    "addr:housenumber": "18",
    "addr:street": "Bronsåldersgatan",
    "amenity": "restaurant",
    "brand": "Pizza Hut",
    "brand:wikidata": "Q191615",
    "brand:wikipedia": "en:Pizza Hut",
    "cuisine": "pizza",
    "name": "Pizza Hut"
  }
},
{
  "type": "node",
  "id": 2920235764,
  "lat": 55.6143905,
  "lon": 12.9816652,
  "tags": {
    "addr:city": "Malmö",
    "addr:street": "Einar Hansens esplanad",
    "amenity": "restaurant",
    "cuisine": "american;burger",
    "name": "Monster bar & steakhouse",
    "opening_hours": "Mo-Th 11:30-14:00,17:30-22:00; Fr 11:30-24:00; Sa 13:00-24:00; Su 17:00-22:00",
    "phone": "+4640-643 00 77",
    "smoking": "outside",
    "source": "http://www.monstersteakhouse.se/",
    "website": "http://www.monstersteakhouse.se/"
  }
},
{
  "type": "node",
  "id": 2943366166,
  "lat": 55.6160660,
  "lon": 12.9971197,
  "tags": {
    "addr:city": "Malmö",
    "addr:country": "SE",
    "addr:housenumber": "24",
    "addr:street": "Grimsbygatan",
    "amenity": "restaurant",
    "contact:facebook": "https://www.facebook.com/saltimportencanteen/",
    "cuisine": "regional",
    "name": "Saltimporten",
    "name:en": "Saltimporten Canteen",
    "opening_hours": "Mo-Fr 12:00-14:00",
    "smoking": "no",
    "website": "http://www.saltimporten.com/"
  }
},
{
  "type": "node",
  "id": 2958276010,
  "lat": 55.5979625,
  "lon": 12.9752977,
  "tags": {
    "amenity": "cafe",
    "name": "Konditori Regementet"
  }
},
{
  "type": "node",
  "id": 3051074370,
  "lat": 55.5968601,
  "lon": 13.0020278,
  "tags": {
    "amenity": "fast_food",
    "cuisine": "egyptian",
    "name": "Koshari House",
    "wheelchair": "limited"
  }
},
{
  "type": "node",
  "id": 3051074384,
  "lat": 55.5968860,
  "lon": 13.0000068,
  "tags": {
    "addr:city": "Malmö",
    "addr:country": "SE",
    "addr:housenumber": "3",
    "addr:postcode": "21147",
    "addr:street": "Östra Rönneholmsvägen",
    "amenity": "restaurant",
    "contact:phone": "+46 40 970304",
    "cuisine": "mexican",
    "delivery": "yes",
    "name": "Los Arcos",
    "opening_hours": "Mo-Fr 11:30-15:00,17:00-23:00;Sa 13:00-24:00;Su 17:00-22:00",
    "source": "survey",
    "takeaway": "yes",
    "website": "http://www.losarcos.se/"
  }
},
{
  "type": "node",
  "id": 3051074388,
  "lat": 55.5948243,
  "lon": 13.0034155,
  "tags": {
    "amenity": "fast_food",
    "cuisine": "crepe",
    "indoor": "yes",
    "level": "0",
    "source": "survey"
  }
},
{
  "type": "node",
  "id": 3051074390,
  "lat": 55.5949446,
  "lon": 13.0034523,
  "tags": {
    "amenity": "cafe",
    "indoor": "yes",
    "name": "Ambrosia",
    "source": "survey"
  }
},
{
  "type": "node",
  "id": 3051074416,
  "lat": 55.5980722,
  "lon": 12.9974146,
  "tags": {
    "amenity": "cafe",
    "cuisine": "frozen_jogurt",
    "source": "survey"
  }
},
{
  "type": "node",
  "id": 3051074422,
  "lat": 55.5959120,
  "lon": 13.0020634,
  "tags": {
    "amenity": "cafe",
    "indoor": "yes",
    "level": "1",
    "name": "Wayne's",
    "smoking": "no",
    "source": "survey"
  }
},
{
  "type": "node",
  "id": 3051074424,
  "lat": 55.5944955,
  "lon": 13.0033909,
  "tags": {
    "amenity": "cafe",
    "name": "noı's",
    "opening_hours": "Tu-Fr 11:00-19:00; Sa 11:00-18:30",
    "source": "survey",
    "website": "http://www.nois.nu"
  }
},
{
  "type": "node",
  "id": 3139892604,
  "lat": 55.5859608,
  "lon": 13.0058745,
  "tags": {
    "addr:city": "Malmö",
    "addr:country": "SE",
    "addr:housenumber": "117",
    "addr:postcode": "21428",
    "addr:street": "Södra Förstadsgatan",
    "amenity": "restaurant",
    "cuisine": "pizza",
    "name": "Pizzeria Marathon",
    "website": "http://pizzamarathon.com/"
  }
},
{
  "type": "node",
  "id": 3139895157,
  "lat": 55.5857668,
  "lon": 13.0059415,
  "tags": {
    "amenity": "cafe",
    "name": "Olivias deli"
  }
},
{
  "type": "node",
  "id": 3146053684,
  "lat": 55.5873649,
  "lon": 13.0063320,
  "tags": {
    "amenity": "restaurant",
    "cuisine": "kebab",
    "name": "Grillspecialisten",
    "payment:cash": "yes"
  }
},
{
  "type": "node",
  "id": 3220118569,
  "lat": 55.6067185,
  "lon": 12.9973142,
  "tags": {
    "addr:city": "Malmö",
    "addr:country": "SE",
    "addr:housenumber": "9",
    "addr:postcode": "211 21",
    "addr:street": "Västergatan",
    "amenity": "restaurant",
    "cuisine": "thai",
    "name": "Thap Thim",
    "opening_hours": "Mo-Fr 11:30-21:00;Sa-Su 15:00-21:00",
    "phone": "+46 40 23 10 61",
    "website": "http://www.thapthim.dinstudio.se/"
  }
},
{
  "type": "node",
  "id": 3283009692,
  "lat": 55.5962093,
  "lon": 13.0139586,
  "tags": {
    "addr:city": "Malmö",
    "addr:country": "SE",
    "addr:housenumber": "6",
    "addr:postcode": "211 57",
    "addr:street": "Mäster Henriksgatan",
    "amenity": "cafe",
    "internet_access": "wlan",
    "name": "Nummer 6"
  }
},
{
  "type": "node",
  "id": 3319507069,
  "lat": 55.5847272,
  "lon": 13.0453937,
  "tags": {
    "amenity": "restaurant",
    "cuisine": "regional",
    "name": "Kitchen King"
  }
},
{
  "type": "node",
  "id": 3355797056,
  "lat": 55.5934647,
  "lon": 13.0183056,
  "tags": {
    "amenity": "fast_food",
    "cuisine": "kebab;falafel;pizza",
    "name": "Friends Grill",
    "opening_hours": "Mo-Th 11:00-22:00; Fr 11:00-04:00; Su 11:00-22:00",
    "payment:cash": "yes"
  }
},
{
  "type": "node",
  "id": 3357939782,
  "lat": 55.6052875,
  "lon": 12.9952101,
  "tags": {
    "addr:city": "Malmö",
    "addr:country": "SE",
    "addr:housenumber": "8",
    "addr:street": "Långgårdsgatan",
    "amenity": "cafe",
    "name": "Café Basement"
  }
},
{
  "type": "node",
  "id": 3357939783,
  "lat": 55.6049437,
  "lon": 12.9952077,
  "tags": {
    "amenity": "restaurant",
    "name": "Siesta"
  }
},
{
  "type": "node",
  "id": 3357939784,
  "lat": 55.6062173,
  "lon": 12.9954817,
  "tags": {
    "amenity": "cafe",
    "name": "Bagels Café & Catering"
  }
},
{
  "type": "node",
  "id": 3357955287,
  "lat": 55.6063018,
  "lon": 12.9959956,
  "tags": {
    "addr:city": "Malmö",
    "addr:country": "SE",
    "addr:housenumber": "16a",
    "addr:street": "Västergatan",
    "amenity": "restaurant",
    "cuisine": "regional",
    "name": "Västergatan",
    "website": "https://www.vastergatan.se/"
  }
},
{
  "type": "node",
  "id": 3357955288,
  "lat": 55.6067440,
  "lon": 12.9974630,
  "tags": {
    "addr:city": "Malmö",
    "addr:country": "SE",
    "addr:housenumber": "9",
    "addr:postcode": "211 21",
    "addr:street": "Västergatan",
    "amenity": "fast_food",
    "highchair": "yes",
    "name": "Surf shack",
    "outdoor_seating": "yes",
    "phone": "+46-761-764018",
    "toilets:wheelchair": "no",
    "wheelchair": "no"
  }
},
{
  "type": "node",
  "id": 3357955290,
  "lat": 55.6046597,
  "lon": 12.9967449,
  "tags": {
    "addr:city": "Malmö",
    "addr:street": "Tegelgårdsgatan",
    "amenity": "restaurant",
    "cuisine": "regional",
    "name": "Vollmers",
    "website": "www.vollmers.nu"
  }
},
{
  "type": "node",
  "id": 3357978976,
  "lat": 55.6056181,
  "lon": 12.9964892,
  "tags": {
    "amenity": "fast_food",
    "name": "Veniz pizza"
  }
},
{
  "type": "node",
  "id": 3357999875,
  "lat": 55.6037011,
  "lon": 12.9975476,
  "tags": {
    "amenity": "restaurant",
    "name": "Smör & bröd"
  }
},
{
  "type": "node",
  "id": 3357999876,
  "lat": 55.6030554,
  "lon": 12.9955578,
  "tags": {
    "addr:country": "SE",
    "addr:housenumber": "11",
    "addr:street": "Agnesgatan",
    "amenity": "cafe",
    "name": "Kafé Agnez",
    "name:sv": "Kafé Agnez",
    "opening_hours": "Mo-Su 11:00-17:00"
  }
},
{
  "type": "node",
  "id": 3357999877,
  "lat": 55.6066722,
  "lon": 12.9970331,
  "tags": {
    "amenity": "restaurant",
    "name": "Den Gamle Fede",
    "website": "https://www.dengamlefede.com/"
  }
},
{
  "type": "node",
  "id": 3358041422,
  "lat": 55.6065011,
  "lon": 12.9962589,
  "tags": {
    "addr:city": "Malmö",
    "addr:country": "SE",
    "addr:housenumber": "19",
    "addr:postcode": "21121",
    "addr:street": "Västergatan",
    "amenity": "fast_food",
    "name": "Västergatans livs & pizzeria",
    "shop": "kiosk",
    "tfn": "004640129759"
  }
},
{
  "type": "node",
  "id": 3359248859,
  "lat": 55.6073064,
  "lon": 13.0004302,
  "tags": {
    "amenity": "restaurant",
    "name": "Sture"
  }
},
{
  "type": "node",
  "id": 3359292036,
  "lat": 55.6049147,
  "lon": 12.9974380,
  "tags": {
    "amenity": "restaurant",
    "name": "Lite Off 2"
  }
},
{
  "type": "node",
  "id": 3361567564,
  "lat": 55.6032854,
  "lon": 12.9984481,
  "tags": {
    "amenity": "cafe",
    "name": "Playbake"
  }
},
{
  "type": "node",
  "id": 3361573124,
  "lat": 55.6055900,
  "lon": 12.9962246,
  "tags": {
    "amenity": "cafe",
    "name": "Frälsningsarmén"
  }
},
{
  "type": "node",
  "id": 3369322607,
  "lat": 55.6023967,
  "lon": 13.0021070,
  "tags": {
    "amenity": "restaurant",
    "cuisine": "italian",
    "name": "Armacia",
    "website": "https://www.armacia.se/"
  }
},
{
  "type": "node",
  "id": 3369322609,
  "lat": 55.6024831,
  "lon": 13.0028660,
  "tags": {
    "amenity": "restaurant",
    "name": "Gränden"
  }
},
{
  "type": "node",
  "id": 3369322610,
  "lat": 55.6025346,
  "lon": 13.0032710,
  "tags": {
    "amenity": "restaurant",
    "name": "Elysée"
  }
},
{
  "type": "node",
  "id": 3376448160,
  "lat": 55.5959065,
  "lon": 13.0093719,
  "tags": {
    "amenity": "restaurant",
    "name": "Sultan Palace",
    "wheelchair": "no"
  }
},
{
  "type": "node",
  "id": 3385752437,
  "lat": 55.6056731,
  "lon": 13.0031065,
  "tags": {
    "amenity": "restaurant",
    "name": "Hipp"
  }
},
{
  "type": "node",
  "id": 3385991242,
  "lat": 55.5944801,
  "lon": 13.0042854,
  "tags": {
    "addr:city": "Malmö",
    "addr:country": "SE",
    "addr:housenumber": "66",
    "addr:postcode": "21420",
    "addr:street": "Södra Förstadsgatan",
    "amenity": "restaurant",
    "cuisine": "asian;chinese",
    "name": "Hao Chi"
  }
},
{
  "type": "node",
  "id": 3386011327,
  "lat": 55.5916954,
  "lon": 13.0187074,
  "tags": {
    "addr:city": "Malmö",
    "addr:country": "SE",
    "addr:housenumber": "95",
    "addr:postcode": "21433",
    "addr:street": "Nobelvägen",
    "amenity": "restaurant",
    "cuisine": "indian;pizza",
    "name": "Tasty Spot",
    "opening_hours": "Mo-Fr 10:30-22:00,Sa-Su 11:00-23:00",
    "payment:cash": "yes",
    "phone": "+46 40 626 70 17",
    "website": "http://tastyspot.se/"
  }
},
{
  "type": "node",
  "id": 3390926027,
  "lat": 55.6051324,
  "lon": 12.9983156,
  "tags": {
    "amenity": "restaurant",
    "name": "Izakaya Koi"
  }
},
{
  "type": "node",
  "id": 3392622094,
  "lat": 55.6014907,
  "lon": 13.0012413,
  "tags": {
    "amenity": "restaurant",
    "cuisine": "tapas",
    "name": "Vibliotek"
  }
},
{
  "type": "node",
  "id": 3393578487,
  "lat": 55.6037656,
  "lon": 13.0033574,
  "tags": {
    "amenity": "restaurant",
    "contact:facebook": "https://www.facebook.com/bronxburgers.se/",
    "contact:instagram": "https://www.instagram.com/bronxburgers.se/",
    "cuisine": "burger",
    "name": "Bronx Burgers",
    "opening_hours": "Mo-Th 11:00-21:00; Fr 11:00-22:00; Sa 12:00-22:00; Su 12:00-20:00",
    "payment:cash": "no",
    "website": "https://bronxburgers.se/"
  }
},
{
  "type": "node",
  "id": 3396655403,
  "lat": 55.6035824,
  "lon": 13.0023103,
  "tags": {
    "amenity": "restaurant",
    "name": "Bamboo City"
  }
},
{
  "type": "node",
  "id": 3399372495,
  "lat": 55.5979521,
  "lon": 12.9957467,
  "tags": {
    "addr:city": "Malmö",
    "addr:country": "SE",
    "addr:housenumber": "1",
    "addr:postcode": "21148",
    "addr:street": "Helmfeltsgatan",
    "amenity": "cafe",
    "cuisine": "kaffe",
    "name": "Musette",
    "opening_hours": "Mo-Fr 11:00-18:00; Sa 11:00-15:00",
    "shop": "bicycle",
    "website": "https://www.musette.se/"
  }
},
{
  "type": "node",
  "id": 3400216789,
  "lat": 55.6007825,
  "lon": 13.0005028,
  "tags": {
    "addr:city": "Malmö",
    "addr:country": "SE",
    "addr:housenumber": "2",
    "addr:postcode": "21143",
    "addr:street": "Regementsgatan",
    "amenity": "cafe",
    "contact:facebook": "https://www.facebook.com/soldekaffebar",
    "contact:instagram": "https://www.instagram.com/soldekaffe",
    "internet_access": "yes",
    "internet_access:fee": "no",
    "internet_access:ssid": "solde",
    "name": "Solde",
    "payment:cash": "yes",
    "smoking": "no",
    "website": "http://www.solde.se/"
  }
},
{
  "type": "node",
  "id": 3402678104,
  "lat": 55.5961580,
  "lon": 13.0005130,
  "tags": {
    "amenity": "cafe",
    "name": "Nostra",
    "payment:cash": "yes"
  }
},
{
  "type": "node",
  "id": 3402678105,
  "lat": 55.6087700,
  "lon": 13.0006350,
  "tags": {
    "amenity": "restaurant",
    "name": "Bistro Royal"
  }
},
{
  "type": "node",
  "id": 3402678106,
  "lat": 55.5858570,
  "lon": 13.0103650,
  "tags": {
    "amenity": "restaurant",
    "cuisine": "balkan",
    "name": "Burek House",
    "payment:cash": "yes"
  }
},
{
  "type": "node",
  "id": 3402678107,
  "lat": 55.6057249,
  "lon": 13.0044063,
  "tags": {
    "amenity": "cafe",
    "name": "Djäkne kaffebar"
  }
},
{
  "type": "node",
  "id": 3402678108,
  "lat": 55.6136100,
  "lon": 12.9910960,
  "tags": {
    "addr:city": "Malmö",
    "addr:postcode": "211 19",
    "addr:street": "Isbergs gata",
    "amenity": "cafe",
    "name": "Grytan i Dockan",
    "opening_hours": "Mo-Fr 11:30-13:30; Sa-Su off"
  }
},
{
  "type": "node",
  "id": 3402678109,
  "lat": 55.5893050,
  "lon": 13.0069480,
  "tags": {
    "amenity": "restaurant",
    "name": "Gallia"
  }
},
{
  "type": "node",
  "id": 3402678112,
  "lat": 55.6089060,
  "lon": 13.0015110,
  "tags": {
    "amenity": "cafe",
    "name": "Green Yellow Juice bar"
  }
},
{
  "type": "node",
  "id": 3402678114,
  "lat": 55.5889320,
  "lon": 13.0075160,
  "tags": {
    "amenity": "cafe",
    "name": "Café Vendi",
    "opening_hours": "Mo-Fr 08:00-17:00; Sa,Su 10:00-17:00",
    "payment:cash": "yes"
  }
},
{
  "type": "node",
  "id": 3402678115,
  "lat": 55.5964670,
  "lon": 13.0006660,
  "tags": {
    "addr:country": "SE",
    "addr:housenumber": "1",
    "addr:street": "Rådmansgatan",
    "amenity": "restaurant",
    "cuisine": "chinese",
    "name": "Kin Long",
    "opening_hours": "Mo-Fr 17:00-24:00, Sa 13:00-24:00, Su 13:00-22:00",
    "phone": "+46 40-611 94 04",
    "website": "https://m.facebook.com/Kinlongrestaurant"
  }
},
{
  "type": "node",
  "id": 3402678116,
  "lat": 55.5969420,
  "lon": 13.0039870,
  "tags": {
    "amenity": "restaurant",
    "cuisine": "sushi",
    "name": "Kohai"
  }
},
{
  "type": "node",
  "id": 3402678119,
  "lat": 55.6139200,
  "lon": 12.9907880,
  "tags": {
    "addr:city": "Malmö",
    "addr:country": "SE",
    "addr:housenumber": "14",
    "addr:postcode": "21119",
    "addr:street": "Isbergsgata",
    "amenity": "restaurant",
    "capacity": "10",
    "contact:phone": "+46 40 129 934",
    "cuisine": "soup",
    "name": "La Soupe",
    "opening_hours": "Mo-Fr 11:00-14:30; Sa-Su off"
  }
},
{
  "type": "node",
  "id": 3402678120,
  "lat": 55.6010520,
  "lon": 13.0064930,
  "tags": {
    "amenity": "cafe",
    "name": "Larssons bröd och salladsbar"
  }
},
{
  "type": "node",
  "id": 3402678123,
  "lat": 55.5789350,
  "lon": 13.0351160,
  "tags": {
    "amenity": "restaurant",
    "name": "Peder Hans"
  }
},
{
  "type": "node",
  "id": 3402678125,
  "lat": 55.6078020,
  "lon": 13.0056130,
  "tags": {
    "amenity": "cafe",
    "name": "Puls"
  }
},
{
  "type": "node",
  "id": 3402678129,
  "lat": 55.5994955,
  "lon": 13.0085025,
  "tags": {
    "addr:city": "Malmö",
    "addr:country": "SE",
    "addr:housenumber": "14B",
    "addr:postcode": "211 55",
    "addr:street": "Amiralsgatan",
    "amenity": "restaurant",
    "cuisine": "indian",
    "name": "Resturang India & Bar",
    "takeaway": "yes"
  }
},
{
  "type": "node",
  "id": 3402678133,
  "lat": 55.6092891,
  "lon": 12.9962037,
  "tags": {
    "amenity": "restaurant",
    "cuisine": "thai",
    "name": "Thai wok",
    "opening_hours": "Mo-Fr 11:00-19:30; Sa 12:00-17:00; Su off"
  }
},
{
  "type": "node",
  "id": 3402678134,
  "lat": 55.6077730,
  "lon": 13.0049811,
  "tags": {
    "amenity": "restaurant",
    "name": "Trattoria Moltobene"
  }
},
{
  "type": "node",
  "id": 3402678137,
  "lat": 55.5801820,
  "lon": 13.0320850,
  "tags": {
    "amenity": "fast_food",
    "cuisine": "pizza",
    "name": "Vegenat"
  }
},
{
  "type": "node",
  "id": 3402678138,
  "lat": 55.6089560,
  "lon": 13.0021700,
  "tags": {
    "amenity": "restaurant",
    "name": "Vigårdagrillen"
  }
},
{
  "type": "node",
  "id": 3402678142,
  "lat": 55.6076650,
  "lon": 13.0078735,
  "tags": {
    "amenity": "restaurant",
    "name": "thott's"
  }
},
{
  "type": "node",
  "id": 3402696488,
  "lat": 55.5948430,
  "lon": 13.0005470,
  "tags": {
    "amenity": "cafe",
    "brand": "Joe & The Juice",
    "brand:wikidata": "Q26221514",
    "brand:wikipedia": "en:Joe & The Juice",
    "cuisine": "coffee_shop",
    "name": "Joe & the Juice",
    "takeaway": "yes"
  }
},
{
  "type": "node",
  "id": 3408732006,
  "lat": 55.6067747,
  "lon": 12.9977124,
  "tags": {
    "amenity": "cafe",
    "name": "Olga's Coffee & Simple Pleasures",
    "outdoor_seating": "yes"
  }
},
{
  "type": "node",
  "id": 3414459924,
  "lat": 55.6069200,
  "lon": 12.9967678,
  "tags": {
    "amenity": "cafe",
    "name": "Röstånga Mölla"
  }
},
{
  "type": "node",
  "id": 3414497901,
  "lat": 55.6052883,
  "lon": 13.0031790,
  "tags": {
    "amenity": "restaurant",
    "name": "Tandoori House",
    "opening_hours": "Mo-Th 11:00-22:00, Fr 11:00-23:30, Sa 15:00-23:30, Su 15:00-21:00"
  }
},
{
  "type": "node",
  "id": 3414497904,
  "lat": 55.6049034,
  "lon": 13.0032272,
  "tags": {
    "amenity": "restaurant",
    "cuisine": "sushi",
    "name": "Sushi Bar Kyoto",
    "opening_hours": "Mo-Fr 11:00-20:00, Sa 12:00-17:00"
  }
},
{
  "type": "node",
  "id": 3414497905,
  "lat": 55.6042140,
  "lon": 13.0032809,
  "tags": {
    "amenity": "restaurant",
    "name": "Salads and Smoothies",
    "opening_hours": "Mo-Fr 07:00-19:00, Sa 10:00-16:00"
  }
},
{
  "type": "node",
  "id": 3431375772,
  "lat": 55.5861310,
  "lon": 12.9822179,
  "tags": {
    "amenity": "restaurant"
  }
},
{
  "type": "node",
  "id": 3440862470,
  "lat": 55.6076042,
  "lon": 13.0119587,
  "tags": {
    "addr:city": "Malmö",
    "addr:country": "SE",
    "addr:housenumber": "2a",
    "addr:postcode": "21128",
    "addr:street": "Österportsgatan",
    "amenity": "fast_food",
    "name": "The Orient House of Falafel Nr. 1",
    "phone": "+46 40 97 88 66",
    "takeaway": "yes"
  }
},
{
  "type": "node",
  "id": 3473354978,
  "lat": 55.5919736,
  "lon": 12.9983714,
  "tags": {
    "amenity": "fast_food",
    "cuisine": "burger",
    "name": "Smått & gott"
  }
},
{
  "type": "node",
  "id": 3473354980,
  "lat": 55.5893686,
  "lon": 13.0150918,
  "tags": {
    "addr:city": "Malmö",
    "addr:country": "SE",
    "addr:housenumber": "73",
    "addr:street": "Nobelvägen",
    "amenity": "restaurant",
    "cuisine": "indian;afghan;persian",
    "diet:vegan": "yes",
    "diet:vegetarian": "yes",
    "name": "Ariana",
    "opening_hours": "Mo-Sa 11:00-21:00; Su 12:00-20:00",
    "payment:cash": "yes"
  }
},
{
  "type": "node",
  "id": 3473354981,
  "lat": 55.5894537,
  "lon": 13.0061830,
  "tags": {
    "addr:city": "Malmö",
    "addr:housenumber": "2",
    "addr:postcode": "21427",
    "addr:street": "Ahlmansgatan",
    "amenity": "fast_food",
    "cuisine": "kebab;falafel",
    "name": "Orientalisk Restaurang",
    "payment:cash": "yes"
  }
},
{
  "type": "node",
  "id": 3476235096,
  "lat": 55.6014602,
  "lon": 13.0008982,
  "tags": {
    "addr:street": "Södra Vallgatan",
    "amenity": "restaurant",
    "contact:housenumber": "4",
    "contact:street": "Södra Tullgatan",
    "name": "Condeco",
    "payment:cash": "no",
    "website": "http://www.condeco.com/"
  }
},
{
  "type": "node",
  "id": 3486009995,
  "lat": 55.5883201,
  "lon": 13.0268749,
  "tags": {
    "addr:city": "Malmö",
    "addr:country": "SE",
    "addr:housenumber": "59",
    "addr:postcode": "21444",
    "addr:street": "Annelundsgatan",
    "amenity": "fast_food",
    "cuisine": "middle_eastern;kebab;falafel",
    "name": "Falafel Bagdad",
    "opening_hours": "Mo-Su 10:00-23:00",
    "payment:cash": "yes",
    "takeaway": "yes"
  }
},
{
  "type": "node",
  "id": 3492059568,
  "lat": 55.5611259,
  "lon": 12.9191553,
  "tags": {
    "amenity": "restaurant",
    "name": "Pizzeria Madonna"
  }
},
{
  "type": "node",
  "id": 3580863602,
  "lat": 55.5966436,
  "lon": 13.0141745,
  "tags": {
    "addr:city": "Malmö",
    "addr:country": "SE",
    "addr:housenumber": "3",
    "addr:postcode": "211 57",
    "addr:street": "Mäster Danielsgatan",
    "amenity": "cafe",
    "name": "Söderberg & Sara",
    "phone": "+46-40-125810"
  }
},
{
  "type": "node",
  "id": 3665126362,
  "lat": 55.5976942,
  "lon": 13.0654744,
  "tags": {
    "amenity": "cafe"
  }
},
{
  "type": "node",
  "id": 3734363701,
  "lat": 55.5969335,
  "lon": 13.0142866,
  "tags": {
    "addr:city": "Malmö",
    "addr:country": "SE",
    "addr:housenumber": "7",
    "addr:postcode": "211 57",
    "addr:street": "S:t Knuts väg",
    "amenity": "restaurant",
    "cuisine": "sushi",
    "name": "Saiko",
    "opening_hours": "tu-sa 17:00-24:00; su-mo off",
    "phone": "+46 40-616 05 75",
    "takeaway": "yes",
    "website": "http://www.saiko.se"
  }
},
{
  "type": "node",
  "id": 3734378354,
  "lat": 55.6048152,
  "lon": 13.0057733,
  "tags": {
    "addr:city": "Malmö",
    "addr:country": "SE",
    "addr:housenumber": "21",
    "addr:postcode": "211 36",
    "addr:street": "Baltzarsgatan",
    "amenity": "restaurant",
    "cuisine": "lebanese",
    "name": "Laziza",
    "opening_hours": "Mo-Fr 11:00-15:00; Sa-Su 11:00-16:00",
    "wheelchair": "no"
  }
},
{
  "type": "node",
  "id": 3744635803,
  "lat": 55.5997498,
  "lon": 13.0057181,
  "tags": {
    "amenity": "restaurant",
    "cuisine": "regional",
    "name": "Kungsgatans Gryta",
    "opening_hours": "Mo-Fr 11:30-13:30; Sa-Su off",
    "smoking": "no",
    "takeaway": "yes"
  }
},
{
  "type": "node",
  "id": 3745046908,
  "lat": 55.6009035,
  "lon": 13.0066776,
  "tags": {
    "amenity": "fast_food",
    "cuisine": "pizza",
    "name": "Picco Bello"
  }
},
{
  "type": "node",
  "id": 3745046909,
  "lat": 55.6067977,
  "lon": 12.9998133,
  "tags": {
    "amenity": "cafe",
    "brand": "Espresso House",
    "brand:wikidata": "Q10489162",
    "brand:wikipedia": "en:Espresso House",
    "cuisine": "coffee_shop",
    "name": "Espresso House",
    "takeaway": "yes",
    "wheelchair": "yes"
  }
},
{
  "type": "node",
  "id": 3745046910,
  "lat": 55.6072863,
  "lon": 13.0022760,
  "tags": {
    "amenity": "restaurant",
    "name": "Bistro Queen's"
  }
},
{
  "type": "node",
  "id": 3745065528,
  "lat": 55.6143006,
  "lon": 12.9904560,
  "tags": {
    "amenity": "cafe",
    "cuisine": "salad",
    "name": "Mixan.se",
    "opening_hours": "Mo-Fr 10:00-15:00; Sa-Su off",
    "phone": "+46 40 972333"
  }
},
{
  "type": "node",
  "id": 3754763558,
  "lat": 55.6045695,
  "lon": 13.0025593,
  "tags": {
    "addr:city": "Malmö",
    "addr:housenumber": "26",
    "addr:postcode": "21136",
    "addr:street": "Baltzarsgatan",
    "amenity": "restaurant",
    "changing_table": "yes",
    "cuisine": "salad",
    "diaper:unisex": "yes",
    "highchair": "yes",
    "name": "Holy Greens",
    "opening_hours": "Mo-Fr 08:00-19:00; Sa 11:00-17:00; Su 11:00-16:00",
    "toilets:wheelchair": "yes",
    "wheelchair": "yes"
  }
},
{
  "type": "node",
  "id": 3754763559,
  "lat": 55.6067645,
  "lon": 13.0002800,
  "tags": {
    "amenity": "cafe",
    "name": "Coffee Factory"
  }
},
{
  "type": "node",
  "id": 3754763561,
  "lat": 55.6065907,
  "lon": 12.9966028,
  "tags": {
    "amenity": "cafe",
    "name": "Café Alé",
    "outdoor_seating": "yes"
  }
},
{
  "type": "node",
  "id": 3777446768,
  "lat": 55.5819228,
  "lon": 12.9340302,
  "tags": {
    "amenity": "cafe",
    "operator": "Espresso House"
  }
},
{
  "type": "node",
  "id": 3777446770,
  "lat": 55.5821933,
  "lon": 12.9211071,
  "tags": {
    "amenity": "restaurant",
    "cuisine": "asian"
  }
},
{
  "type": "node",
  "id": 3778749802,
  "lat": 55.6075702,
  "lon": 12.9914265,
  "tags": {
    "amenity": "fast_food",
    "cuisine": "sandwich",
    "internet_access": "wlan",
    "internet_access:fee": "no",
    "name": "Bellas Corner"
  }
},
{
  "type": "node",
  "id": 3778749803,
  "lat": 55.5982581,
  "lon": 12.9491954,
  "tags": {
    "amenity": "cafe"
  }
},
{
  "type": "node",
  "id": 3786483523,
  "lat": 55.5641933,
  "lon": 13.0423874,
  "tags": {
    "amenity": "restaurant",
    "cuisine": "regional",
    "name": "Urma restaurang & catering"
  }
},
{
  "type": "node",
  "id": 3786483528,
  "lat": 55.5600164,
  "lon": 13.0355388,
  "tags": {
    "amenity": "restaurant",
    "cuisine": "asian",
    "name": "Samsara"
  }
},
{
  "type": "node",
  "id": 3786483530,
  "lat": 55.5587664,
  "lon": 13.0137237,
  "tags": {
    "amenity": "fast_food",
    "cuisine": "thai",
    "name": "Lindängens thai food",
    "phone": "+46-40-19 25 90",
    "takeaway": "only"
  }
},
{
  "type": "node",
  "id": 3786483531,
  "lat": 55.5614017,
  "lon": 13.0393866,
  "tags": {
    "amenity": "fast_food",
    "cuisine": "burger",
    "name": "Eva's"
  }
},
{
  "type": "node",
  "id": 3787420774,
  "lat": 55.6168630,
  "lon": 12.9896251,
  "tags": {
    "addr:city": "Malmö",
    "addr:country": "SE",
    "addr:housenumber": "22",
    "addr:postcode": "211 22",
    "addr:street": "Krankajen",
    "amenity": "restaurant",
    "capacity": "50",
    "cuisine": "tex-mex",
    "name": "Esmeralda's TEX MEX GRILL",
    "outdoor_seating": "yes"
  }
},
{
  "type": "node",
  "id": 3794911369,
  "lat": 55.6099411,
  "lon": 12.9798640,
  "tags": {
    "amenity": "restaurant",
    "name": "rbg bar & grill"
  }
},
{
  "type": "node",
  "id": 3794911371,
  "lat": 55.6156170,
  "lon": 12.9761821,
  "tags": {
    "amenity": "restaurant",
    "cuisine": "asian",
    "name": "Latiato"
  }
},
{
  "type": "node",
  "id": 3794911376,
  "lat": 55.6164661,
  "lon": 12.9758749,
  "tags": {
    "amenity": "restaurant",
    "name": "Pic Nic"
  }
},
{
  "type": "node",
  "id": 3794911379,
  "lat": 55.6097317,
  "lon": 12.9790274,
  "tags": {
    "amenity": "cafe",
    "name": "Juicenbar"
  }
},
{
  "type": "node",
  "id": 3815558172,
  "lat": 55.6140606,
  "lon": 12.9894004,
  "tags": {
    "amenity": "restaurant",
    "name": "Akvariet"
  }
},
{
  "type": "node",
  "id": 3840854670,
  "lat": 55.5798894,
  "lon": 13.0322915,
  "tags": {
    "amenity": "cafe",
    "name": "Persborg café konditori"
  }
},
{
  "type": "node",
  "id": 3840854672,
  "lat": 55.5957292,
  "lon": 13.0003920,
  "tags": {
    "addr:city": "Malmö",
    "addr:housenumber": "3",
    "addr:street": "Rådmansgatan",
    "amenity": "restaurant",
    "cuisine": "indian",
    "name": "Art of Spices",
    "payment:cash": "yes"
  }
},
{
  "type": "node",
  "id": 3878627784,
  "lat": 55.5511487,
  "lon": 13.0353672,
  "tags": {
    "amenity": "fast_food",
    "brand": "Burger King",
    "brand:wikidata": "Q177054",
    "brand:wikipedia": "en:Burger King",
    "cuisine": "burger",
    "name": "Burger King",
    "takeaway": "yes"
  }
},
{
  "type": "node",
  "id": 3878627799,
  "lat": 55.5491778,
  "lon": 13.0336340,
  "tags": {
    "alt_name": "Kentucky Fried Chicken",
    "amenity": "fast_food",
    "brand": "KFC",
    "brand:wikidata": "Q524757",
    "brand:wikipedia": "en:KFC",
    "cuisine": "chicken",
    "name": "KFC",
    "takeaway": "yes",
    "website": "http://www.kfc.nu/hitta-oss/kfc-lockarp/"
  }
},
{
  "type": "node",
  "id": 3933039638,
  "lat": 55.5786751,
  "lon": 12.9606915,
  "tags": {
    "amenity": "fast_food",
    "cuisine": "pizza"
  }
},
{
  "type": "node",
  "id": 3941412623,
  "lat": 55.5741328,
  "lon": 13.0214279,
  "tags": {
    "amenity": "fast_food",
    "cuisine": "bosnian;kebab",
    "name": "Bosniska Ćevapćići"
  }
},
{
  "type": "node",
  "id": 3986086966,
  "lat": 55.6072763,
  "lon": 13.0013426,
  "tags": {
    "amenity": "fast_food",
    "cuisine": "soup",
    "name": "La Soupe"
  }
},
{
  "type": "node",
  "id": 4002032192,
  "lat": 55.5896222,
  "lon": 13.0154538,
  "tags": {
    "amenity": "restaurant",
    "contact:facebook": "https://www.facebook.com/pizzeriadamary/",
    "diet:vegan": "yes",
    "diet:vegetarian": "yes",
    "name": "Pizzeria Da Mary",
    "opening_hours": "Mo-Sa 11:00-22:00; Su 12:00-22:00",
    "payment:cash": "yes",
    "takeaway": "yes",
    "website": "http://damarypizzeria.se"
  }
},
{
  "type": "node",
  "id": 4037719300,
  "lat": 55.6071638,
  "lon": 13.0248972,
  "tags": {
    "amenity": "fast_food",
    "cuisine": "sushi",
    "name": "Pleasure food"
  }
},
{
  "type": "node",
  "id": 4037719302,
  "lat": 55.6080921,
  "lon": 13.0144393,
  "tags": {
    "addr:city": "Malmö",
    "addr:housenumber": "2",
    "addr:street": "Östra Förstadsgatan",
    "amenity": "restaurant",
    "email": "info@syltan.com",
    "name": "Syltan kök & bar",
    "opening_hours": "Tu-Th 17:00-24:00; Fr-Sa 16:00-24:00; Sa 00:00-01:00, 16:00-24:00; Su 00:00-01:00",
    "phone": "+46.40125255",
    "website": "https://www.syltan.com/"
  }
},
{
  "type": "node",
  "id": 4037719305,
  "lat": 55.6063485,
  "lon": 13.0199117,
  "tags": {
    "amenity": "cafe",
    "name": "Galaxy cybercafé"
  }
},
{
  "type": "node",
  "id": 4037719306,
  "lat": 55.6064126,
  "lon": 13.0208178,
  "tags": {
    "amenity": "fast_food",
    "cuisine": "pizza",
    "diet:vegetarian": "yes",
    "name": "Bingo",
    "opening_hours": "Mo-Fr 11:00-22:00; Sa,Su 12:00-22:00"
  }
},
{
  "type": "node",
  "id": 4037719307,
  "lat": 55.6057002,
  "lon": 13.0247859,
  "tags": {
    "amenity": "fast_food",
    "diet:vegan": "yes",
    "diet:vegetarian": "yes",
    "name": "Värnhems falafel",
    "wheelchair": "no"
  }
},
{
  "type": "node",
  "id": 4037719308,
  "lat": 55.6077536,
  "lon": 13.0047649,
  "tags": {
    "amenity": "fast_food",
    "name": "Chili hot masala"
  }
},
{
  "type": "node",
  "id": 4037719309,
  "lat": 55.6065188,
  "lon": 13.0263740,
  "tags": {
    "amenity": "restaurant",
    "cuisine": "pizza",
    "name": "Entré pizzeria & restaurang"
  }
},
{
  "type": "node",
  "id": 4037719311,
  "lat": 55.6080482,
  "lon": 13.0114087,
  "tags": {
    "amenity": "fast_food",
    "cuisine": "kebab;pizza",
    "name": "Alanya"
  }
},
{
  "type": "node",
  "id": 4037719312,
  "lat": 55.6075159,
  "lon": 13.0163597,
  "tags": {
    "amenity": "fast_food",
    "cuisine": "sushi",
    "name": "Maguro"
  }
},
{
  "type": "node",
  "id": 4037719314,
  "lat": 55.6072253,
  "lon": 13.0182580,
  "tags": {
    "amenity": "restaurant",
    "cuisine": "steak_house",
    "name": "Carnivore"
  }
},
{
  "type": "node",
  "id": 4037719315,
  "lat": 55.6060361,
  "lon": 13.0222948,
  "tags": {
    "amenity": "fast_food",
    "name": "China box",
    "opening_hours": "Mo-Sa 11:00-20:00, Su 12:00-20:00"
  }
},
{
  "type": "node",
  "id": 4037719316,
  "lat": 55.6060009,
  "lon": 13.0236310,
  "tags": {
    "amenity": "cafe",
    "brand": "Espresso House",
    "brand:wikidata": "Q10489162",
    "brand:wikipedia": "en:Espresso House",
    "cuisine": "coffee_shop",
    "name": "Espresso house",
    "takeaway": "yes",
    "toilets:wheelchair": "yes",
    "wheelchair": "yes"
  }
},
{
  "type": "node",
  "id": 4037719317,
  "lat": 55.6059040,
  "lon": 13.0239785,
  "tags": {
    "amenity": "fast_food",
    "diet:vegan": "yes",
    "diet:vegetarian": "yes",
    "name": "Palaza grill",
    "opening_hours": "Mo-Sa 10:00-24:00, Su 11:00-23:00",
    "wheelchair": "no"
  }
},
{
  "type": "node",
  "id": 4037719320,
  "lat": 55.6076841,
  "lon": 13.0164376,
  "tags": {
    "amenity": "restaurant",
    "cuisine": "pizza",
    "name": "Orient restaurang & pizzeria"
  }
},
{
  "type": "node",
  "id": 4102273492,
  "lat": 55.5968440,
  "lon": 13.0142550,
  "tags": {
    "amenity": "restaurant",
    "name": "Spoonery",
    "website": "https://www.spoonery.se/st-knut/"
  }
},
{
  "type": "node",
  "id": 4155887123,
  "lat": 55.5802041,
  "lon": 13.0318961,
  "tags": {
    "addr:city": "Malmö",
    "addr:country": "SE",
    "addr:housenumber": "1",
    "addr:postcode": "213 61",
    "addr:street": "Persborgstorget",
    "amenity": "restaurant",
    "cuisine": "Somali",
    "name": "Marka Cadey",
    "payment:cash": "yes"
  }
},
{
  "type": "node",
  "id": 4173014124,
  "lat": 55.6073124,
  "lon": 12.9919632,
  "tags": {
    "amenity": "fast_food",
    "cuisine": "sushi",
    "name": "Sushido",
    "opening_hours": "Mo-Fr 11:30-21:00; Sa 13:00-21:00"
  }
},
{
  "type": "node",
  "id": 4173295515,
  "lat": 55.5929296,
  "lon": 13.0080253,
  "tags": {
    "addr:city": "Malmö",
    "addr:country": "SE",
    "addr:housenumber": "24",
    "addr:postcode": "214 22",
    "addr:street": "Bergsgatan",
    "amenity": "restaurant",
    "name": "Sara Restaurang & Pizzeria"
  }
},
{
  "type": "node",
  "id": 4187613640,
  "lat": 55.6019348,
  "lon": 12.9746580,
  "tags": {
    "addr:city": "Malmö",
    "addr:country": "SE",
    "addr:housenumber": "11",
    "addr:street": "Sergels väg",
    "amenity": "restaurant",
    "cuisine": "italian",
    "name": "Via Napoli",
    "phone": "+4640268400",
    "website": "https://www.vianapoli.se/"
  }
},
{
  "type": "node",
  "id": 4195728430,
  "lat": 55.5976077,
  "lon": 13.0000045,
  "tags": {
    "amenity": "restaurant",
    "contact:facebook": "https://www.facebook.com/akropolismalmo",
    "cuisine": "greek",
    "name": "Akropolis",
    "website": "http://akropolismalmo.se/"
  }
},
{
  "type": "node",
  "id": 4195728431,
  "lat": 55.5972263,
  "lon": 13.0002805,
  "tags": {
    "amenity": "fast_food",
    "cuisine": "burger",
    "name": "Stippes",
    "website": "http://stippes.se/"
  }
},
{
  "type": "node",
  "id": 4217517384,
  "lat": 55.5974545,
  "lon": 13.0001180,
  "tags": {
    "amenity": "cafe",
    "contact:instagram": "https://www.instagram.com/lottalovelifestyle/",
    "name": "Lotta Love Superfoodbar",
    "website": "https://www.lottalovelifestyle.com/"
  }
},
{
  "type": "node",
  "id": 4217517386,
  "lat": 55.6072569,
  "lon": 12.9989193,
  "tags": {
    "amenity": "cafe",
    "name": "johan & nyström"
  }
},
{
  "type": "node",
  "id": 4234162763,
  "lat": 55.6068408,
  "lon": 12.9925607,
  "tags": {
    "amenity": "cafe",
    "name": "Soprano café"
  }
},
{
  "type": "node",
  "id": 4234162768,
  "lat": 55.6115765,
  "lon": 12.9803148,
  "tags": {
    "amenity": "restaurant",
    "cuisine": "indian",
    "name": "Curry Republik"
  }
},
{
  "type": "node",
  "id": 4234162772,
  "lat": 55.6088251,
  "lon": 12.9941090,
  "tags": {
    "addr:city": "Malmö",
    "addr:country": "SE",
    "addr:housenumber": "1",
    "addr:postcode": "211 19",
    "addr:street": "Neptuniplan",
    "amenity": "restaurant",
    "contact:facebook": "https://www.facebook.com/restaurangniagara/",
    "contact:instagram": "https://www.instagram.com/restaurangniagara/",
    "email": "info@restaurangniagara.se",
    "name": "Restaurang Niagara",
    "opening_hours": "Mo-Fr 7:30-9:30 open \"Frukost\" || Mo-Fr 13:00-14:00 open \"Studentlunch\" || Mo-Fr 11:30-14:00 open \"Lunch\" || Mo-Fr 7:30-16:00 open \"Café\"",
    "phone": "+46702754880",
    "website": "https://restaurangniagara.se/",
    "wheelchair": "yes"
  }
},
{
  "type": "node",
  "id": 4237208425,
  "lat": 55.5952558,
  "lon": 13.0012914,
  "tags": {
    "amenity": "cafe",
    "brand": "Espresso House",
    "brand:wikidata": "Q10489162",
    "brand:wikipedia": "en:Espresso House",
    "cuisine": "coffee_shop",
    "name": "Espresso House",
    "takeaway": "yes"
  }
},
{
  "type": "node",
  "id": 4244531269,
  "lat": 55.5892751,
  "lon": 13.0070518,
  "tags": {
    "addr:city": "Malmö",
    "addr:housenumber": "8",
    "addr:postcode": "21427",
    "addr:street": "Ahlmansgatan",
    "amenity": "restaurant",
    "cuisine": "peruvian",
    "name": "Sabor & Sazón",
    "smoking": "no"
  }
},
{
  "type": "node",
  "id": 4254792462,
  "lat": 55.5912179,
  "lon": 13.0172560,
  "tags": {
    "addr:city": "Malmö",
    "addr:country": "SE",
    "addr:housenumber": "34",
    "addr:postcode": "21433",
    "addr:street": "Nobelvägen",
    "amenity": "restaurant",
    "diet:lacto_vegetarian": "yes",
    "diet:vegan": "yes",
    "diet:vegetarian": "yes",
    "name": "Mr Falafel",
    "opening_hours": "Mo-Su 11:00-23:00",
    "outdoor_seating": "yes",
    "payment:cash": "yes"
  }
},
{
  "type": "node",
  "id": 4265654395,
  "lat": 55.5927541,
  "lon": 13.0055882,
  "tags": {
    "addr:city": "Malmö",
    "addr:country": "SE",
    "addr:housenumber": "82",
    "addr:street": "Södra Förstadsgatan",
    "amenity": "restaurant",
    "cuisine": "indian",
    "name": "Ganesha",
    "payment:cash": "yes",
    "phone": "+46 40 30 07 48",
    "website": "https://www.ganeshafood.com/"
  }
},
{
  "type": "node",
  "id": 4313100060,
  "lat": 55.5987346,
  "lon": 12.9850308,
  "tags": {
    "addr:city": "Malmö",
    "addr:country": "SE",
    "addr:housenumber": "52",
    "addr:postcode": "21748",
    "addr:street": "Regementsgatan",
    "amenity": "fast_food",
    "brand": "Subway",
    "brand:wikidata": "Q244457",
    "brand:wikipedia": "en:Subway (restaurant)",
    "cuisine": "sandwich",
    "delivery": "no",
    "name": "Subway",
    "opening_hours": "Mo-Fr 07:00-21:00, Sa-Su 09:00-21:00",
    "takeaway": "yes",
    "wheelchair": "yes"
  }
},
{
  "type": "node",
  "id": 4321180557,
  "lat": 55.5909487,
  "lon": 13.0148354,
  "tags": {
    "addr:city": "Malmö",
    "addr:country": "SE",
    "addr:housenumber": "36A",
    "addr:postcode": "214 35",
    "addr:street": "Simrishamnsgatan",
    "amenity": "restaurant",
    "name": "Lyran",
    "opening_hours": "Tu-Th 17:30-24:00; Fr-Sa 17:30-01:00"
  }
},
{
  "type": "node",
  "id": 4356741061,
  "lat": 55.5768212,
  "lon": 13.0229938,
  "tags": {
    "amenity": "restaurant",
    "name": "Almtorget pizzabar"
  }
},
{
  "type": "node",
  "id": 4356741064,
  "lat": 55.5769131,
  "lon": 13.0231182,
  "tags": {
    "amenity": "cafe",
    "name": "Föreningen Sahara"
  }
},
{
  "type": "node",
  "id": 4359242074,
  "lat": 55.5824238,
  "lon": 12.9262459,
  "tags": {
    "amenity": "restaurant"
  }
},
{
  "type": "node",
  "id": 4367945997,
  "lat": 55.5819266,
  "lon": 13.0044542,
  "tags": {
    "addr:city": "Malmö",
    "addr:country": "SE",
    "addr:housenumber": "34",
    "addr:street": "Per Albin Hanssons väg",
    "amenity": "restaurant",
    "name": "Fabriken Restaurang & Café",
    "outdoor_seating": "yes",
    "phone": "+46-40-192800",
    "website": "http://www.restaurang-fabriken.se",
    "wheelchair": "yes"
  }
},
{
  "type": "node",
  "id": 4394482607,
  "lat": 55.5906354,
  "lon": 13.0142997,
  "tags": {
    "addr:city": "Malmö",
    "addr:country": "SE",
    "addr:housenumber": "27B",
    "addr:postcode": "21436",
    "addr:street": "Falsterbogatan",
    "amenity": "cafe",
    "cuisine": "latin_american",
    "name": "Café Jesusbaren",
    "opening_hours": "Tu-Su 10:00-18:00, Mo closed",
    "payment:cash": "yes"
  }
},
{
  "type": "node",
  "id": 4396255810,
  "lat": 55.5936530,
  "lon": 13.0209283,
  "tags": {
    "amenity": "restaurant",
    "cuisine": "pizza",
    "name": "Pizzeria Rex Nobel",
    "name:en": "Pizzeria Rex Nobel",
    "name:sv": "Pizzeria Rex Nobel",
    "payment:cash": "yes"
  }
},
{
  "type": "node",
  "id": 4396309490,
  "lat": 55.5932194,
  "lon": 13.0262032,
  "tags": {
    "amenity": "restaurant",
    "cuisine": "pizza",
    "name": "Pizzeria San Marco",
    "name:en": "Pizzeria San Marco",
    "name:sv": "Pizzeria San Marco"
  }
},
{
  "type": "node",
  "id": 4397748090,
  "lat": 55.5983434,
  "lon": 13.0009734,
  "tags": {
    "addr:country": "SE",
    "addr:housenumber": "23 B",
    "addr:postcode": "211 43",
    "addr:street": "Södra Förstadsgatan",
    "amenity": "restaurant",
    "contact:facebook": "https://www.facebook.com/jasmin.alsham.se/",
    "cuisine": "mediterranean",
    "name": "Jasmin Alsham",
    "name:ar": "ياسمين الشام",
    "name:sv": "Jasmin Alsham",
    "opening_hours": "Mo-Fr 08:00-00:00; Sa-Su 08:00-02:00",
    "phone": "+4640211120",
    "website": "http://www.jasmin-alsham.se/"
  }
},
{
  "type": "node",
  "id": 4404354990,
  "lat": 55.6059138,
  "lon": 13.0097503,
  "tags": {
    "addr:street": "Norregatan",
    "amenity": "restaurant",
    "name": "Tre Vänner",
    "opening_hours": "Mo-Sa 11:00-21:30; Su 12:00-21:00",
    "website": "http://trevannermalmo.se/"
  }
},
{
  "type": "node",
  "id": 4418055890,
  "lat": 55.5950529,
  "lon": 12.9992225,
  "tags": {
    "addr:country": "SE",
    "addr:housenumber": "7",
    "addr:street": "Sankt Johannesgatan",
    "amenity": "restaurant",
    "name": "Smak",
    "name:sv": "Smak",
    "opening_hours": "Mo-Su 11:00-17:00",
    "website": "http://smak.info"
  }
},
{
  "type": "node",
  "id": 4418105205,
  "lat": 55.6092525,
  "lon": 13.0403688,
  "tags": {
    "addr:country": "SE",
    "addr:housenumber": "10C",
    "addr:street": "Sandbackegatan",
    "amenity": "restaurant",
    "name": "Pizzeria Algarve",
    "name:sv": "Pizzeria Algarve",
    "opening_hours": "Mo-Th 16:00-21:00; Fr 15:00-22:00; Sa 13:30-22:00; Su 13:30-21:00"
  }
},
{
  "type": "node",
  "id": 4418105596,
  "lat": 55.5841470,
  "lon": 12.9355643,
  "tags": {
    "addr:country": "SE",
    "addr:housenumber": "67",
    "addr:street": "Sveagatan",
    "amenity": "restaurant",
    "name": "Pizzeria Modena",
    "name:sv": "Pizzeria Modena",
    "opening_hours": "Tu-Fr 16:00-22:00; Sa-Su 13:00-22:00"
  }
},
{
  "type": "node",
  "id": 4427707190,
  "lat": 55.6074945,
  "lon": 13.0171631,
  "tags": {
    "addr:country": "SE",
    "addr:housenumber": "18",
    "addr:street": "Östra Förstadsgatan",
    "amenity": "restaurant",
    "cuisine": "syrian",
    "name": "Ayam Dimashq"
  }
},
{
  "type": "node",
  "id": 4450105113,
  "lat": 55.5778004,
  "lon": 13.0247694,
  "tags": {
    "amenity": "fast_food",
    "name": "Shmesani restaurang"
  }
},
{
  "type": "node",
  "id": 4456630006,
  "lat": 55.5998217,
  "lon": 12.9962419,
  "tags": {
    "amenity": "restaurant",
    "name": "Atmosfär",
    "opening_hours": "Mo-Fr 11:30-14:30, Mo-Sa 17:00-20:00+"
  }
},
{
  "type": "node",
  "id": 4496973300,
  "lat": 55.6079544,
  "lon": 12.9908326,
  "tags": {
    "amenity": "restaurant",
    "name": "Holy Greens"
  }
},
{
  "type": "node",
  "id": 4496973305,
  "lat": 55.6078408,
  "lon": 12.9909479,
  "tags": {
    "amenity": "cafe",
    "name": "Koppi"
  }
},
{
  "type": "node",
  "id": 4496976393,
  "lat": 55.6078210,
  "lon": 12.9907898,
  "tags": {
    "amenity": "restaurant",
    "name": "Poms"
  }
},
{
  "type": "node",
  "id": 4496976894,
  "lat": 55.6078543,
  "lon": 12.9911385,
  "tags": {
    "amenity": "fast_food",
    "name": "Falafel & Burgers"
  }
},
{
  "type": "node",
  "id": 4497018213,
  "lat": 55.6079432,
  "lon": 12.9911324,
  "tags": {
    "amenity": "restaurant",
    "name": "Hedvigsdal"
  }
},
{
  "type": "node",
  "id": 4523387997,
  "lat": 55.5914569,
  "lon": 13.0216100,
  "tags": {
    "amenity": "fast_food",
    "cuisine": "kebab;falafel;pizza",
    "name": "Pizza House & Grill",
    "opening_hours": "Mo-Th 10:00-23:00; Sa 10:00-02:00; Su 10:00-22:00",
    "payment:cash": "yes"
  }
},
{
  "type": "node",
  "id": 4523411591,
  "lat": 55.5898984,
  "lon": 13.0281162,
  "tags": {
    "amenity": "fast_food",
    "cuisine": "pizza",
    "name": "Ti amo",
    "name:en": "Ti amo",
    "name:sv": "Ti amo"
  }
},
{
  "type": "node",
  "id": 4523412990,
  "lat": 55.5953800,
  "lon": 12.9939549,
  "tags": {
    "addr:country": "SE",
    "addr:housenumber": "3",
    "addr:street": "Roskildevägen",
    "amenity": "restaurant",
    "cuisine": "italian;italian_pizza",
    "name": "Di penco",
    "name:en": "Di penco",
    "name:sv": "Di penco"
  }
},
{
  "type": "node",
  "id": 4523429890,
  "lat": 55.5907561,
  "lon": 13.0254205,
  "tags": {
    "addr:city": "Malmö",
    "addr:housenumber": "88",
    "addr:street": "Amiralsgatan",
    "amenity": "fast_food",
    "cuisine": "kebab;turkish;falafel",
    "name": "Malmö Kebab",
    "opening_hours:signed": "no",
    "payment:cash": "yes"
  }
},
{
  "type": "node",
  "id": 4531872995,
  "lat": 55.5875581,
  "lon": 13.0268435,
  "tags": {
    "amenity": "fast_food",
    "cuisine": "kebab;arab",
    "name": "Kolgrill"
  }
},
{
  "type": "node",
  "id": 4533652812,
  "lat": 55.5840507,
  "lon": 12.9373015,
  "tags": {
    "amenity": "fast_food",
    "cuisine": "pizza"
  }
},
{
  "type": "node",
  "id": 4582102396,
  "lat": 55.6114973,
  "lon": 12.9814979,
  "tags": {
    "addr:country": "SE",
    "addr:housenumber": "1",
    "addr:street": "Masttorget",
    "amenity": "fast_food",
    "brand": "Subway",
    "brand:wikidata": "Q244457",
    "brand:wikipedia": "en:Subway (restaurant)",
    "cuisine": "sandwich",
    "name": "Subway",
    "outdoor_seating": "yes",
    "takeaway": "yes"
  }
},
{
  "type": "node",
  "id": 4582102438,
  "lat": 55.6139363,
  "lon": 12.9819150,
  "tags": {
    "amenity": "cafe",
    "brand": "Wayne's Coffee",
    "brand:wikidata": "Q2637272",
    "brand:wikipedia": "en:Wayne's Coffee",
    "cuisine": "coffee_shop",
    "name": "Wayne's Coffee",
    "outdoor_seating": "yes",
    "takeaway": "yes",
    "wheelchair": "yes"
  }
},
{
  "type": "node",
  "id": 4582777065,
  "lat": 55.6141642,
  "lon": 12.9817951,
  "tags": {
    "addr:street": "Einar Hansens esplanad",
    "amenity": "restaurant",
    "cuisine": "sushi",
    "name": "Sushi For You"
  }
},
{
  "type": "node",
  "id": 4582777072,
  "lat": 55.6140885,
  "lon": 12.9964046,
  "tags": {
    "addr:country": "SE",
    "addr:housenumber": "1",
    "addr:street": "Ångbåtsbron",
    "amenity": "restaurant",
    "cuisine": "regional",
    "level": "7",
    "name": "Kockarna Bruse"
  }
},
{
  "type": "node",
  "id": 4610147523,
  "lat": 55.5907363,
  "lon": 13.0255882,
  "tags": {
    "addr:city": "Malmö",
    "addr:country": "SE",
    "addr:housenumber": "90",
    "addr:street": "Amiralsgatan",
    "amenity": "fast_food",
    "cuisine": "gyros;greek",
    "delivery": "no",
    "drive_through": "no",
    "name": "Mr. Gyros",
    "outdoor_seating": "no",
    "smoking": "no",
    "takeaway": "yes"
  }
},
{
  "type": "node",
  "id": 4738304721,
  "lat": 55.5981525,
  "lon": 13.0088792,
  "tags": {
    "addr:country": "SE",
    "addr:housenumber": "5",
    "addr:street": "Andréelundsvägen",
    "amenity": "restaurant",
    "cuisine": "french",
    "name": "Bouchon",
    "website": "http://bouchon.se/"
  }
},
{
  "type": "node",
  "id": 4738304723,
  "lat": 55.5909800,
  "lon": 13.0068407,
  "tags": {
    "addr:country": "SE",
    "addr:housenumber": "34",
    "addr:street": "Bergsgatan",
    "amenity": "restaurant",
    "cuisine": "middle_eastern",
    "name": "Madina"
  }
},
{
  "type": "node",
  "id": 4778073343,
  "lat": 55.6112074,
  "lon": 12.9775624,
  "tags": {
    "addr:country": "SE",
    "addr:housenumber": "18D",
    "addr:street": "Västra Varvsgatan",
    "amenity": "restaurant",
    "brand": "Domino's",
    "cuisine": "pizza",
    "name": "Domino's",
    "name:sv": "Domino's",
    "website": "https://www.dominos.se/"
  }
},
{
  "type": "node",
  "id": 4785955123,
  "lat": 55.5975664,
  "lon": 13.0091685,
  "tags": {
    "addr:country": "SE",
    "addr:housenumber": "5",
    "addr:street": "Bergsgatan",
    "amenity": "fast_food",
    "cuisine": "kebab;falafel;syrian;middle_eastern",
    "name": "Shamiat",
    "payment:cash": "yes"
  }
},
{
  "type": "node",
  "id": 4788873930,
  "lat": 55.5962455,
  "lon": 13.0094606,
  "tags": {
    "addr:country": "SE",
    "addr:housenumber": "8",
    "addr:postcode": "21154",
    "addr:street": "Bergsgatan",
    "amenity": "restaurant",
    "cuisine": "burger;american",
    "delivery": "no",
    "name": "Casual Street Food",
    "name:sv": "Casual Street Food",
    "opening_hours": "Tu-Th 11:30-21:30; Fr 11:30-22:00; Sa 12:00-22:00; Su 14:00-21:00",
    "outdoor_seating": "no",
    "smoking": "outside",
    "takeaway": "yes"
  }
},
{
  "type": "node",
  "id": 4860686121,
  "lat": 55.5968925,
  "lon": 13.0095905,
  "tags": {
    "addr:country": "SE",
    "addr:housenumber": "4A",
    "addr:street": "Almbacksgatan",
    "amenity": "fast_food",
    "name": "Kebab House",
    "name:sv": "Kebab House"
  }
},
{
  "type": "node",
  "id": 4860687821,
  "lat": 55.5970215,
  "lon": 13.0095967,
  "tags": {
    "addr:country": "SE",
    "addr:housenumber": "4",
    "addr:postcode": "21154",
    "addr:street": "Bergsgatan",
    "amenity": "restaurant",
    "name": "Ayutthaya",
    "name:sv": "Ayutthaya"
  }
},
{
  "type": "node",
  "id": 4879450090,
  "lat": 55.6057069,
  "lon": 13.0232625,
  "tags": {
    "addr:city": "Malmö",
    "amenity": "fast_food",
    "brand": "Subway",
    "brand:wikidata": "Q244457",
    "brand:wikipedia": "sv:Subway",
    "cuisine": "sandwich",
    "drive_through": "no",
    "name": "Subway",
    "opening_hours": "Mo-Fr 08:00-21:00; Sa 08:00-19:00; Su 11:00-19:00",
    "outdoor_seating": "no",
    "takeaway": "yes",
    "wheelchair": "yes"
  }
},
{
  "type": "node",
  "id": 5239326041,
  "lat": 55.5907657,
  "lon": 13.0078579,
  "tags": {
    "addr:city": "Malmö",
    "addr:street": "Sofielundsvägen",
    "addr:unit": "8",
    "amenity": "restaurant",
    "amenity_1": "pub",
    "name": "Square Side"
  }
},
{
  "type": "node",
  "id": 5318761145,
  "lat": 55.5948131,
  "lon": 13.0011662,
  "tags": {
    "amenity": "restaurant",
    "cuisine": "burger",
    "name": "Texas Longhorn"
  }
},
{
  "type": "node",
  "id": 5318761146,
  "lat": 55.5948191,
  "lon": 13.0013137,
  "tags": {
    "amenity": "fast_food",
    "cuisine": "kebab",
    "name": "Triangeln Kebab"
  }
},
{
  "type": "node",
  "id": 5318761147,
  "lat": 55.5971746,
  "lon": 13.0002898,
  "tags": {
    "amenity": "fast_food",
    "cuisine": "kebab",
    "name": "Falafel Triangeln N.1"
  }
},
{
  "type": "node",
  "id": 5318761148,
  "lat": 55.5978602,
  "lon": 12.9998141,
  "tags": {
    "amenity": "fast_food",
    "contact:facebook": "https://www.facebook.com/Pizzeria-Davidhall-623263167817051/",
    "cuisine": "gyros;pizza",
    "name": "Davidshalls Pizzeria",
    "payment:cash": "yes",
    "takeaway": "yes",
    "website": "http://davidhallspizzeria.se"
  }
},
{
  "type": "node",
  "id": 5324445134,
  "lat": 55.5998213,
  "lon": 13.0324185,
  "tags": {
    "addr:country": "SE",
    "addr:housenumber": "38",
    "addr:street": "Celsiusgatan",
    "amenity": "fast_food",
    "brand": "Domino's",
    "cuisine": "pizza",
    "delivery": "yes",
    "entrance": "yes",
    "name": "Domino's Katrinelund",
    "opening_hours": "Mo-Su 11:00-23:00",
    "phone": "90123",
    "takeaway": "yes",
    "website": "https://www.dominos.se/stores/Katrinelund.php",
    "wheelchair": "yes"
  }
},
{
  "type": "node",
  "id": 5378110862,
  "lat": 55.5977691,
  "lon": 12.9790521,
  "tags": {
    "amenity": "restaurant",
    "cuisine": "sushi",
    "name": "Sushido"
  }
},
{
  "type": "node",
  "id": 5378110863,
  "lat": 55.5984560,
  "lon": 12.9774735,
  "tags": {
    "amenity": "restaurant",
    "cuisine": "sushi",
    "name": "Sushibaren"
  }
},
{
  "type": "node",
  "id": 5384441206,
  "lat": 55.5816539,
  "lon": 12.9327565,
  "tags": {
    "amenity": "fast_food",
    "brand": "Domino's Pizza",
    "cuisine": "pizza",
    "name": "Domino's Pizza"
  }
},
{
  "type": "node",
  "id": 5484485172,
  "lat": 55.6034352,
  "lon": 12.9960325,
  "tags": {
    "addr:city": "Malmö",
    "addr:country": "SE",
    "addr:housenumber": "1",
    "addr:street": "Generalsgatan",
    "alt_name": "Pincho Nation",
    "amenity": "restaurant",
    "cuisine": "tapas",
    "name": "Pinchos",
    "opening_hours": "Tu-Th 16:00-23:00; Fr 15:00-01:00; Sa 12:00-01:00; Su 12:00-23:00",
    "website": "https://www.pinchos.se/malmo/"
  }
},
{
  "type": "node",
  "id": 5582178179,
  "lat": 55.5611562,
  "lon": 12.9797780,
  "tags": {
    "addr:city": "Malmö",
    "addr:country": "SE",
    "addr:housenumber": "8",
    "addr:postcode": "21536",
    "addr:street": "Hyllie allé",
    "amenity": "restaurant",
    "brand": "Domino's",
    "capacity": "15",
    "cuisine": "pizza",
    "delivery": "yes",
    "name": "Domino's",
    "takeaway": "yes"
  }
},
{
  "type": "node",
  "id": 5588630321,
  "lat": 55.6087106,
  "lon": 12.9786202,
  "tags": {
    "amenity": "cafe",
    "cuisine": "sushi",
    "name": "Sushi Hamnen"
  }
},
{
  "type": "node",
  "id": 5598258933,
  "lat": 55.5954589,
  "lon": 12.9843961,
  "tags": {
    "addr:street": "Västra Rönneholmsvägen",
    "amenity": "restaurant",
    "name": "Pizzakväll",
    "opening_hours": "Tu-Th 16:00-21:00; Fr 16:00-22:00; Sa 13:00-22:00; Su 13:00-21:00",
    "phone": "+4640910080",
    "website": "www.pizzakvall.se"
  }
},
{
  "type": "node",
  "id": 5608590075,
  "lat": 55.6074141,
  "lon": 13.0214202,
  "tags": {
    "addr:city": "Malmö",
    "addr:country": "SE",
    "addr:housenumber": "2",
    "addr:postcode": "212 11",
    "addr:street": "Drottninggatan",
    "amenity": "restaurant",
    "capacity": "50",
    "contact:facebook": "https://www.facebook.com/fredosmalmo/",
    "cuisine": "italian;pizza",
    "delivery": "yes",
    "name": "Fredo's Pizzagastronomia",
    "opening_hours": "Mo-Su 11:00-22:00",
    "smoking": "no",
    "takeaway": "yes",
    "website": "http://www.fredos.se/"
  }
},
{
  "type": "node",
  "id": 5643775270,
  "lat": 55.5838362,
  "lon": 13.0048550,
  "tags": {
    "amenity": "fast_food",
    "brand": "Domino's",
    "brand:wikidata": "Q839466",
    "brand:wikipedia": "en:Domino's Pizza",
    "cuisine": "pizza",
    "delivery": "yes",
    "name": "Domino's",
    "smoking": "no",
    "takeaway": "yes"
  }
},
{
  "type": "node",
  "id": 5643775271,
  "lat": 55.5834689,
  "lon": 13.0045461,
  "tags": {
    "amenity": "fast_food",
    "delivery": "no",
    "name": "GoGo Grill & Green",
    "takeaway": "yes"
  }
},
{
  "type": "node",
  "id": 5761658046,
  "lat": 55.5975926,
  "lon": 13.0024472,
  "tags": {
    "addr:country": "SE",
    "addr:housenumber": "11",
    "addr:street": "Brogatan",
    "amenity": "restaurant",
    "description": "Raw Food kitchen",
    "diet:vegan": "only",
    "internet_access": "wlan",
    "name": "The Raw Kitchen Malmö",
    "opening_hours": "Mo-Th 11:00-21:00; Fr, Sa 11:00-22:00",
    "website": "https://therawkitchen.se/"
  }
},
{
  "type": "node",
  "id": 5763513671,
  "lat": 55.5954062,
  "lon": 13.0090944,
  "tags": {
    "amenity": "fast_food",
    "name": "Möllans Falafel",
    "payment:cash": "yes"
  }
},
{
  "type": "node",
  "id": 5780364220,
  "lat": 55.5797526,
  "lon": 12.9959454,
  "tags": {
    "amenity": "fast_food",
    "name": "Allans Korv"
  }
},
{
  "type": "node",
  "id": 5834378328,
  "lat": 55.6120141,
  "lon": 12.9810859,
  "tags": {
    "amenity": "cafe"
  }
},
{
  "type": "node",
  "id": 5834378329,
  "lat": 55.6116542,
  "lon": 12.9813450,
  "tags": {
    "addr:city": "Malmö",
    "addr:country": "SE",
    "addr:housenumber": "5",
    "addr:street": "Mastgränd",
    "amenity": "fast_food",
    "cuisine": "salad",
    "drive_through": "no",
    "name": "Salads and smoothies",
    "outdoor_seating": "yes",
    "takeaway": "yes"
  }
},
{
  "type": "node",
  "id": 5870093159,
  "lat": 55.6233837,
  "lon": 13.0449037,
  "tags": {
    "addr:city": "Malmö",
    "addr:country": "SE",
    "addr:housenumber": "55",
    "addr:postcode": "21124",
    "addr:street": "Borrgatan",
    "amenity": "restaurant",
    "cuisine": "buffet",
    "name": "Restaurang Postiljonen",
    "website": "https://postiljonen.gastrogate.com/"
  }
},
{
  "type": "node",
  "id": 5894539182,
  "lat": 55.6047015,
  "lon": 13.0022985,
  "tags": {
    "amenity": "cafe",
    "brand": "Joe & The Juice",
    "brand:wikidata": "Q26221514",
    "brand:wikipedia": "en:Joe & The Juice",
    "changing_table": "no",
    "cuisine": "coffee_shop",
    "diet:vegan": "yes",
    "diet:vegetarian": "yes",
    "name": "Joe & The Juice",
    "outdoor_seating": "yes",
    "takeaway": "yes",
    "toilets:wheelchair": "yes",
    "wheelchair": "yes"
  }
},
{
  "type": "node",
  "id": 6134848811,
  "lat": 55.5969315,
  "lon": 13.0003738,
  "tags": {
    "amenity": "fast_food",
    "cuisine": "salad",
    "name": "Yummy Greens"
  }
},
{
  "type": "node",
  "id": 6253864319,
  "lat": 55.6061074,
  "lon": 13.0231094,
  "tags": {
    "addr:city": "Malmö",
    "addr:country": "SE",
    "addr:housenumber": "56",
    "addr:street": "Östra Förstadsgatan",
    "amenity": "restaurant",
    "name": "Salad & Sushi",
    "opening_hours": "Mo-Fr 11:00-20:00; Sa, Su 12:00-20:00"
  }
},
{
  "type": "node",
  "id": 6301869950,
  "lat": 55.5978884,
  "lon": 12.9988609,
  "tags": {
    "amenity": "restaurant",
    "contact:facebook": "https://www.facebook.com/AVOKADOmalmo/",
    "contact:instagram": "http://instagram.com/avokadomalmo",
    "name": "A·VO·KA·DO",
    "website": "http://avokadomalmo.se/"
  }
},
{
  "type": "node",
  "id": 6301869951,
  "lat": 55.5990999,
  "lon": 12.9999338,
  "tags": {
    "amenity": "cafe",
    "contact:facebook": "https://www.facebook.com/karleksgatan3",
    "contact:instagram": "https://www.instagram.com/karleksgatan3/",
    "name": "Kärleksgatan 3",
    "opening_hours": "Tu-Fr 08:00-17:00; Sa 09:00-16:00",
    "website": "http://www.karleksgatan3.se/"
  }
},
{
  "type": "node",
  "id": 6301876265,
  "lat": 55.6008093,
  "lon": 13.0023451,
  "tags": {
    "amenity": "fast_food",
    "cuisine": "sausage",
    "name": "Korvhuset",
    "website": "http://www.korvhuset.com/"
  }
},
{
  "type": "node",
  "id": 6302226083,
  "lat": 55.6005865,
  "lon": 13.0012159,
  "tags": {
    "amenity": "cafe",
    "cuisine": "salad;sandwich",
    "name": "Graffiti Café",
    "website": "https://www.graffiticafe.se/"
  }
},
{
  "type": "node",
  "id": 6302266975,
  "lat": 55.6025638,
  "lon": 13.0017330,
  "tags": {
    "amenity": "fast_food",
    "cuisine": "kebab",
    "drive_through": "no",
    "name": "German Döner Kebab",
    "website": "https://www.germandonerkebab.com/"
  }
},
{
  "type": "node",
  "id": 6302279917,
  "lat": 55.5978844,
  "lon": 12.9974123,
  "tags": {
    "amenity": "cafe",
    "contact:facebook": "https://www.facebook.com/augustsurfcafe",
    "contact:instagram": "https://www.instagram.com/augustsurfcafe/",
    "name": "August No Stress Surf Café",
    "website": "https://www.augustsurfcafe.se/"
  }
},
{
  "type": "node",
  "id": 6302279918,
  "lat": 55.5998594,
  "lon": 12.9991598,
  "tags": {
    "amenity": "restaurant",
    "contact:facebook": "https://www.facebook.com/PlantmagicsKitchen/",
    "contact:instagram": "https://www.instagram.com/plantmagicskitchen/",
    "name": "Plantmagic's Kitchen",
    "website": "https://www.plantmagicskitchen.se/"
  }
},
{
  "type": "node",
  "id": 6303218324,
  "lat": 55.5982964,
  "lon": 12.9963738,
  "tags": {
    "amenity": "fast_food",
    "contact:facebook": "https://www.facebook.com/burritofriends/",
    "contact:instagram": "https://www.instagram.com/explore/locations/911948483/burritofriends-malmo",
    "name": "Burrito friends",
    "takeaway": "yes",
    "website": "https://burritofriends.se/"
  }
},
{
  "type": "node",
  "id": 6303622732,
  "lat": 55.5992267,
  "lon": 13.0008978,
  "tags": {
    "amenity": "cafe",
    "brand": "Joe & The Juice",
    "brand:wikidata": "Q26221514",
    "brand:wikipedia": "en:Joe & The Juice",
    "name": "Joe & The Juice",
    "website": "https://www.joejuice.com/stores/sweden/soedra-foerstadsgatan-15/"
  }
},
{
  "type": "node",
  "id": 6303622733,
  "lat": 55.5991600,
  "lon": 13.0005330,
  "tags": {
    "amenity": "cafe",
    "name": "Agge & Bönan",
    "website": "https://www.instagram.com/aggebonan/"
  }
},
{
  "type": "node",
  "id": 6303622734,
  "lat": 55.6015369,
  "lon": 13.0015496,
  "tags": {
    "amenity": "fast_food",
    "cuisine": "burger",
    "name": "Tugg",
    "website": "https://malmo.tuggburgers.se/"
  }
},
{
  "type": "node",
  "id": 6303839489,
  "lat": 55.6005034,
  "lon": 13.0008334,
  "tags": {
    "amenity": "cafe",
    "cuisine": "french",
    "name": "Le Croissant",
    "website": "https://www.lecroissant.se/cafe/Malm%C3%B6-City"
  }
},
{
  "type": "node",
  "id": 6303839491,
  "lat": 55.5989203,
  "lon": 12.9979350,
  "tags": {
    "amenity": "restaurant",
    "contact:facebook": "http://www.facebook.com/malmolabonnevie",
    "cuisine": "french",
    "name": "La Bonne Vie",
    "website": "http://labonnevie.se/"
  }
},
{
  "type": "node",
  "id": 6303839492,
  "lat": 55.5988559,
  "lon": 12.9979457,
  "tags": {
    "amenity": "restaurant",
    "contact:facebook": "https://www.facebook.com/lasoupedavidshall/",
    "cuisine": "soup",
    "name": "La Soupe",
    "website": "https://www.lasoupe.se/"
  }
},
{
  "type": "node",
  "id": 6311683886,
  "lat": 55.6040762,
  "lon": 13.0065471,
  "tags": {
    "amenity": "fast_food",
    "contact:facebook": "https://www.facebook.com/toppgrillen1/",
    "name": "Toppgrillen 1",
    "opening_hours": "Mo-Th 10:30-20:00; Sa 11:00-19:00; Su 11:00-18:00"
  }
},
{
  "type": "node",
  "id": 6326746742,
  "lat": 55.5513255,
  "lon": 12.9937864,
  "tags": {
    "addr:city": "Malmö",
    "addr:country": "SE",
    "addr:housenumber": "5",
    "addr:postcode": "215 86",
    "addr:street": "Nornegatan",
    "amenity": "fast_food",
    "cuisine": "sausage;hotdog",
    "drive_through": "no",
    "name": "Pølsemannen",
    "opening_hours": "Mo-Fr 11:00-19:00; Sa-Su 11:00-16:00",
    "operator": "Pølsemannen",
    "outdoor_seating": "yes",
    "takeaway": "only",
    "website": "https://www.polsemannen.se/enheter/harald-nyborg-svagertorp/",
    "wheelchair": "yes"
  }
},
{
  "type": "node",
  "id": 6339859447,
  "lat": 55.5964229,
  "lon": 13.0015670,
  "tags": {
    "amenity": "restaurant",
    "name": "Scandic Triangeln",
    "website": "https://www.scandichotels.com/hotels/sweden/malmo/scandic-triangeln/restaurant-bar/triangeln-restaurant-lounge"
  }
},
{
  "type": "node",
  "id": 6339859448,
  "lat": 55.6057637,
  "lon": 12.9989974,
  "tags": {
    "amenity": "restaurant",
    "name": "Scandic Stortorget",
    "website": "https://www.scandichotels.com/hotels/sweden/malmo/scandic-stortorget/restaurant-bar/restaurant-and-bar"
  }
},
{
  "type": "node",
  "id": 6341952008,
  "lat": 55.5986768,
  "lon": 12.9973082,
  "tags": {
    "amenity": "restaurant",
    "contact:instagram": "https://www.instagram.com/restaurangriket/",
    "name": "Riket",
    "website": "http://riket.net/"
  }
},
{
  "type": "node",
  "id": 6385559692,
  "lat": 55.5977492,
  "lon": 13.0109012,
  "tags": {
    "addr:city": "Malmö",
    "addr:country": "SE",
    "addr:housenumber": "5",
    "addr:street": "Henrik Smithsgatan",
    "amenity": "fast_food",
    "cuisine": "pizza",
    "diet:vegan": "no",
    "diet:vegetarian": "yes",
    "name": "Pizzeria Helena",
    "opening_hours": "Mo 18:00-22:00; Tu-Su 16:00-22:00",
    "payment:cash": "yes",
    "phone": "+4640-12 30 09",
    "wheelchair": "no"
  }
},
{
  "type": "node",
  "id": 6385559696,
  "lat": 55.5996960,
  "lon": 13.0248828,
  "tags": {
    "amenity": "restaurant",
    "cuisine": "japanese",
    "name": "Sugoi"
  }
},
{
  "type": "node",
  "id": 6385559697,
  "lat": 55.6057788,
  "lon": 13.0215292,
  "tags": {
    "amenity": "cafe",
    "name": "Östra Kaffebaren"
  }
},
{
  "type": "node",
  "id": 6401999011,
  "lat": 55.6051770,
  "lon": 12.9976032,
  "tags": {
    "amenity": "restaurant",
    "contact:facebook": "https://www.facebook.com/restaurangnamu/",
    "contact:instagram": "https://www.instagram.com/namurestaurant/",
    "cuisine": "korean",
    "name": "Namu",
    "opening_hours": "Tu-Th 11:30-14:00,17:00-23:00; Fr 11:30-14:00,17:00-24:00; Sa 17:00-24:00",
    "website": "https://namu.nu/"
  }
},
{
  "type": "node",
  "id": 6402015234,
  "lat": 55.6061426,
  "lon": 13.0096975,
  "tags": {
    "addr:country": "SE",
    "addr:housenumber": "15",
    "addr:street": "Norregatan",
    "amenity": "restaurant",
    "cuisine": "pizza",
    "name": "Fratellis Pizza",
    "opening_hours": "Mo-Fr 11:00-21:00; Sa-Su 12:00-21:00",
    "website": "https://fratellis-pizza.business.site/"
  }
},
{
  "type": "node",
  "id": 6414493925,
  "lat": 55.6141445,
  "lon": 12.9911992,
  "tags": {
    "addr:city": "Malmö",
    "addr:postcode": "211 19",
    "addr:street": "Isbergs gata",
    "amenity": "restaurant",
    "name": "Holy Greens",
    "opening_hours": "Mo-Fr 08:00-19:00; Sa 11:00-17:00; Su 11:00-16:00",
    "outdoor_seating": "yes"
  }
},
{
  "type": "node",
  "id": 6438282285,
  "lat": 55.6084050,
  "lon": 13.0107324,
  "tags": {
    "addr:city": "Malmö",
    "addr:housenumber": "4",
    "addr:postcode": "21125",
    "addr:street": "Drottningtorget",
    "amenity": "restaurant",
    "contact:facebook": "https://www.facebook.com/zushimalmo",
    "contact:instagram": "zushimalmo",
    "cuisine": "sushi;asian",
    "delivery": "yes",
    "name": "Zushi",
    "opening_hours": "Tu-Th 16:30-22:00; F-Sa 16:30-00:00; Su 16:00-21:30",
    "phone": "+46.40212880",
    "website": "https://zushi.se/malmo/"
  }
},
{
  "type": "node",
  "id": 6439644393,
  "lat": 55.5479316,
  "lon": 13.0337355,
  "tags": {
    "addr:city": "Malmö",
    "addr:country": "SE",
    "addr:housenumber": "1",
    "addr:postcode": "21376",
    "addr:street": "Firmagatan",
    "amenity": "fast_food",
    "brand": "Max",
    "brand:wikidata": "Q1912172",
    "brand:wikipedia": "en:Max Hamburgers",
    "cuisine": "burger",
    "drive_through": "yes",
    "name": "Max"
  }
},
{
  "type": "node",
  "id": 6445496397,
  "lat": 55.6048098,
  "lon": 12.9974867,
  "tags": {
    "amenity": "cafe",
    "cuisine": "cake;coffee_shop",
    "name": "Eida"
  }
},
{
  "type": "node",
  "id": 6466666264,
  "lat": 55.5627097,
  "lon": 12.9764192,
  "tags": {
    "addr:city": "Malmö",
    "addr:country": "SE",
    "addr:housenumber": "17",
    "addr:postcode": "21623",
    "addr:street": "Hyllie Stationstorg",
    "amenity": "fast_food",
    "brand": "McDonald's",
    "brand:wikidata": "Q38076",
    "brand:wikipedia": "en:McDonald's",
    "cuisine": "burger;breakfast",
    "delivery": "yes",
    "drive_through": "no",
    "internet_access": "wlan",
    "name": "McDonald's",
    "outdoor_seating": "yes"
  }
},
{
  "type": "node",
  "id": 6466677359,
  "lat": 55.5557924,
  "lon": 12.9534273,
  "tags": {
    "addr:city": "Vintrie",
    "addr:country": "SE",
    "addr:housenumber": "2",
    "addr:postcode": "21845",
    "addr:street": "Ollebovägen",
    "amenity": "fast_food",
    "brand": "Burger King",
    "brand:wikidata": "Q177054",
    "brand:wikipedia": "en:Burger King",
    "cuisine": "burger",
    "drive_through": "yes",
    "name": "Burger King",
    "opening_hours": "Mo-Su 10:00-00:00",
    "operator": "Burger King",
    "outdoor_seating": "yes",
    "payment:cash": "yes",
    "payment:credit_cards": "yes",
    "wheelchair": "yes"
  }
},
{
  "type": "node",
  "id": 6466704840,
  "lat": 55.5507177,
  "lon": 13.0352626,
  "tags": {
    "addr:city": "Malmö",
    "addr:country": "SE",
    "addr:housenumber": "12",
    "addr:postcode": "21376",
    "addr:street": "Bronsåldersgatan",
    "amenity": "restaurant",
    "cuisine": "asian;chinese;thai",
    "delivery": "no",
    "drive_through": "yes",
    "internet_access": "wlan",
    "name": "Chop Chop Asian Express Lockarp",
    "operator": "Chop Chop",
    "outdoor_seating": "no",
    "takeaway": "yes",
    "website": "https://chopchop.se/restauranger/lockarp/"
  }
},
{
  "type": "node",
  "id": 6479097885,
  "lat": 55.5920915,
  "lon": 13.0075361,
  "tags": {
    "amenity": "restaurant",
    "internet_access": "wlan",
    "name": "Indian Express 2"
  }
},
{
  "type": "node",
  "id": 6487748346,
  "lat": 55.5987081,
  "lon": 12.9976883,
  "tags": {
    "amenity": "restaurant",
    "cuisine": "vietnamese",
    "name": "Ngon",
    "website": "http://ngonrestaurang.se/"
  }
},
{
  "type": "node",
  "id": 6511370962,
  "lat": 55.6000986,
  "lon": 13.0079078,
  "tags": {
    "addr:city": "Malmö",
    "addr:housenumber": "6",
    "addr:postcode": "21155",
    "addr:street": "Amiralsgatan",
    "amenity": "restaurant",
    "contact:instagram": "https://www.instagram.com/matochchokladstudion/",
    "diet:vegetarian": "yes",
    "name": "Mat- & Chokladstudion",
    "opening_hours": "Mo 07:00-15:00; Tu-Fr 07:00-18:00; Sa 08:00-15:00",
    "shop": "pastry",
    "website": "http://pastrybyjoellindqvist.se/"
  }
},
{
  "type": "node",
  "id": 6513056496,
  "lat": 55.6005838,
  "lon": 12.9937710,
  "tags": {
    "amenity": "restaurant",
    "contact:facebook": "https://www.facebook.com/kokobokrestaurang/",
    "name": "Kok & Bok",
    "website": "https://kokobok.se/"
  }
},
{
  "type": "node",
  "id": 6548362881,
  "lat": 55.6065050,
  "lon": 12.9978259,
  "tags": {
    "amenity": "restaurant",
    "cuisine": "sushi",
    "name": "Sushi Rebellion"
  }
},
{
  "type": "node",
  "id": 6576395970,
  "lat": 55.6015314,
  "lon": 13.0016477,
  "tags": {
    "amenity": "restaurant",
    "name": "Hawii Poké"
  }
},
{
  "type": "node",
  "id": 6604886943,
  "lat": 55.5984437,
  "lon": 12.9957456,
  "tags": {
    "addr:city": "Malmö",
    "addr:housenumber": "5",
    "addr:postcode": "21142",
    "addr:street": "Fersens väg",
    "amenity": "restaurant",
    "cuisine": "thai",
    "name": "Green Mango"
  }
},
{
  "type": "node",
  "id": 6611723095,
  "lat": 55.5766719,
  "lon": 12.9823069,
  "tags": {
    "amenity": "fast_food",
    "name": "Matstugan",
    "website": "https://www.facebook.com/Matstugan-Grill-Pizza-267547599774/"
  }
},
{
  "type": "node",
  "id": 6712109978,
  "lat": 55.5910223,
  "lon": 13.0167729,
  "tags": {
    "addr:country": "SE",
    "addr:housenumber": "41c",
    "addr:street": "Kristanstadsgatan",
    "amenity": "cafe",
    "books": "anarchism",
    "description": "Amalthea bokkafé är en radikal bokhandel och mötesplats i Malmö",
    "name": "Amalthea bokkafé",
    "opening_hours": "Mo-Th 16:00-19:00; Su 12:00-15:00",
    "shop": "books",
    "website": "https://amaltheabokkafe.tumblr.com/"
  }
},
{
  "type": "node",
  "id": 6738454851,
  "lat": 55.6079510,
  "lon": 12.9912103,
  "tags": {
    "amenity": "restaurant",
    "cuisine": "asian;noodle",
    "name": "Pink Head Noodle Bar",
    "website": "https://pinkhead.se/eng/noodlebar/"
  }
},
{
  "type": "node",
  "id": 6795172185,
  "lat": 55.5966907,
  "lon": 13.0295021,
  "tags": {
    "addr:housenumber": "20",
    "amenity": "restaurant",
    "cuisine": "arab",
    "name": "Fahem & Lahem"
  }
},
{
  "type": "node",
  "id": 6795693187,
  "lat": 55.6071175,
  "lon": 13.0000476,
  "tags": {
    "addr:country": "SE",
    "addr:housenumber": "4",
    "addr:street": "Hamngatan",
    "amenity": "cafe",
    "contact:instagram": "https://www.instagram.com/konditorikatarinahamngatan/",
    "name": "Konditori Katarina",
    "opening_hours": "Mo-Fr 07:00-19:00; Sa 10:00-18:00; Su 11:00-18:00",
    "website": "https://konditorikatarina.se"
  }
},
{
  "type": "node",
  "id": 6800357591,
  "lat": 55.5970198,
  "lon": 13.0136473,
  "tags": {
    "amenity": "cafe",
    "name": "Bara Vara"
  }
},
{
  "type": "node",
  "id": 6804927072,
  "lat": 55.5974977,
  "lon": 12.9789188,
  "tags": {
    "amenity": "cafe",
    "name": "Atrium"
  }
},
{
  "type": "node",
  "id": 6819587872,
  "lat": 55.6032697,
  "lon": 13.0001717,
  "tags": {
    "amenity": "restaurant",
    "cuisine": "japanese;burger",
    "name": "Shiso Burger",
    "website": "http://www.shisoburger.com/malmo/"
  }
},
{
  "type": "node",
  "id": 6819587873,
  "lat": 55.5977571,
  "lon": 13.0092131,
  "tags": {
    "amenity": "restaurant",
    "cuisine": "vietnamese;japanese;thai",
    "name": "Bangkok Thai"
  }
},
{
  "type": "node",
  "id": 6850907828,
  "lat": 55.5994185,
  "lon": 12.9978380,
  "tags": {
    "amenity": "restaurant",
    "contact:instagram": "https://instagram.com/koket.lu",
    "name": "LU",
    "website": "http://koket.lu/"
  }
},
{
  "type": "node",
  "id": 6989788438,
  "lat": 55.5976446,
  "lon": 13.0009515,
  "tags": {
    "amenity": "cafe",
    "contact:facebook": "https://www.facebook.com/absmaland/",
    "contact:instagram": "https://www.instagram.com/absmaland/",
    "name": "AB Småland",
    "website": "https://www.absmaland.com/en/page/cafe"
  }
},
{
  "type": "node",
  "id": 7001369712,
  "lat": 55.6045561,
  "lon": 12.9963655,
  "tags": {
    "addr:country": "SE",
    "addr:housenumber": "9",
    "addr:street": "Tegelgårdsgatan",
    "amenity": "restaurant",
    "contact:facebook": "https://www.facebook.com/julievinochost",
    "contact:instagram": "https://www.instagram.com/juliemalmo",
    "name": "Julie Vinbar",
    "opening_hours": "Mo-Su 12:00-22:00",
    "website": "http://juliemalmo.se/"
  }
},
{
  "type": "node",
  "id": 7005812153,
  "lat": 55.6061119,
  "lon": 13.0240623,
  "tags": {
    "addr:country": "SE",
    "addr:housenumber": "1B",
    "addr:street": "Ringgatan",
    "amenity": "restaurant",
    "cuisine": "italian;pizza",
    "email": "info@dalsud.se",
    "entrance": "yes",
    "name": "Dal Sud",
    "opening_hours": "Mo-Th 17:00-21:00; Fr 17:00-22:00; Sa 12:00-22:00; Su 12:30-22:00",
    "phone": "+46 40 190098",
    "takeaway": "yes",
    "website": "https://dalsud.se"
  }
},
{
  "type": "node",
  "id": 7021288955,
  "lat": 55.5881066,
  "lon": 13.0541731,
  "tags": {
    "amenity": "restaurant",
    "cuisine": "pizza;chicken",
    "name": "Super Chicken"
  }
},
{
  "type": "node",
  "id": 7064616279,
  "lat": 55.5926803,
  "lon": 13.0173054,
  "tags": {
    "addr:city": "Malmö",
    "addr:housenumber": "10",
    "addr:postcode": "21436",
    "addr:street": "Sölvesborgsgatan",
    "amenity": "cafe",
    "cuisine": "salads;soup;sandwiches",
    "diet:vegan": "yes",
    "name": "Flax",
    "opening_hours": "Th-Sa 10:00-17:00"
  }
},
{
  "type": "node",
  "id": 7095824520,
  "lat": 55.5805817,
  "lon": 13.0087859,
  "tags": {
    "amenity": "restaurant",
    "name": "Baguette & Sallad Hörnan"
  }
},
{
  "type": "node",
  "id": 7114802934,
  "lat": 55.5851898,
  "lon": 12.9418810,
  "tags": {
    "addr:city": "Limhamn",
    "addr:housenumber": "19",
    "addr:postcode": "21615",
    "addr:street": "Älggatan",
    "addr:unit": "A",
    "amenity": "fast_food",
    "cuisine": "pizza",
    "name": "Bellezza Pizzeria",
    "phone": "+4640163434"
  }
},
{
  "type": "node",
  "id": 7114802935,
  "lat": 55.5809961,
  "lon": 12.9421821,
  "tags": {
    "addr:city": "Limhamn",
    "addr:housenumber": "63",
    "addr:postcode": "216 15",
    "addr:street": "Västanväg",
    "amenity": "restaurant",
    "bar": "yes",
    "cuisine": "pizza",
    "name": "Limhamns Pizzeria & Pub",
    "phone": "+4640161941"
  }
},
{
  "type": "node",
  "id": 7250116021,
  "lat": 55.6046518,
  "lon": 13.0256721,
  "tags": {
    "addr:housenumber": "7",
    "addr:postcode": "21218",
    "addr:street": "Sallerupsvägen",
    "amenity": "fast_food",
    "cuisine": "arab;burger;kebab",
    "entrance": "yes",
    "name": "Orient Grill",
    "phone": "+46 727308327",
    "takeaway": "yes"
  }
},
{
  "type": "node",
  "id": 7282929872,
  "lat": 55.5927331,
  "lon": 13.0078676,
  "tags": {
    "addr:city": "Malmö",
    "addr:housenumber": "26B",
    "addr:postcode": "214 22",
    "addr:street": "Bergsgatan",
    "amenity": "restaurant",
    "cuisine": "turkish;arab;middle_eastern;kebab",
    "name": "Nur Restaurang"
  }
},
{
  "type": "node",
  "id": 7282929873,
  "lat": 55.5926360,
  "lon": 13.0078258,
  "tags": {
    "addr:city": "Malmö",
    "addr:housenumber": "26C",
    "addr:postcode": "21422",
    "addr:street": "Bergsgatan",
    "amenity": "restaurant",
    "cuisine": "arab;middle_eastern;falafel;kebab",
    "name": "Intergrill"
  }
},
{
  "type": "node",
  "id": 7282929874,
  "lat": 55.5926177,
  "lon": 13.0080471,
  "tags": {
    "addr:city": "Malmö",
    "addr:housenumber": "6B",
    "addr:postcode": "21423",
    "addr:street": "Kristianstadsgatan",
    "amenity": "restaurant",
    "cuisine": "middle_eastern;arab;kebab",
    "name": "Tandoor",
    "opening_hours": "Mo-Su 09:00-23:00",
    "payment:cash": "yes",
    "shop": "bakery"
  }
},
{
  "type": "node",
  "id": 7282929876,
  "lat": 55.5919998,
  "lon": 13.0081347,
  "tags": {
    "addr:city": "Malmö",
    "addr:housenumber": "6B",
    "addr:postcode": "21424",
    "addr:street": "Möllevångstorget",
    "amenity": "restaurant",
    "cuisine": "indian",
    "name": "Kontrast Restaurang",
    "website": "https://www.kontrastrestaurang.se/"
  }
},
{
  "type": "node",
  "id": 7282929877,
  "lat": 55.5925996,
  "lon": 13.0056399,
  "tags": {
    "addr:city": "Malmö",
    "addr:housenumber": "84A",
    "addr:postcode": "21420",
    "addr:street": "Södra Förstadsgatan",
    "amenity": "restaurant",
    "cuisine": "indian;south_in",
    "name": "The South Indian",
    "payment:cash": "yes"
  }
},
{
  "type": "node",
  "id": 7282929878,
  "lat": 55.5921161,
  "lon": 13.0056631,
  "tags": {
    "addr:city": "Malmö",
    "addr:housenumber": "88",
    "addr:postcode": "21420",
    "addr:street": "Södra Förstadsgatan",
    "amenity": "cafe",
    "cuisine": "pastry",
    "name": "Martins Konditori & Café",
    "outdoor_seating": "no",
    "payment:cash": "yes",
    "takeaway": "yes"
  }
},
{
  "type": "node",
  "id": 7282929879,
  "lat": 55.5923122,
  "lon": 13.0056436,
  "tags": {
    "addr:city": "Malmö",
    "addr:housenumber": "86",
    "addr:postcode": "21420",
    "addr:street": "Södra Förstadsgatan",
    "amenity": "restaurant",
    "cuisine": "greek",
    "name": "Plaka"
  }
},
{
  "type": "node",
  "id": 7282929880,
  "lat": 55.5931163,
  "lon": 13.0053209,
  "tags": {
    "addr:city": "Malmö",
    "addr:housenumber": "78B",
    "addr:postcode": "21420",
    "addr:street": "Södra Förstadsgatan",
    "amenity": "restaurant",
    "cuisine": "syrian;middle_eastern;arab",
    "name": "Shamiat Restaurang"
  }
},
{
  "type": "node",
  "id": 7282929883,
  "lat": 55.5929514,
  "lon": 13.0054402,
  "tags": {
    "addr:city": "Malmö",
    "addr:housenumber": "80",
    "addr:postcode": "21420",
    "addr:street": "Södra Förstadsgatan",
    "amenity": "restaurant",
    "cuisine": "indian",
    "name": "Delhi Restaurang",
    "payment:cash": "yes"
  }
},
{
  "type": "node",
  "id": 7283161470,
  "lat": 55.5901449,
  "lon": 13.0083597,
  "tags": {
    "amenity": "restaurant",
    "name": "Azalee Restaurang"
  }
},
{
  "type": "node",
  "id": 7283161474,
  "lat": 55.5898449,
  "lon": 13.0087748,
  "tags": {
    "amenity": "restaurant",
    "cuisine": "indian",
    "name": "The Masala Box"
  }
},
{
  "type": "node",
  "id": 7283161475,
  "lat": 55.5898204,
  "lon": 13.0087629,
  "tags": {
    "amenity": "restaurant",
    "cuisine": "vietnamese",
    "name": "Lilla Vietnam"
  }
},
{
  "type": "node",
  "id": 7283161476,
  "lat": 55.5898011,
  "lon": 13.0087586,
  "tags": {
    "amenity": "restaurant",
    "cuisine": "chinese",
    "name": "Bao Bao"
  }
},
{
  "type": "node",
  "id": 7283161477,
  "lat": 55.5898075,
  "lon": 13.0086990,
  "tags": {
    "amenity": "restaurant",
    "cuisine": "hawaiian",
    "name": "Locali"
  }
},
{
  "type": "node",
  "id": 7283161478,
  "lat": 55.5898521,
  "lon": 13.0087329,
  "tags": {
    "amenity": "restaurant",
    "cuisine": "pizza",
    "name": "Pizza Dal Sud"
  }
},
{
  "type": "node",
  "id": 7283161479,
  "lat": 55.5897594,
  "lon": 13.0089193,
  "tags": {
    "amenity": "cafe",
    "cuisine": "pastry",
    "diet:vegan": "only",
    "name": "Manna Kafé"
  }
},
{
  "type": "node",
  "id": 7283161483,
  "lat": 55.5917775,
  "lon": 13.0123410,
  "tags": {
    "addr:city": "Malmö",
    "addr:housenumber": "23B",
    "addr:postcode": "21423",
    "addr:street": "Kristianstadsgatan",
    "amenity": "restaurant",
    "cuisine": "pizza;middle_eastern;coffee_shop",
    "name": "Cafe Rondellen",
    "payment:cash": "yes"
  }
},
{
  "type": "node",
  "id": 7283168686,
  "lat": 55.5830957,
  "lon": 13.0255652,
  "tags": {
    "amenity": "fast_food",
    "cuisine": "burger;bosnian;balkan",
    "name": "Bosniska Köket",
    "payment:cash": "yes"
  }
},
{
  "type": "node",
  "id": 7283168689,
  "lat": 55.5815520,
  "lon": 13.0143566,
  "tags": {
    "addr:city": "Malmö",
    "addr:housenumber": "34",
    "addr:postcode": "21445",
    "addr:street": "Ystadvägen",
    "amenity": "restaurant",
    "cuisine": "turkish;barbecue;kebab;middle_eastern",
    "name": "Restaurang Mevlana Kolgrill"
  }
},
{
  "type": "node",
  "id": 7283438893,
  "lat": 55.5910178,
  "lon": 13.0054260,
  "tags": {
    "addr:city": "Malmö",
    "addr:housenumber": "91",
    "addr:postcode": "21420",
    "addr:street": "Södra Förstadsgatan",
    "amenity": "restaurant",
    "cuisine": "thai",
    "name": "Thai Thai Restaurang"
  }
},
{
  "type": "node",
  "id": 7283438894,
  "lat": 55.5907987,
  "lon": 13.0053573,
  "tags": {
    "addr:city": "Malmö",
    "addr:housenumber": "93",
    "addr:postcode": "21420",
    "addr:street": "Södra Förstadsgatan",
    "amenity": "restaurant",
    "cuisine": "kebab;barbecue;turkish",
    "name": "Istanbul Restaurang & Bar",
    "opening_hours": "￼"
  }
},
{
  "type": "node",
  "id": 7283438895,
  "lat": 55.5907393,
  "lon": 13.0053614,
  "tags": {
    "addr:city": "Malmö",
    "addr:housenumber": "93",
    "addr:postcode": "21420",
    "addr:street": "Södra Förstadsgatan",
    "amenity": "fast_food",
    "cuisine": "middle_eastern;kebab;falafel",
    "drive_through": "no",
    "name": "Habayeb",
    "payment:cash": "yes"
  }
},
{
  "type": "node",
  "id": 7283438907,
  "lat": 55.5916342,
  "lon": 13.0101619,
  "tags": {
    "amenity": "restaurant",
    "cuisine": "asian;dumplings",
    "name": "Dubbel Dubbel"
  }
},
{
  "type": "node",
  "id": 7283459641,
  "lat": 55.5935732,
  "lon": 13.0061636,
  "tags": {
    "amenity": "restaurant",
    "cuisine": "pizza",
    "name": "400 grader"
  }
},
{
  "type": "node",
  "id": 7283459643,
  "lat": 55.5949469,
  "lon": 13.0042021,
  "tags": {
    "amenity": "cafe",
    "name": "Mocca Café"
  }
},
{
  "type": "node",
  "id": 7283459644,
  "lat": 55.5949944,
  "lon": 13.0044563,
  "tags": {
    "amenity": "restaurant",
    "cuisine": "pizza",
    "name": "Ciao"
  }
},
{
  "type": "node",
  "id": 7283459645,
  "lat": 55.5950302,
  "lon": 13.0046847,
  "tags": {
    "amenity": "restaurant",
    "name": "Rebell"
  }
},
{
  "type": "node",
  "id": 7283459646,
  "lat": 55.5949799,
  "lon": 13.0056202,
  "tags": {
    "amenity": "restaurant",
    "cuisine": "french",
    "name": "Le Gourmet"
  }
},
{
  "type": "node",
  "id": 7294162871,
  "lat": 55.5899556,
  "lon": 13.0082098,
  "tags": {
    "addr:city": "Malmö",
    "addr:housenumber": "8",
    "addr:postcode": "21426",
    "addr:street": "Claesgatan",
    "amenity": "restaurant",
    "cuisine": "asian",
    "name": "Jinyan"
  }
},
{
  "type": "node",
  "id": 7294847547,
  "lat": 55.6047203,
  "lon": 12.9997804,
  "tags": {
    "addr:city": "Malmö",
    "addr:housenumber": "10",
    "addr:postcode": "21134",
    "addr:street": "Skomakaregatan",
    "amenity": "restaurant",
    "cuisine": "tapas;international",
    "name": "Plockepinn",
    "website": "https://plockepinn.se/"
  }
},
{
  "type": "node",
  "id": 7295202486,
  "lat": 55.5898635,
  "lon": 13.0102440,
  "tags": {
    "amenity": "restaurant",
    "cuisine": "asian;thai;vietnamese",
    "name": "Thai Viet Restaurant"
  }
},
{
  "type": "node",
  "id": 7295235698,
  "lat": 55.5997921,
  "lon": 13.0243176,
  "tags": {
    "addr:city": "Malmö",
    "addr:housenumber": "10H",
    "addr:postcode": "21252",
    "addr:street": "Industrigatan",
    "amenity": "restaurant",
    "cuisine": "pizza;pasta;sandwich",
    "name": "La Passione"
  }
},
{
  "type": "node",
  "id": 7296715606,
  "lat": 55.5978885,
  "lon": 12.9804430,
  "tags": {
    "addr:city": "Malmö",
    "addr:housenumber": "3",
    "addr:postcode": "21751",
    "addr:street": "Tärningholmsgatan",
    "amenity": "restaurant",
    "cuisine": "burger",
    "name": "Charlie's Burgers",
    "website": "https://www.charliesburgers.se/"
  }
},
{
  "type": "node",
  "id": 7299632725,
  "lat": 55.5993960,
  "lon": 13.0089473,
  "tags": {
    "addr:city": "Malmö",
    "addr:housenumber": "37",
    "addr:postcode": "21152",
    "addr:street": "Föreningsgatan",
    "amenity": "restaurant",
    "cuisine": "sri_lankan",
    "diet:vegetarian": "yes",
    "name": "Taprobana by Taste of Sri Lanka"
  }
},
{
  "type": "node",
  "id": 7299722833,
  "lat": 55.5924902,
  "lon": 13.0087644,
  "tags": {
    "addr:city": "Malmö",
    "addr:housenumber": "10a",
    "addr:postcode": "21423",
    "addr:street": "Kristianstadsgatan",
    "amenity": "restaurant",
    "cuisine": "barbecue;burger;indian",
    "name": "V.E.D"
  }
},
{
  "type": "node",
  "id": 7299749292,
  "lat": 55.5909898,
  "lon": 13.0207998,
  "tags": {
    "addr:city": "Malmö",
    "addr:housenumber": "1",
    "addr:postcode": "21444",
    "addr:street": "Olof Palmes plats",
    "amenity": "restaurant",
    "name": "Restaurant MAT",
    "opening_hours": "Mo-Fr 08:30-14:00",
    "website": "https://www.folkmatmoten.se/restaurang"
  }
},
{
  "type": "node",
  "id": 7442000453,
  "lat": 55.6093335,
  "lon": 13.0374313,
  "tags": {
    "addr:city": "Malmö",
    "addr:housenumber": "22",
    "addr:postcode": "212 21",
    "addr:street": "Vattenverksvägen",
    "amenity": "cafe",
    "name": "Socker och Kanel",
    "opening_hours": "Mo-Fr 07:00-18:00; Sa-Su 07:00-14:00"
  }
},
{
  "type": "node",
  "id": 7442057966,
  "lat": 55.6095471,
  "lon": 13.0355797,
  "tags": {
    "addr:city": "Malmö",
    "addr:housenumber": "10",
    "addr:postcode": "212 21",
    "addr:street": "Vattenverksvägen",
    "amenity": "fast_food",
    "cuisine": "pizza",
    "name": "Tornet Pizzeria",
    "opening_hours": "Mo-Su 11:00-23:00"
  }
},
{
  "type": "node",
  "id": 7442076279,
  "lat": 55.6093835,
  "lon": 13.0369235,
  "tags": {
    "addr:city": "Malmö",
    "addr:housenumber": "20",
    "addr:postcode": "212 21",
    "addr:street": "Vattenverksvägen",
    "amenity": "restaurant",
    "cuisine": "pizza;turkish;kebab",
    "name": "Nazar Restaurang Grill & Bar",
    "opening_hours": "Mo-Su 14:00-01:00",
    "phone": "+464088856",
    "website": "https://www.facebook.com/nazargrillbar/"
  }
},
{
  "type": "node",
  "id": 7500699334,
  "lat": 55.5959858,
  "lon": 13.0060639,
  "tags": {
    "addr:city": "Malmö",
    "addr:housenumber": "13",
    "addr:postcode": "211 52",
    "addr:street": "Norra Skolgatan",
    "amenity": "restaurant",
    "cuisine": "spanish",
    "name": "Pepes kök",
    "payment:cash": "yes"
  }
},
{
  "type": "node",
  "id": 7646428166,
  "lat": 55.5397435,
  "lon": 13.0945146,
  "tags": {
    "amenity": "restaurant",
    "name": "Pub Oxen"
  }
},
{
  "type": "node",
  "id": 7646453892,
  "lat": 55.5393805,
  "lon": 13.0960165,
  "tags": {
    "amenity": "restaurant",
    "name": "Mr Chow’s"
  }
},
{
  "type": "node",
  "id": 7647597709,
  "lat": 55.5491243,
  "lon": 13.0958721,
  "tags": {
    "amenity": "restaurant",
    "cuisine": "pizza",
    "name": "Ristorante Casa Bianca"
  }
},
{
  "type": "node",
  "id": 7648265212,
  "lat": 55.5901476,
  "lon": 13.0161322,
  "tags": {
    "addr:housenumber": "79",
    "addr:street": "Nobelvägen",
    "amenity": "cafe",
    "cuisine": "crepe",
    "name": "Crepe & Dip",
    "payment:cash": "yes"
  }
},
{
  "type": "node",
  "id": 7648265213,
  "lat": 55.5915633,
  "lon": 13.0065860,
  "tags": {
    "addr:housenumber": "41A",
    "addr:street": "Bergsgatan",
    "amenity": "cafe",
    "name": "Notello Rolls",
    "outdoor_seating": "no"
  }
},
{
  "type": "node",
  "id": 7648265214,
  "lat": 55.5911257,
  "lon": 13.0084291,
  "tags": {
    "addr:housenumber": "7",
    "addr:street": "Möllevångstorget",
    "amenity": "cafe",
    "name": "Notelle Hus"
  }
},
{
  "type": "node",
  "id": 7741137887,
  "lat": 55.5265868,
  "lon": 13.0650390,
  "tags": {
    "addr:housenumber": "77",
    "addr:postcode": "23841",
    "addr:street": "Krombyvägen",
    "amenity": "cafe",
    "cuisine": "cake;coffee_shop;pancake;sandwich",
    "name": "Wasabi orangeri café & butik",
    "website": "https://wasabi-orangeri.com/"
  }
},
{
  "type": "node",
  "id": 7791158765,
  "lat": 55.5809276,
  "lon": 13.0190981,
  "tags": {
    "addr:city": "Malmö",
    "addr:housenumber": "59",
    "addr:postcode": "21448",
    "addr:street": "Lantmannagatan",
    "amenity": "fast_food",
    "cuisine": "balkan",
    "diet:vegetarian": "yes",
    "name": "Sopi Burek House",
    "payment:cash": "yes"
  }
},
{
  "type": "node",
  "id": 7794349939,
  "lat": 55.5914995,
  "lon": 13.0090387,
  "tags": {
    "addr:housenumber": "12-14",
    "addr:street": "Möllevångstorget",
    "amenity": "restaurant",
    "cuisine": "indian",
    "name": "Möllan Curry"
  }
},
{
  "type": "node",
  "id": 7794349940,
  "lat": 55.5911957,
  "lon": 13.0094018,
  "tags": {
    "addr:housenumber": "4",
    "addr:street": "Ystadsgatan",
    "amenity": "restaurant",
    "cuisine": "pizza;kebab",
    "name": "Möllans pizzeria"
  }
},
{
  "type": "node",
  "id": 7900258810,
  "lat": 55.6075312,
  "lon": 12.9791811,
  "tags": {
    "addr:housenumber": "5a",
    "addr:street": "Västra Varvsgatan",
    "amenity": "cafe",
    "name": "Kipos",
    "payment:cash": "yes"
  }
},
{
  "type": "node",
  "id": 7900258811,
  "lat": 55.5997063,
  "lon": 13.0327074,
  "tags": {
    "addr:housenumber": "38",
    "addr:street": "Celsiusgatan",
    "amenity": "fast_food",
    "cuisine": "balkan",
    "name": "Katarinalund Grill",
    "payment:cash": "yes",
    "phone": "+46 707889747"
  }
},
{
  "type": "node",
  "id": 7951164438,
  "lat": 55.6134723,
  "lon": 12.9920476,
  "tags": {
    "addr:city": "Malmö",
    "addr:housenumber": "5",
    "addr:postcode": "211 19",
    "addr:street": "Isbergs gata",
    "amenity": "restaurant",
    "name": "Miamarias",
    "outdoor_seating": "yes"
  }
},
{
  "type": "node",
  "id": 7951261837,
  "lat": 55.6115048,
  "lon": 12.9850686,
  "tags": {
    "addr:city": "Malmö",
    "addr:housenumber": "15 A",
    "addr:street": "Stora Varvsgatan",
    "amenity": "cafe",
    "name": "Yallatrappan",
    "opening_hours": "11:00-17:30",
    "outdoor_seating": "yes"
  }
},
{
  "type": "way",
  "id": 51335206,
  "center": {
    "lat": 55.5873787,
    "lon": 13.0537622
  },
  "nodes": [
    655117944,
    655117945,
    655117946,
    655117947,
    655117948,
    655117949,
    655117950,
    655117951,
    655117952,
    2286897593,
    2286897588,
    655117953,
    655117954,
    655117955,
    655117944
  ],
  "tags": {
    "amenity": "restaurant",
    "building": "yes",
    "name": "Restaurang Rotundan",
    "source": "yahoo"
  }
},
{
  "type": "way",
  "id": 52201006,
  "center": {
    "lat": 55.6081420,
    "lon": 12.9935238
  },
  "nodes": [
    664809222,
    1931129013,
    1931129015,
    1931129020,
    1931129017,
    664809229,
    664809236,
    1931129046,
    1931129044,
    1931129032,
    1931129035,
    664809253,
    664809222
  ],
  "tags": {
    "addr:country": "SE",
    "addr:housenumber": "1",
    "addr:street": "Neptunigatan",
    "amenity": "restaurant",
    "building": "train_station",
    "name": "Västra station",
    "website": "http://www.vastrastation.se/",
    "wikidata": "Q2014432"
  }
},
{
  "type": "way",
  "id": 99519490,
  "center": {
    "lat": 55.5694043,
    "lon": 12.8968306
  },
  "nodes": [
    1151092086,
    1151092081,
    1151092094,
    1151092124,
    1151092128,
    1151092142,
    1151092056,
    1151092078,
    1151092092,
    1151092122,
    1151092139,
    1151092054,
    1151092073,
    1151092088,
    1151092119,
    1151092133,
    1151092051,
    1151092086
  ],
  "tags": {
    "amenity": "restaurant",
    "building": "yes",
    "email": "info@luftkastellet.se",
    "name": "Luftkastellet",
    "opening_hours": "\"events only\"",
    "phone": "+4640159888",
    "website": "https://www.luftkastellet.se/"
  }
},
{
  "type": "way",
  "id": 99835705,
  "center": {
    "lat": 55.6037766,
    "lon": 12.9892087
  },
  "nodes": [
    1154171780,
    1154171778,
    1154171776,
    1154171781,
    3359583337,
    3359583338,
    3359583339,
    3359583340,
    3359583341,
    3359583342,
    1154171780
  ],
  "tags": {
    "amenity": "cafe",
    "building": "yes",
    "cuisine": "coffee_shop",
    "name": "Slottsträdgårdens Kafé",
    "opening_hours": "Mo-Su 11:00-17:00",
    "source": "survey",
    "website": "www.slottstradgardenskafe.se",
    "wheelchair": "yes"
  }
},
{
  "type": "way",
  "id": 100074523,
  "center": {
    "lat": 55.6012871,
    "lon": 12.9635692
  },
  "nodes": [
    1156878415,
    1156878418,
    1156878406,
    1156878442,
    1156878415
  ],
  "tags": {
    "amenity": "fast_food",
    "building": "yes",
    "name": "Strand Grill & Kiosk",
    "shop": "kiosk"
  }
},
{
  "type": "way",
  "id": 100074949,
  "center": {
    "lat": 55.6024242,
    "lon": 12.9675274
  },
  "nodes": [
    1156880463,
    1156880472,
    2431378495,
    1156880524,
    1156880534,
    1156880463
  ],
  "tags": {
    "amenity": "fast_food",
    "building": "yes",
    "name": "Strandkiosken",
    "shop": "kiosk"
  }
},
{
  "type": "way",
  "id": 102209307,
  "center": {
    "lat": 55.5828190,
    "lon": 13.0220247
  },
  "nodes": [
    1179544343,
    1179544322,
    1179544311,
    1179544265,
    1179544343
  ],
  "tags": {
    "amenity": "fast_food",
    "building": "yes",
    "name": "Tasty",
    "source": "Bing"
  }
},
{
  "type": "way",
  "id": 115613093,
  "center": {
    "lat": 55.5668746,
    "lon": 13.0493383
  },
  "nodes": [
    1305712368,
    1305712326,
    1305712360,
    1305712357,
    1305712368
  ],
  "tags": {
    "amenity": "fast_food",
    "building": "yes",
    "cuisine": "thai",
    "name": "Asian- & Thai Fast Food"
  }
},
{
  "type": "way",
  "id": 131695661,
  "center": {
    "lat": 55.5796124,
    "lon": 13.0019697
  },
  "nodes": [
    1449110048,
    1449110051,
    1449110049,
    1449110050,
    1449110048
  ],
  "tags": {
    "amenity": "fast_food",
    "brand": "Burger King",
    "brand:wikidata": "Q177054",
    "brand:wikipedia": "en:Burger King",
    "building": "yes",
    "cuisine": "burger",
    "name": "Burger King",
    "operator": "Burger King",
    "takeaway": "yes",
    "toilets:wheelchair": "yes",
    "wheelchair": "yes"
  }
},
{
  "type": "way",
  "id": 152885052,
  "center": {
    "lat": 55.5830524,
    "lon": 12.9227871
  },
  "nodes": [
    1656612100,
    1656612091,
    1656612044,
    1656612051,
    1656612100
  ],
  "tags": {
    "addr:city": "Limhamn",
    "addr:country": "SE",
    "addr:housenumber": "2",
    "addr:street": "Linnégatan",
    "amenity": "fast_food",
    "building": "yes"
  }
},
{
  "type": "way",
  "id": 159635009,
  "center": {
    "lat": 55.5708782,
    "lon": 13.0424035
  },
  "nodes": [
    1717525754,
    1717525753,
    1717525765,
    1717525752,
    1717525754
  ],
  "tags": {
    "addr:city": "Malmö",
    "addr:country": "SE",
    "addr:housenumber": "17",
    "addr:street": "Cypressvägen",
    "amenity": "fast_food",
    "building": "yes",
    "cuisine": "falafel",
    "name": "Falafel No 1"
  }
},
{
  "type": "way",
  "id": 160642742,
  "center": {
    "lat": 55.5917770,
    "lon": 13.0079471
  },
  "nodes": [
    1726889456,
    1726889455,
    1726889451,
    1726889453,
    1726889456
  ],
  "tags": {
    "amenity": "fast_food",
    "brand": "Sibylla",
    "brand:wikidata": "Q488643",
    "brand:wikipedia": "en:Sibylla (fast food)",
    "building": "yes",
    "cuisine": "burger",
    "name": "Sibylla",
    "takeaway": "yes"
  }
},
{
  "type": "way",
  "id": 189510000,
  "center": {
    "lat": 55.5922705,
    "lon": 13.0014409
  },
  "nodes": [
    2001133521,
    2409034813,
    2001133511,
    2001133523,
    2409034812,
    2001133519,
    2409034808,
    2001133521
  ],
  "tags": {
    "amenity": "cafe",
    "building": "yes",
    "name": "Doffeln",
    "payment:cash": "no"
  }
},
{
  "type": "way",
  "id": 191453709,
  "center": {
    "lat": 55.5727449,
    "lon": 13.0383643
  },
  "nodes": [
    2020275223,
    2020275220,
    2290799055,
    2290799034,
    2290799018,
    2290799020,
    2020275210,
    2020275213,
    2020275223
  ],
  "tags": {
    "addr:city": "Malmö",
    "addr:country": "SE",
    "addr:housenumber": "6A",
    "addr:postcode": "213 63",
    "addr:street": "Cypressvägen",
    "amenity": "fast_food",
    "brand": "Max",
    "brand:wikidata": "Q1912172",
    "brand:wikipedia": "en:Max Hamburgers",
    "building": "yes",
    "cuisine": "burger",
    "name": "Max",
    "operator": "Max",
    "takeaway": "yes",
    "wheelchair": "yes"
  }
},
{
  "type": "way",
  "id": 211546522,
  "center": {
    "lat": 55.5886688,
    "lon": 12.9937913
  },
  "nodes": [
    2215352078,
    2215352050,
    2215352089,
    2215352091,
    2215352078
  ],
  "tags": {
    "amenity": "restaurant",
    "building": "yes",
    "name": "Margaretapaviljongen"
  }
},
{
  "type": "way",
  "id": 211713838,
  "center": {
    "lat": 55.5551907,
    "lon": 12.9190557
  },
  "nodes": [
    2216849828,
    2667855127,
    2216849825,
    2216849826,
    2216849828
  ],
  "tags": {
    "amenity": "restaurant",
    "building": "yes"
  }
},
{
  "type": "way",
  "id": 218458955,
  "center": {
    "lat": 55.5390325,
    "lon": 13.0922956
  },
  "nodes": [
    2277075556,
    2277075542,
    2277075511,
    7647592623,
    7647592625,
    7647592626,
    7647592624,
    2277075529,
    2277075556
  ],
  "tags": {
    "addr:city": "Oxie",
    "addr:country": "SE",
    "addr:street": "Stengodsvägen",
    "amenity": "fast_food",
    "building": "yes",
    "cuisine": "pizza",
    "name": "Oxie Grill och Pizzeria"
  }
},
{
  "type": "way",
  "id": 219542107,
  "center": {
    "lat": 55.5842576,
    "lon": 13.0557584
  },
  "nodes": [
    2286897496,
    2286897488,
    2286897489,
    2286897498,
    2286897499,
    2286897506,
    2286897503,
    2286897497,
    2286897496
  ],
  "tags": {
    "amenity": "fast_food",
    "brand": "McDonald's",
    "brand:wikidata": "Q38076",
    "brand:wikipedia": "en:McDonald's",
    "building": "yes",
    "cuisine": "burger",
    "name": "McDonald's",
    "takeaway": "yes"
  }
},
{
  "type": "way",
  "id": 219714948,
  "center": {
    "lat": 55.5962304,
    "lon": 13.0639151
  },
  "nodes": [
    2288523424,
    2288523416,
    2288523391,
    2288523412,
    2288523424
  ],
  "tags": {
    "amenity": "fast_food",
    "brand": "Burger King",
    "brand:wikidata": "Q177054",
    "brand:wikipedia": "en:Burger King",
    "building": "yes",
    "cuisine": "burger",
    "description": "Drive In",
    "name": "Burger King",
    "operator": "Burger King",
    "takeaway": "yes",
    "toilets": "yes",
    "wheelchair": "yes"
  }
},
{
  "type": "way",
  "id": 220245481,
  "center": {
    "lat": 55.6045225,
    "lon": 13.0028859
  },
  "nodes": [
    2293729180,
    663366797,
    2293729184,
    663366798,
    663366799,
    444823481,
    6381435639,
    2293729180
  ],
  "tags": {
    "addr:city": "Malmö",
    "addr:country": "SE",
    "addr:housenumber": "24",
    "addr:postcode": "211 36",
    "addr:street": "Baltzarsgatan",
    "amenity": "cafe",
    "contact:website": "http://www.lillakafferosteriet.se/",
    "cuisine": "coffee_shop",
    "name": "Lilla Kafferosteriet",
    "opening_hours": "Mo-Fr 08:00-18:00; Sa-Su 10:00-18:00",
    "outdoor_seating": "yes",
    "payment:cash": "no",
    "smoking": "outside",
    "toilets": "yes",
    "toilets:access": "permissive",
    "toilets:wheelchair": "no",
    "wheelchair": "limited"
  }
},
{
  "type": "way",
  "id": 230610888,
  "center": {
    "lat": 55.5620247,
    "lon": 13.0082296
  },
  "nodes": [
    2390976279,
    2390976281,
    2390976280,
    2390976278,
    2390976279
  ],
  "tags": {
    "amenity": "fast_food",
    "building": "yes",
    "name": "Högaholmsgrillen",
    "payment:cash": "yes"
  }
},
{
  "type": "way",
  "id": 230677614,
  "center": {
    "lat": 55.5802861,
    "lon": 13.0165324
  },
  "nodes": [
    2391458203,
    2391458246,
    2391458296,
    2391458262,
    2391458203
  ],
  "tags": {
    "amenity": "fast_food",
    "building": "yes",
    "cuisine": "burger",
    "name": "Heleneholms gatukök"
  }
},
{
  "type": "way",
  "id": 230902324,
  "center": {
    "lat": 55.5608845,
    "lon": 12.9519040
  },
  "nodes": [
    2393338202,
    2393338216,
    2393338211,
    2393338195,
    2393338202
  ],
  "tags": {
    "amenity": "cafe",
    "building": "yes",
    "fixme": "amenity type",
    "name": "Mässingens mat och trädgård"
  }
},
{
  "type": "way",
  "id": 231767388,
  "center": {
    "lat": 55.6029539,
    "lon": 13.0317216
  },
  "nodes": [
    2400997271,
    2400997270,
    2400997268,
    1393874901,
    2400997274,
    2400997271
  ],
  "tags": {
    "addr:city": "Malmö",
    "addr:country": "SE",
    "addr:housenumber": "28d",
    "addr:street": "Sallerupsvägen",
    "amenity": "restaurant",
    "building": "yes",
    "cuisine": "pizza",
    "name": "Ellstorps Kvarterskrog",
    "phone": "+46-40-18 42 68"
  }
},
{
  "type": "way",
  "id": 232186349,
  "center": {
    "lat": 55.6002132,
    "lon": 13.0383845
  },
  "nodes": [
    2405600638,
    2405600631,
    2405600627,
    2405600633,
    2405600638
  ],
  "tags": {
    "amenity": "fast_food",
    "cuisine": "pasta",
    "name": "Pastastationen"
  }
},
{
  "type": "way",
  "id": 233219302,
  "center": {
    "lat": 55.6041323,
    "lon": 12.9794436
  },
  "nodes": [
    2415755426,
    2415755429,
    2415755434,
    2415755432,
    2415755435,
    2415755433,
    2415755436,
    2415755431,
    2415755426
  ],
  "tags": {
    "addr:street": "Peterstorpsvägen",
    "amenity": "restaurant",
    "building": "yes",
    "name": "Surf Shack",
    "payment:cash": "no"
  }
},
{
  "type": "way",
  "id": 235026319,
  "center": {
    "lat": 55.5991208,
    "lon": 12.9559780
  },
  "nodes": [
    2431330868,
    2431330870,
    2431330875,
    2431330873,
    2431330868
  ],
  "tags": {
    "amenity": "fast_food",
    "building": "yes",
    "cuisine": "ice_cream",
    "name": "Café Blå Kiosken",
    "shop": "kiosk"
  }
},
{
  "type": "way",
  "id": 235031305,
  "center": {
    "lat": 55.6054315,
    "lon": 12.9780834
  },
  "nodes": [
    2431378523,
    2431378521,
    2431378522,
    2431378524,
    2431378526,
    2431378528,
    2431378527,
    2431378525,
    2431378523
  ],
  "tags": {
    "amenity": "fast_food",
    "cuisine": "ice_cream",
    "shop": "kiosk"
  }
},
{
  "type": "way",
  "id": 241782844,
  "center": {
    "lat": 55.5948386,
    "lon": 12.9677614
  },
  "nodes": [
    2493735426,
    2493735429,
    2493735427,
    2493735424,
    2493735426
  ],
  "tags": {
    "amenity": "fast_food",
    "building": "yes",
    "name": "Marina"
  }
},
{
  "type": "way",
  "id": 288675687,
  "center": {
    "lat": 55.5910650,
    "lon": 13.0102061
  },
  "nodes": [
    2922263693,
    2922273201,
    2922273206,
    2922263698,
    2922263693
  ],
  "tags": {
    "addr:city": "Malmö",
    "addr:housenumber": "30",
    "addr:street": "Ystadsgatan",
    "amenity": "restaurant",
    "building": "yes",
    "cuisine": "arab;falafel;kebab",
    "name": "Diwan",
    "payment:cash": "yes",
    "takeaway": "yes"
  }
},
{
  "type": "way",
  "id": 288705825,
  "center": {
    "lat": 55.5959202,
    "lon": 13.0125603
  },
  "nodes": [
    2922560564,
    2922560565,
    2922560563,
    2922560562,
    2922560564
  ],
  "tags": {
    "amenity": "fast_food",
    "building": "yes",
    "cuisine": "kebab;falafel",
    "diet:vegan": "yes",
    "name": "Babylon Grill",
    "payment:cash": "yes"
  }
},
{
  "type": "way",
  "id": 289957233,
  "center": {
    "lat": 55.5969464,
    "lon": 13.0013677
  },
  "nodes": [
    2934890440,
    2934890438,
    2934890443,
    2934890454,
    2934890461,
    2934890465,
    2934890457,
    2934890448,
    2934890440
  ],
  "tags": {
    "amenity": "fast_food",
    "building": "yes",
    "name": "Ammo Falafel",
    "payment:cash": "yes"
  }
},
{
  "type": "way",
  "id": 329127719,
  "center": {
    "lat": 55.6021674,
    "lon": 13.0034036
  },
  "nodes": [
    3359478861,
    3359478862,
    3359478863,
    3359478864,
    3359478865,
    3359478866,
    3359478867,
    3359478868,
    3359478869,
    3359478870,
    3359478861
  ],
  "tags": {
    "addr:city": "Malmö",
    "addr:country": "SE",
    "addr:housenumber": "1",
    "addr:postcode": "211 38",
    "addr:street": "Lilla Nygatan",
    "amenity": "fast_food",
    "building": "yes",
    "cuisine": "kebab",
    "name": "FKS",
    "phone": "+46 73-912 75 32"
  }
},
{
  "type": "way",
  "id": 336365538,
  "center": {
    "lat": 55.6008949,
    "lon": 12.9924981
  },
  "nodes": [
    3434089066,
    3434089067,
    3434089068,
    3434089069,
    3434089066
  ],
  "tags": {
    "amenity": "fast_food",
    "building": "yes",
    "name": "Slottsparkens Gatukök"
  }
},
{
  "type": "way",
  "id": 336366815,
  "center": {
    "lat": 55.6007232,
    "lon": 12.9967266
  },
  "nodes": [
    3434104024,
    3434104025,
    3434104026,
    3434104027,
    3434104024
  ],
  "tags": {
    "amenity": "fast_food",
    "building": "yes",
    "cuisine": "kebab;falafel",
    "diet:vegetarian": "yes",
    "drive_through": "no",
    "name": "Super Falafel",
    "takeaway": "yes"
  }
},
{
  "type": "way",
  "id": 345609771,
  "center": {
    "lat": 55.5510272,
    "lon": 13.0345989
  },
  "nodes": [
    3522516354,
    3522516351,
    3522516352,
    3522516353,
    3522516354
  ],
  "tags": {
    "addr:city": "Malmö",
    "addr:postcode": "21376",
    "addr:street": "Bronsåldersgatan",
    "amenity": "fast_food",
    "brand": "Subway",
    "brand:wikidata": "Q244457",
    "brand:wikipedia": "en:Subway (restaurant)",
    "building": "yes",
    "cuisine": "sandwich;salad",
    "drive_through": "no",
    "name": "Subway Lockarp",
    "operator": "Subway"
  }
},
{
  "type": "way",
  "id": 349933140,
  "center": {
    "lat": 55.6139827,
    "lon": 13.0490371
  },
  "nodes": [
    3557151323,
    3557151326,
    3557151322,
    3557151319,
    3557151323
  ],
  "tags": {
    "amenity": "fast_food",
    "building": "yes",
    "cuisine": "kebab",
    "name": "Segevångs falafel och kebab"
  }
},
{
  "type": "way",
  "id": 358542359,
  "center": {
    "lat": 55.6266462,
    "lon": 13.0374113
  },
  "nodes": [
    3634512350,
    3634512351,
    3634512352,
    3634512353,
    3634512350
  ],
  "tags": {
    "addr:country": "SE",
    "addr:housenumber": "29",
    "addr:street": "Blidögatan",
    "amenity": "fast_food",
    "building": "yes",
    "cuisine": "pasta",
    "name": "Pastamannen",
    "takeaway": "only"
  }
},
{
  "type": "way",
  "id": 359075110,
  "center": {
    "lat": 55.6198658,
    "lon": 13.0354589
  },
  "nodes": [
    3638690194,
    3638690195,
    3638690198,
    3638690199,
    3638690196,
    3638690197,
    3638690194
  ],
  "tags": {
    "addr:country": "SE",
    "addr:housenumber": "6",
    "addr:street": "Brännögatan",
    "amenity": "fast_food",
    "building": "yes",
    "name": "Tony’s fastfood"
  }
},
{
  "type": "way",
  "id": 383042812,
  "center": {
    "lat": 55.6048720,
    "lon": 12.9657334
  },
  "nodes": [
    3862449662,
    3862449658,
    3862448053,
    311239877,
    311239878,
    3862448052,
    312400999,
    3862448056,
    311239879,
    311239880,
    3862449662
  ],
  "tags": {
    "addr:city": "Malmö",
    "addr:country": "SE",
    "addr:housenumber": "Brygga 1",
    "addr:postcode": "217 59",
    "addr:street": "Limhamnsvägen",
    "amenity": "cafe",
    "contact:website": "http://www.ribersborgskallbadhus.se/",
    "level": "0",
    "name": "Ribersborgs Kallbadhus",
    "operator": "Hekajo AB"
  }
},
{
  "type": "way",
  "id": 424484008,
  "center": {
    "lat": 55.5919502,
    "lon": 12.9838844
  },
  "nodes": [
    4238924096,
    4238924097,
    4238924093,
    4238924092,
    4238924096
  ],
  "tags": {
    "amenity": "fast_food",
    "building": "yes",
    "cuisine": "kebab",
    "name": "Kronborgs falafel"
  }
},
{
  "type": "way",
  "id": 635556649,
  "center": {
    "lat": 55.5906352,
    "lon": 12.9970325
  },
  "nodes": [
    5995018211,
    5995018212,
    5995018213,
    5995018214,
    5995018211
  ],
  "tags": {
    "amenity": "restaurant",
    "building": "yes",
    "name": "Bloom in the Park"
  }
},
{
  "type": "way",
  "id": 684433881,
  "center": {
    "lat": 55.5537327,
    "lon": 12.9941906
  },
  "nodes": [
    6412417355,
    6412417353,
    6412417356,
    6412417354,
    6412417355
  ],
  "tags": {
    "amenity": "restaurant",
    "building": "yes",
    "cuisine": "asian",
    "drive_in": "yes",
    "name": "ChopChop Asian Express"
  }
},
{
  "type": "way",
  "id": 781905055,
  "center": {
    "lat": 55.5953498,
    "lon": 12.9968774
  },
  "nodes": [
    7300187717,
    7300187718,
    7300187719,
    7300187720,
    7300187717
  ],
  "tags": {
    "addr:city": "Malmö",
    "addr:housenumber": "11",
    "addr:postcode": "21146",
    "addr:street": "Pildammsvägen",
    "amenity": "fast_food",
    "building": "yes",
    "cuisine": "falafel;kebab",
    "name": "Statsfalafel & Grill"
  }
},
{
  "type": "relation",
  "id": 10717676,
  "center": {
    "lat": 55.5926842,
    "lon": 13.0142260
  },
  "members": [
    {
      "type": "way",
      "ref": 126704655,
      "role": "outer"
    }
  ],
  "tags": {
    "amenity": "restaurant",
    "diet:vegan": "yes",
    "diet:vegetarian": "yes",
    "name": "Far i hatten",
    "opening_hours": "Su-Tu 11:00-01:00, We-Sa 11:00-02:00",
    "payment:cash": "no",
    "phone": "+46 40 615 36 51",
    "type": "multipolygon",
    "website": "https://www.farihatten.se/",
    "wheelchair": "yes"
  }
},
{
  "type": "relation",
  "id": 10719436,
  "center": {
    "lat": 55.5937403,
    "lon": 13.0135129
  },
  "members": [
    {
      "type": "way",
      "ref": 77524523,
      "role": "outer"
    }
  ],
  "tags": {
    "amenity": "restaurant",
    "building": "yes",
    "name": "Moriskan",
    "type": "multipolygon",
    "wikidata": "Q10589124"
  }
}

  ]
}
